iata,name,state,country,latitude,longitude,lineage
Z01001,Origin-Agawam-MA,MA,USA,42.0707,-72.6202,0
Z01013,Origin-Chicopee-MA,MA,USA,42.1616,-72.6031,0
Z01038,Origin-Hatfield-MA,MA,USA,42.3752,-72.6082,0
Z01040,Origin-Holyoke-MA,MA,USA,42.202,-72.6241,0
Z01056,Origin-Ludlow-MA,MA,USA,42.1749,-72.4706,0
Z01069,Origin-Palmer-MA,MA,USA,42.1765,-72.3264,0
Z01085,Origin-Westfield-MA,MA,USA,42.1336,-72.7502,0
Z01089,Origin-West Springfield-MA,MA,USA,42.1128,-72.6406,0
Z01104,Origin-Springfield-MA,MA,USA,42.1304,-72.5733,0
Z01105,Origin-Springfield-MA,MA,USA,42.0967,-72.5798,0
Z01129,Origin-Springfield-MA,MA,USA,42.1211,-72.4895,0
Z01201,Origin-Pittsfield-MA,MA,USA,42.4539,-73.254,0
Z01420,Origin-Fitchburg-MA,MA,USA,42.5787,-71.8033,0
Z01432,Origin-Ayer-MA,MA,USA,42.5499,-71.5913,0
Z01460,Origin-Littleton-MA,MA,USA,42.5401,-71.4908,0
Z01536,Origin-North Grafton-MA,MA,USA,42.2315,-71.7051,0
Z01570,Origin-Webster-MA,MA,USA,42.0478,-71.861,0
Z01581,Origin-Westborough-MA,MA,USA,42.2699,-71.6141,0
Z01590,Origin-Sutton-MA,MA,USA,42.131,-71.7512,0
Z01601,Origin-Worcester-MA,MA,USA,42.2654,-71.8794,0
Z01610,Origin-Worcester-MA,MA,USA,42.2486,-71.8078,0
Z01752,Origin-Marlborough-MA,MA,USA,42.351,-71.5475,0
Z01801,Origin-Woburn-MA,MA,USA,42.4846,-71.152,0
Z01824,Origin-Chelmsford-MA,MA,USA,42.5955,-71.3543,0
Z01830,Origin-Haverhill-MA,MA,USA,42.7852,-71.0701,0
Z01832,Origin-Haverhill-MA,MA,USA,42.7815,-71.1102,0
Z01835,Origin-Haverhill-MA,MA,USA,42.7578,-71.0851,0
Z01841,Origin-Lawrence-MA,MA,USA,42.7117,-71.1666,0
Z01843,Origin-Lawrence-MA,MA,USA,42.6912,-71.1607,0
Z01844,Origin-Methuen-MA,MA,USA,42.7301,-71.1793,0
Z01845,Origin-North Andover-MA,MA,USA,42.6839,-71.1116,0
Z01852,Origin-Lowell-MA,MA,USA,42.6342,-71.2984,0
Z01876,Origin-Tewksbury-MA,MA,USA,42.6017,-71.2207,0
Z01880,Origin-Wakefield-MA,MA,USA,42.5014,-71.0712,0
Z01887,Origin-Wilmington-MA,MA,USA,42.5586,-71.1703,0
Z01890,Origin-Winchester-MA,MA,USA,42.452,-71.1427,0
Z01901,Origin-Lynn-MA,MA,USA,42.4613,-70.9467,0
Z01902,Origin-Lynn-MA,MA,USA,42.47,-70.941,0
Z01903,Origin-Lynn-MA,MA,USA,42.6355,-70.8791,0
Z01905,Origin-Lynn-MA,MA,USA,42.4649,-70.974,0
Z01930,Origin-Gloucester-MA,MA,USA,42.6241,-70.6755,0
Z01960,Destination-Peabody-MA,MA,USA,42.5341,-70.9614,1
Z01961,Origin-Peabody-MA,MA,USA,42.63554,-70.87912,0
Z01970,Origin-Salem-MA,MA,USA,42.5169,-70.8985,0
Z02021,Origin-Canton-MA,MA,USA,42.1669,-71.1343,0
Z02035,Origin-Foxboro-MA,MA,USA,42.0615,-71.2423,0
Z02048,Origin-Mansfield-MA,MA,USA,42.02,-71.2191,0
Z02062,Origin-Norwood-MA,MA,USA,42.186,-71.2016,0
Z02067,Origin-Sharon-MA,MA,USA,42.1138,-71.1792,0
Z02072,Origin-Stoughton-MA,MA,USA,42.1255,-71.1063,0
Z02090,Origin-Westwood-MA,MA,USA,42.213,-71.2073,0
Z02109,Origin-Boston-MA,MA,USA,42.3615,-71.0541,0
Z02111,Origin-Boston-MA,MA,USA,42.3499,-71.061,0
Z02118,Origin-Boston-MA,MA,USA,42.3388,-71.0727,0
Z02122,Origin-Boston-MA,MA,USA,42.2964,-71.0544,0
Z02125,Origin-Boston-MA,MA,USA,42.3169,-71.0581,0
Z02127,Origin-Boston-MA,MA,USA,42.335,-71.0456,0
Z02128,Origin-Boston-MA,MA,USA,42.3784,-71.0254,0
Z02131,Origin-Roslindale-MA,MA,USA,42.2848,-71.1304,0
Z02143,Origin-Somerville-MA,MA,USA,42.382,-71.099,0
Z02148,Origin-Malden-MA,MA,USA,42.4286,-71.0605,0
Z02149,Origin-Everett-MA,MA,USA,42.41,-71.0522,0
Z02150,Origin-Chelsea-MA,MA,USA,42.3965,-71.0334,0
Z02155,Origin-Medford-MA,MA,USA,42.4199,-71.1094,0
Z02184,Origin-Braintree-MA,MA,USA,42.2096,-70.9997,0
Z02189,Origin-Weymouth-MA,MA,USA,42.2112,-70.931,0
Z02210,Origin-Boston-MA,MA,USA,42.3481,-71.0445,0
Z02301,Origin-Brockton-MA,MA,USA,42.0795,-71.0343,0
Z02302,Origin-Brockton-MA,MA,USA,42.0872,-71.0022,0
Z02322,Origin-Avon-MA,MA,USA,42.122,-71.0451,0
Z02347,Origin-Lakeville-MA,MA,USA,41.8351,-70.9597,0
Z02359,Origin-Pembroke-MA,MA,USA,42.0656,-70.8042,0
Z02367,Origin-Plympton-MA,MA,USA,41.9691,-70.8044,0
Z02368,Origin-Randolph-MA,MA,USA,42.1735,-71.0491,0
Z02494,Origin-Needham-MA,MA,USA,42.2982,-71.2315,0
Z02553,Origin-Monument Beach-MA,MA,USA,41.6734,-70.608,0
Z02601,Origin-Hyannis-MA,MA,USA,41.6548,-70.2895,0
Z02718,Origin-East Taunton-MA,MA,USA,41.8763,-71.0183,0
Z02720,Origin-Fall River-MA,MA,USA,41.717,-71.1398,0
Z02723,Origin-Fall River-MA,MA,USA,41.6914,-71.1323,0
Z02740,Origin-New Bedford-MA,MA,USA,41.6348,-70.9375,0
Z02766,Origin-Norton-MA,MA,USA,41.9692,-71.1854,0
Z02767,Origin-Raynham-MA,MA,USA,41.9347,-71.049,0
Z02780,Origin-Taunton-MA,MA,USA,41.9049,-71.1028,0
Z02852,Origin-North Kingstown-RI,RI,USA,41.5898,-71.454,0
Z02865,Origin-Lincoln-RI,RI,USA,41.9057,-71.4302,0
Z02886,Origin-Warwick-RI,RI,USA,41.7055,-71.4512,0
Z02889,Origin-Warwick-RI,RI,USA,41.7069,-71.391,0
Z02907,Origin-Providence-RI,RI,USA,41.7986,-71.4244,0
Z02916,Origin-Rumford-RI,RI,USA,41.8433,-71.3539,0
Z02920,Origin-Cranston-RI,RI,USA,41.7716,-71.4648,0
Z02940,Origin-Providence-RI,RI,USA,41.8718,-71.5584,0
Z03053,Origin-Londonderry-NH,NH,USA,42.8805,-71.382,0
Z03054,Origin-Merrimack-NH,NH,USA,42.8581,-71.5121,0
Z03060,Origin-Nashua-NH,NH,USA,42.749,-71.4648,0
Z03254,Origin-Moultonborough-NH,NH,USA,43.7122,-71.3929,0
Z03443,Origin-Chesterfield-NH,NH,USA,42.8719,-72.4716,0
Z03561,Origin-Littleton-NH,NH,USA,44.3137,-71.7974,0
Z03743,Origin-Claremont-NH,NH,USA,43.3747,-72.3414,0
Z03801,Origin-Portsmouth-NH,NH,USA,43.0703,-70.7768,0
Z03833,Origin-Exeter-NH,NH,USA,42.9738,-70.9766,0
Z04011,Origin-Brunswick-ME,ME,USA,43.8993,-69.9589,0
Z04037,Origin-Fryeburg-ME,ME,USA,44.0509,-70.9565,0
Z04042,Origin-Hollis Center-ME,ME,USA,43.6113,-70.6326,0
Z04073,Origin-Sanford-ME,ME,USA,43.4269,-70.7524,0
Z04074,Origin-Scarborough-ME,ME,USA,43.5832,-70.3526,0
Z04086,Origin-Topsham-ME,ME,USA,43.9467,-69.9616,0
Z04103,Origin-Portland-ME,ME,USA,43.6859,-70.2902,0
Z04260,Origin-New Gloucester-ME,ME,USA,43.9574,-70.2948,0
Z04274,Origin-Poland-ME,ME,USA,44.0492,-70.3908,0
Z04468,Origin-Old Town-ME,ME,USA,44.9516,-68.6789,0
Z04740,Origin-Easton-ME,ME,USA,46.6571,-67.8633,0
Z04769,Origin-Presque Isle-ME,ME,USA,46.6794,-68.0022,0
Z04841,Origin-Rockland-ME,ME,USA,44.1087,-69.1136,0
Z04915,Origin-Belfast-ME,ME,USA,44.4453,-69.0225,0
Z05060,Origin-Randolph-VT,VT,USA,43.9544,-72.6691,0
Z05403,Origin-South Burlington-VT,VT,USA,44.452,-73.1794,0
Z05602,Origin-Montpelier-VT,VT,USA,44.2657,-72.5968,0
Z05676,Origin-Waterbury-VT,VT,USA,44.3486,-72.7708,0
Z05678,Origin-Websterville-VT,VT,USA,44.159,-72.4694,0
Z05701,Origin-Rutland-VT,VT,USA,43.6174,-72.9632,0
Z05843,Origin-Hardwick-VT,VT,USA,44.5047,-72.3582,0
Z06002,Origin-Bloomfield-CT,CT,USA,41.8328,-72.7264,0
Z06029,Origin-Ellington-CT,CT,USA,41.9092,-72.4502,0
Z06053,Origin-New Britain-CT,CT,USA,41.687,-72.7907,0
Z06067,Origin-Rocky Hill-CT,CT,USA,41.661,-72.6609,0
Z06074,Origin-South Windsor-CT,CT,USA,41.8367,-72.5607,0
Z06082,Origin-Enfield-CT,CT,USA,41.9873,-72.5636,0
Z06114,Origin-Hartford-CT,CT,USA,41.7388,-72.6789,0
Z06120,Origin-Hartford-CT,CT,USA,41.7848,-72.6737,0
Z06241,Origin-Dayville-CT,CT,USA,41.8503,-71.8575,0
Z06255,Origin-North Grosvenordale-CT,CT,USA,41.9896,-71.8966,0
Z06279,Origin-Willington-CT,CT,USA,41.8969,-72.2745,0
Z06360,Destination-Norwich-CT,CT,USA,41.5339,-72.0622,1
Z06483,Origin-Seymour-CT,CT,USA,41.3866,-73.0792,0
Z06511,Origin-New Haven-CT,CT,USA,41.3173,-72.928,0
Z06512,Origin-East Haven-CT,CT,USA,41.2766,-72.8741,0
Z06513,Origin-New Haven-CT,CT,USA,41.3158,-72.8803,0
Z06516,Origin-West Haven-CT,CT,USA,41.2722,-72.965,0
Z06606,Origin-Bridgeport-CT,CT,USA,41.2095,-73.2077,0
Z06607,Origin-Bridgeport-CT,CT,USA,41.1777,-73.1664,0
Z06610,Origin-Bridgeport-CT,CT,USA,41.2021,-73.1707,0
Z06615,Origin-Stratford-CT,CT,USA,41.176,-73.1351,0
Z07001,Origin-Avenel-NJ,NJ,USA,40.5791,-74.2799,0
Z07002,Origin-Bayonne-NJ,NJ,USA,40.6666,-74.1176,0
Z07003,Origin-Bloomfield-NJ,NJ,USA,40.803,-74.1889,0
Z07004,Origin-Fairfield-NJ,NJ,USA,40.8791,-74.2938,0
Z07005,Origin-Boonton-NJ,NJ,USA,40.9129,-74.4151,0
Z07006,Origin-Caldwell-NJ,NJ,USA,40.8491,-74.2791,0
Z07008,Origin-Carteret-NJ,NJ,USA,40.5826,-74.2299,0
Z07009,Origin-Cedar Grove-NJ,NJ,USA,40.8559,-74.2289,0
Z07011,Origin-Clifton-NJ,NJ,USA,40.8797,-74.1426,0
Z07012,Origin-Clifton-NJ,NJ,USA,40.848,-74.1579,0
Z07013,Origin-Clifton-NJ,NJ,USA,40.8687,-74.171,0
Z07020,Origin-Edgewater-NJ,NJ,USA,40.8307,-73.9732,0
Z07026,Origin-Garfield-NJ,NJ,USA,40.8799,-74.108,0
Z07029,Origin-Harrison-NJ,NJ,USA,40.746,-74.1551,0
Z07032,Origin-Kearny-NJ,NJ,USA,40.7631,-74.1371,0
Z07033,Origin-Kenilworth-NJ,NJ,USA,40.6747,-74.2908,0
Z07035,Origin-Lincoln Park-NJ,NJ,USA,40.9233,-74.2937,0
Z07036,Origin-Linden-NJ,NJ,USA,40.634,-74.2533,0
Z07047,Origin-North Bergen-NJ,NJ,USA,40.7947,-74.0196,0
Z07054,Origin-Parsippany-NJ,NJ,USA,40.8602,-74.4171,0
Z07064,Origin-Port Reading-NJ,NJ,USA,40.5695,-74.2477,0
Z07065,Origin-Rahway-NJ,NJ,USA,40.6072,-74.281,0
Z07072,Origin-Carlstadt-NJ,NJ,USA,40.8366,-74.0846,0
Z07073,Origin-East Rutherford-NJ,NJ,USA,40.8302,-74.097,0
Z07074,Origin-Moonachie-NJ,NJ,USA,40.8417,-74.059,0
Z07075,Origin-Wood Ridge-NJ,NJ,USA,40.8477,-74.0875,0
Z07080,Origin-South Plainfield-NJ,NJ,USA,40.5808,-74.414,0
Z07083,Origin-Union-NJ,NJ,USA,40.6955,-74.2693,0
Z07087,Origin-Union City-NJ,NJ,USA,40.7678,-74.0302,0
Z07094,Origin-Secaucus-NJ,NJ,USA,40.7885,-74.06,0
Z07104,Origin-Newark-NJ,NJ,USA,40.7677,-74.1683,0
Z07105,Origin-Newark-NJ,NJ,USA,40.7259,-74.1521,0
Z07114,Origin-Newark-NJ,NJ,USA,40.7076,-74.1788,0
Z07195,Origin-Newark-NJ,NJ,USA,40.7919,-74.2452,0
Z07201,Origin-Elizabeth-NJ,NJ,USA,40.6696,-74.1989,0
Z07202,Origin-Elizabeth-NJ,NJ,USA,40.6523,-74.2168,0
Z07205,Origin-Hillside-NJ,NJ,USA,40.6956,-74.2285,0
Z07206,Origin-Elizabeth-NJ,NJ,USA,40.6532,-74.1916,0
Z07305,Origin-Jersey City-NJ,NJ,USA,40.7013,-74.0884,0
Z07310,Origin-Jersey City-NJ,NJ,USA,40.7319,-74.0402,0
Z07407,Origin-Elmwood Park-NJ,NJ,USA,40.9057,-74.1199,0
Z07410,Origin-Fair Lawn-NJ,NJ,USA,40.934,-74.1167,0
Z07430,Origin-Mahwah-NJ,NJ,USA,41.0771,-74.1614,0
Z07470,Origin-Wayne-NJ,NJ,USA,40.9436,-74.25,0
Z07501,Origin-Paterson-NJ,NJ,USA,40.9123,-74.1686,0
Z07502,Origin-Paterson-NJ,NJ,USA,40.919,-74.1939,0
Z07506,Origin-Hawthorne-NJ,NJ,USA,40.9575,-74.1562,0
Z07524,Origin-Paterson-NJ,NJ,USA,40.9304,-74.1582,0
Z07601,Origin-Hackensack-NJ,NJ,USA,40.8888,-74.0488,0
Z07606,Origin-South Hackensack-NJ,NJ,USA,40.8638,-74.0464,0
Z07607,Origin-Maywood-NJ,NJ,USA,40.9051,-74.0627,0
Z07608,Origin-Teterboro-NJ,NJ,USA,40.8537,-74.0598,0
Z07631,Origin-Englewood-NJ,NJ,USA,40.8934,-73.9758,0
Z07632,Origin-Englewood Cliffs-NJ,NJ,USA,40.8838,-73.9517,0
Z07643,Origin-Little Ferry-NJ,NJ,USA,40.8507,-74.0411,0
Z07645,Origin-Montvale-NJ,NJ,USA,41.0491,-74.0405,0
Z07657,Origin-Ridgefield-NJ,NJ,USA,40.8325,-74.0039,0
Z07716,Origin-Atlantic Highlands-NJ,NJ,USA,40.408,-74.0348,0
Z07730,Origin-Hazlet-NJ,NJ,USA,40.4233,-74.1789,0
Z07731,Origin-Howell-NJ,NJ,USA,40.1466,-74.2081,0
Z07748,Origin-Middletown-NJ,NJ,USA,40.4102,-74.1172,0
Z07753,Origin-Neptune-NJ,NJ,USA,40.209,-74.0525,0
Z07828,Origin-Budd Lake-NJ,NJ,USA,40.8782,-74.7387,0
Z07834,Origin-Denville-NJ,NJ,USA,40.8862,-74.4869,0
Z07866,Origin-Rockaway-NJ,NJ,USA,40.9269,-74.5061,0
Z07885,Origin-Wharton-NJ,NJ,USA,40.9133,-74.5824,0
Z07932,Origin-Florham Park-NJ,NJ,USA,40.7784,-74.39,0
Z07936,Origin-East Hanover-NJ,NJ,USA,40.82,-74.3647,0
Z08012,Origin-Blackwood-NJ,NJ,USA,39.7847,-75.0567,0
Z08014,Destination-Bridgeport-NJ,NJ,USA,39.8037,-75.3442,1
Z08016,Origin-Burlington-NJ,NJ,USA,40.0684,-74.8446,0
Z08028,Origin-Glassboro-NJ,NJ,USA,39.7,-75.1194,0
Z08030,Origin-Gloucester City-NJ,NJ,USA,39.8912,-75.1183,0
Z08031,Origin-Bellmawr-NJ,NJ,USA,39.8671,-75.0916,0
Z08034,Origin-Cherry Hill-NJ,NJ,USA,39.9087,-74.9995,0
Z08057,Origin-Moorestown-NJ,NJ,USA,39.969,-74.9488,0
Z08060,Origin-Mount Holly-NJ,NJ,USA,39.9916,-74.7975,0
Z08061,Origin-Mount Royal-NJ,NJ,USA,39.8078,-75.2049,0
Z08062,Origin-Mullica Hill-NJ,NJ,USA,39.717,-75.2198,0
Z08067,Origin-Pedricktown-NJ,NJ,USA,39.7404,-75.4125,0
Z08075,Origin-Riverside-NJ,NJ,USA,40.0294,-74.954,0
Z08085,Destination-Swedesboro-NJ,NJ,USA,39.7531,-75.3268,1
Z08086,Origin-Thorofare-NJ,NJ,USA,39.8492,-75.1816,0
Z08093,Origin-Westville-NJ,NJ,USA,39.8614,-75.1328,0
Z08094,Origin-Williamstown-NJ,NJ,USA,39.6476,-74.9592,0
Z08103,Origin-Camden-NJ,NJ,USA,39.9363,-75.1151,0
Z08104,Origin-Camden-NJ,NJ,USA,39.9187,-75.1098,0
Z08109,Origin-Merchantville-NJ,NJ,USA,39.95,-75.0502,0
Z08110,Origin-Pennsauken-NJ,NJ,USA,39.9668,-75.0568,0
Z08215,Origin-Egg Harbor City-NJ,NJ,USA,39.5481,-74.6217,0
Z08302,Origin-Bridgeton-NJ,NJ,USA,39.4452,-75.2421,0
Z08318,Origin-Elmer-NJ,NJ,USA,39.5535,-75.1684,0
Z08328,Origin-Malaga-NJ,NJ,USA,39.5725,-75.0543,0
Z08332,Origin-Millville-NJ,NJ,USA,39.3794,-75.0391,0
Z08344,Origin-Newfield-NJ,NJ,USA,39.5628,-75.0095,0
Z08352,Origin-Rosenhayn-NJ,NJ,USA,39.4756,-75.1292,0
Z08360,Origin-Vineland-NJ,NJ,USA,39.4923,-75.0189,0
Z08401,Origin-Atlantic City-NJ,NJ,USA,39.365,-74.439,0
Z08512,Origin-Cranbury-NJ,NJ,USA,40.3063,-74.5263,0
Z08518,Origin-Florence-NJ,NJ,USA,40.118,-74.8046,0
Z08638,Origin-Trenton-NJ,NJ,USA,40.2499,-74.7595,0
Z08701,Origin-Lakewood-NJ,NJ,USA,40.0829,-74.2093,0
Z08724,Origin-Brick-NJ,NJ,USA,40.0879,-74.1098,0
Z08807,Origin-Bridgewater-NJ,NJ,USA,40.5881,-74.6225,0
Z08810,Origin-Dayton-NJ,NJ,USA,40.3729,-74.5136,0
Z08816,Origin-East Brunswick-NJ,NJ,USA,40.4343,-74.405,0
Z08817,Origin-Edison-NJ,NJ,USA,40.5161,-74.3975,0
Z08820,Origin-Edison-NJ,NJ,USA,40.5755,-74.3578,0
Z08822,Origin-Flemington-NJ,NJ,USA,40.5157,-74.8531,0
Z08831,Origin-Jamesburg-NJ,NJ,USA,40.3366,-74.433,0
Z08837,Origin-Edison-NJ,NJ,USA,40.5294,-74.3384,0
Z08840,Origin-Metuchen-NJ,NJ,USA,40.5434,-74.3587,0
Z08846,Origin-Middlesex-NJ,NJ,USA,40.5746,-74.5018,0
Z08854,Origin-Piscataway-NJ,NJ,USA,40.5554,-74.4608,0
Z08861,Destination-Perth Amboy-NJ,NJ,USA,40.5201,-74.2771,1
Z08863,Origin-Fords-NJ,NJ,USA,40.5354,-74.311,0
Z08872,Origin-Sayreville-NJ,NJ,USA,40.4617,-74.3474,0
Z08873,Origin-Somerset-NJ,NJ,USA,40.5053,-74.5071,0
Z08879,Origin-South Amboy-NJ,NJ,USA,40.4697,-74.2766,0
Z08901,Origin-New Brunswick-NJ,NJ,USA,40.4883,-74.4477,0
Z08902,Origin-North Brunswick-NJ,NJ,USA,40.4531,-74.4828,0
Z10018,Origin-New York-NY,NY,USA,40.7552,-73.9934,0
Z10309,Origin-Staten Island-NY,NY,USA,40.5298,-74.213,0
Z10454,Origin-Bronx-NY,NY,USA,40.806,-73.9162,0
Z10455,Origin-Bronx-NY,NY,USA,40.8156,-73.9076,0
Z10457,Origin-Bronx-NY,NY,USA,40.8467,-73.8986,0
Z10462,Origin-Bronx-NY,NY,USA,40.8422,-73.8586,0
Z10473,Origin-Bronx-NY,NY,USA,40.8186,-73.8589,0
Z10474,Origin-Bronx-NY,NY,USA,40.8133,-73.8875,0
Z10523,Origin-Elmsford-NY,NY,USA,41.0571,-73.8165,0
Z10543,Origin-Mamaroneck-NY,NY,USA,40.953,-73.7345,0
Z10550,Origin-Mount Vernon-NY,NY,USA,40.9077,-73.8371,0
Z10573,Origin-Port Chester-NY,NY,USA,41.0104,-73.6732,0
Z10940,Origin-Middletown-NY,NY,USA,41.4495,-74.4395,0
Z10965,Origin-Pearl River-NY,NY,USA,41.0634,-74.0173,0
Z11040,Origin-New Hyde Park-NY,NY,USA,40.743,-73.6789,0
Z11050,Origin-Port Washington-NY,NY,USA,40.8333,-73.6931,0
Z11096,Origin-Inwood-NY,NY,USA,40.6183,-73.7476,0
Z11101,Origin-Long Island City-NY,NY,USA,40.7454,-73.939,0
Z11204,Origin-Brooklyn-NY,NY,USA,40.619,-73.9847,0
Z11205,Origin-Brooklyn-NY,NY,USA,40.6943,-73.9652,0
Z11206,Origin-Brooklyn-NY,NY,USA,40.7024,-73.9428,0
Z11211,Origin-Brooklyn-NY,NY,USA,40.7121,-73.9542,0
Z11212,Origin-Brooklyn-NY,NY,USA,40.6623,-73.9132,0
Z11222,Origin-Brooklyn-NY,NY,USA,40.7263,-73.9455,0
Z11231,Origin-Brooklyn-NY,NY,USA,40.6789,-74.0025,0
Z11232,Origin-Brooklyn-NY,NY,USA,40.6556,-74.0042,0
Z11233,Origin-Brooklyn-NY,NY,USA,40.677,-73.9185,0
Z11236,Origin-Brooklyn-NY,NY,USA,40.6406,-73.9036,0
Z11237,Origin-Brooklyn-NY,NY,USA,40.7034,-73.9199,0
Z11238,Origin-Brooklyn-NY,NY,USA,40.6802,-73.9625,0
Z11356,Origin-College Point-NY,NY,USA,40.7855,-73.8436,0
Z11378,Origin-Maspeth-NY,NY,USA,40.7242,-73.9027,0
Z11379,Origin-Middle Village-NY,NY,USA,40.7161,-73.8792,0
Z11434,Origin-Jamaica-NY,NY,USA,40.6749,-73.7727,0
Z11550,Origin-Hempstead-NY,NY,USA,40.7024,-73.6174,0
Z11572,Origin-Oceanside-NY,NY,USA,40.6364,-73.6373,0
Z11590,Origin-Westbury-NY,NY,USA,40.7563,-73.5753,0
Z11705,Origin-Bayport-NY,NY,USA,40.7449,-73.0549,0
Z11717,Origin-Brentwood-NY,NY,USA,40.784,-73.2451,0
Z11726,Origin-Copiague-NY,NY,USA,40.681,-73.3961,0
Z11742,Origin-Holtsville-NY,NY,USA,40.8106,-73.0403,0
Z11746,Origin-Huntington Station-NY,NY,USA,40.8218,-73.3754,0
Z11747,Origin-Melville-NY,NY,USA,40.7916,-73.4053,0
Z11749,Origin-Islandia-NY,NY,USA,40.9224,-72.637,0
Z11751,Origin-Islip-NY,NY,USA,40.7342,-73.2141,0
Z11757,Origin-Lindenhurst-NY,NY,USA,40.6901,-73.3744,0
Z11769,Origin-Oakdale-NY,NY,USA,40.736,-73.1296,0
Z11796,Origin-West Sayville-NY,NY,USA,40.732,-73.1008,0
Z11801,Origin-Hicksville-NY,NY,USA,40.7634,-73.5232,0
Z11967,Origin-Shirley-NY,NY,USA,40.7943,-72.8717,0
Z12010,Origin-Amsterdam-NY,NY,USA,42.9407,-74.1789,0
Z12020,Origin-Ballston Spa-NY,NY,USA,43.0064,-73.8603,0
Z12047,Origin-Cohoes-NY,NY,USA,42.7738,-73.7079,0
Z12065,Destination-Clifton Park-NY,NY,USA,42.8537,-73.7844,1
Z12085,Origin-Guilderland Center-NY,NY,USA,42.6949,-73.9052,0
Z12095,Origin-Johnstown-NY,NY,USA,43.0145,-74.3847,0
Z12180,Origin-Troy-NY,NY,USA,42.7317,-73.6646,0
Z12188,Origin-Waterford-NY,NY,USA,42.8054,-73.6897,0
Z12201,Origin-Albany-NY,NY,USA,42.6149,-73.9707,0
Z12202,Origin-Albany-NY,NY,USA,42.6402,-73.7606,0
Z12205,Origin-Albany-NY,NY,USA,42.7134,-73.8179,0
Z12302,Origin-Schenectady-NY,NY,USA,42.8623,-73.9632,0
Z12305,Origin-Schenectady-NY,NY,USA,42.8145,-73.9433,0
Z12306,Origin-Schenectady-NY,NY,USA,42.7934,-73.9893,0
Z12401,Origin-Kingston-NY,NY,USA,41.9324,-74.0225,0
Z12534,Origin-Hudson-NY,NY,USA,42.2296,-73.7584,0
Z12601,Origin-Poughkeepsie-NY,NY,USA,41.7014,-73.9192,0
Z12850,Origin-Middle Grove-NY,NY,USA,43.0923,-73.9703,0
Z12866,Origin-Saratoga Springs-NY,NY,USA,43.0804,-73.7704,0
Z12901,Origin-Plattsburgh-NY,NY,USA,44.6934,-73.4661,0
Z13045,Origin-Cortland-NY,NY,USA,42.5912,-76.1921,0
Z13053,Origin-Dryden-NY,NY,USA,42.4834,-76.279,0
Z13088,Origin-Liverpool-NY,NY,USA,43.106,-76.1936,0
Z13114,Origin-Mexico-NY,NY,USA,43.4682,-76.2381,0
Z13164,Origin-Warners-NY,NY,USA,43.0887,-76.3194,0
Z13204,Origin-Syracuse-NY,NY,USA,43.049,-76.1753,0
Z13208,Origin-Syracuse-NY,NY,USA,43.0746,-76.1474,0
Z13209,Origin-Syracuse-NY,NY,USA,43.0814,-76.2349,0
Z13212,Origin-Syracuse-NY,NY,USA,43.1286,-76.1393,0
Z13335,Origin-Edmeston-NY,NY,USA,42.6949,-75.2421,0
Z13411,Origin-New Berlin-NY,NY,USA,42.6262,-75.315,0
Z13421,Origin-Oneida-NY,NY,USA,43.0797,-75.6467,0
Z13441,Origin-Rome-NY,NY,USA,43.1644,-75.5112,0
Z13501,Origin-Utica-NY,NY,USA,43.0877,-75.2268,0
Z13502,Origin-Utica-NY,NY,USA,43.1145,-75.2228,0
Z13753,Origin-Delhi-NY,NY,USA,42.3027,-74.9167,0
Z13820,Origin-Oneonta-NY,NY,USA,42.4698,-75.0519,0
Z14012,Origin-Barker-NY,NY,USA,43.3378,-78.5295,0
Z14020,Origin-Batavia-NY,NY,USA,42.9966,-78.1927,0
Z14063,Origin-Fredonia-NY,NY,USA,42.4258,-79.337,0
Z14086,Origin-Lancaster-NY,NY,USA,42.9044,-78.6552,0
Z14103,Origin-Medina-NY,NY,USA,43.2172,-78.3874,0
Z14203,Origin-Buffalo-NY,NY,USA,42.8801,-78.8699,0
Z14206,Origin-Buffalo-NY,NY,USA,42.8802,-78.8105,0
Z14212,Origin-Buffalo-NY,NY,USA,42.8948,-78.823,0
Z14213,Origin-Buffalo-NY,NY,USA,42.9161,-78.8914,0
Z14218,Origin-Buffalo-NY,NY,USA,42.8211,-78.8245,0
Z14219,Destination-Buffalo-NY,NY,USA,42.7907,-78.8271,1
Z14220,Origin-Buffalo-NY,NY,USA,42.8458,-78.8186,0
Z14221,Origin-Buffalo-NY,NY,USA,42.9775,-78.7335,0
Z14224,Destination-Buffalo-NY,NY,USA,42.8369,-78.7555,1
Z14225,Origin-Buffalo-NY,NY,USA,42.93,-78.7581,0
Z14227,Origin-Buffalo-NY,NY,USA,42.8814,-78.7446,0
Z14240,Origin-Buffalo-NY,NY,USA,42.7685,-78.887,0
Z14304,Origin-Niagara Falls-NY,NY,USA,43.0912,-78.9624,0
Z14414,Origin-Avon-NY,NY,USA,42.8993,-77.7337,0
Z14420,Origin-Brockport-NY,NY,USA,43.2143,-77.9393,0
Z14424,Origin-Canandaigua-NY,NY,USA,42.853,-77.2946,0
Z14450,Origin-Fairport-NY,NY,USA,43.0918,-77.4347,0
Z14456,Origin-Geneva-NY,NY,USA,42.8531,-76.9939,0
Z14470,Origin-Holley-NY,NY,USA,43.2218,-78.0439,0
Z14482,Origin-Le Roy-NY,NY,USA,42.9799,-77.9705,0
Z14502,Origin-Macedon-NY,NY,USA,43.0879,-77.3306,0
Z14530,Origin-Perry-NY,NY,USA,42.7241,-78.0035,0
Z14548,Origin-Shortsville-NY,NY,USA,42.9735,-77.2433,0
Z14550,Origin-Silver Springs-NY,NY,USA,42.6696,-78.0937,0
Z14580,Origin-Webster-NY,NY,USA,43.2211,-77.4536,0
Z14589,Origin-Williamson-NY,NY,USA,43.2482,-77.1849,0
Z14606,Origin-Rochester-NY,NY,USA,43.1681,-77.6813,0
Z14607,Origin-Rochester-NY,NY,USA,43.1499,-77.5896,0
Z14608,Origin-Rochester-NY,NY,USA,43.1556,-77.6239,0
Z14610,Origin-Rochester-NY,NY,USA,43.1423,-77.5459,0
Z14612,Origin-Rochester-NY,NY,USA,43.2565,-77.6618,0
Z14623,Origin-Rochester-NY,NY,USA,43.0877,-77.6351,0
Z14727,Origin-Cuba-NY,NY,USA,42.2132,-78.2865,0
Z14760,Origin-Olean-NY,NY,USA,42.0766,-78.4274,0
Z15012,Origin-Belle Vernon-PA,PA,USA,40.1403,-79.8424,0
Z15017,Origin-Bridgeville-PA,PA,USA,40.3519,-80.1153,0
Z15056,Origin-Leetsdale-PA,PA,USA,40.5655,-80.2097,0
Z15136,Origin-McKees Rocks-PA,PA,USA,40.4716,-80.0769,0
Z15139,Origin-Oakmont-PA,PA,USA,40.5196,-79.8376,0
Z15147,Origin-Verona-PA,PA,USA,40.4983,-79.8342,0
Z15201,Origin-Pittsburgh-PA,PA,USA,40.4716,-79.9572,0
Z15205,Origin-Pittsburgh-PA,PA,USA,40.4367,-80.0728,0
Z15210,Origin-Pittsburgh-PA,PA,USA,40.4093,-79.9894,0
Z15222,Origin-Pittsburgh-PA,PA,USA,40.447,-79.9931,0
Z15223,Origin-Pittsburgh-PA,PA,USA,40.5038,-79.9516,0
Z15238,Origin-Pittsburgh-PA,PA,USA,40.5187,-79.8674,0
Z15323,Origin-Claysville-PA,PA,USA,40.1142,-80.4071,0
Z15401,Origin-Uniontown-PA,PA,USA,39.8983,-79.731,0
Z15425,Origin-Connellsville-PA,PA,USA,40.0242,-79.5841,0
Z15478,Origin-Smithfield-PA,PA,USA,39.7911,-79.8125,0
Z15601,Destination-Greensburg-PA,PA,USA,40.2988,-79.5412,1
Z15642,Origin-Irwin-PA,PA,USA,40.326,-79.7132,0
Z15644,Origin-Jeannette-PA,PA,USA,40.3293,-79.6146,0
Z15650,Origin-Latrobe-PA,PA,USA,40.2997,-79.3884,0
Z15666,Origin-Mount Pleasant-PA,PA,USA,40.1502,-79.5249,0
Z15767,Origin-Punxsutawney-PA,PA,USA,40.9541,-78.9701,0
Z15825,Origin-Brookville-PA,PA,USA,41.1606,-79.0648,0
Z15857,Origin-Saint Marys-PA,PA,USA,41.4377,-78.5426,0
Z15904,Origin-Johnstown-PA,PA,USA,40.2895,-78.8661,0
Z15905,Origin-Johnstown-PA,PA,USA,40.3024,-78.9379,0
Z15906,Origin-Johnstown-PA,PA,USA,40.349,-78.9413,0
Z16024,Origin-Callery-PA,PA,USA,40.7396,-80.0372,0
Z16037,Origin-Harmony-PA,PA,USA,40.8215,-80.1303,0
Z16046,Origin-Mars-PA,PA,USA,40.6957,-80.0335,0
Z16066,Origin-Cranberry Twp-PA,PA,USA,40.7005,-80.1136,0
Z16137,Origin-Mercer-PA,PA,USA,41.2347,-80.2363,0
Z16142,Origin-New Wilmington-PA,PA,USA,41.1351,-80.3348,0
Z16148,Origin-Hermitage-PA,PA,USA,41.2326,-80.4579,0
Z16323,Origin-Franklin-PA,PA,USA,41.4074,-79.8392,0
Z16354,Origin-Titusville-PA,PA,USA,41.6222,-79.6929,0
Z16365,Origin-Warren-PA,PA,USA,41.8532,-79.1552,0
Z16428,Origin-North East-PA,PA,USA,42.1955,-79.8329,0
Z16433,Origin-Saegertown-PA,PA,USA,41.7324,-80.1461,0
Z16506,Origin-Erie-PA,PA,USA,42.0726,-80.1453,0
Z16510,Origin-Erie-PA,PA,USA,42.127,-80.0003,0
Z16601,Destination-Altoona-PA,PA,USA,40.5264,-78.4008,1
Z16625,Origin-Claysburg-PA,PA,USA,40.291,-78.4864,0
Z16635,Origin-Duncansville-PA,PA,USA,40.4196,-78.4493,0
Z16669,Origin-Petersburg-PA,PA,USA,40.6271,-77.9644,0
Z16684,Origin-Tipton-PA,PA,USA,40.6367,-78.3035,0
Z16801,Origin-State College-PA,PA,USA,40.7921,-77.8499,0
Z16823,Origin-Bellefonte-PA,PA,USA,40.9126,-77.7738,0
Z17011,Origin-Camp Hill-PA,PA,USA,40.2362,-76.9308,0
Z17013,Origin-Carlisle-PA,PA,USA,40.2035,-77.1998,0
Z17019,Origin-Dillsburg-PA,PA,USA,40.094,-77.0262,0
Z17022,Origin-Elizabethtown-PA,PA,USA,40.1608,-76.6076,0
Z17026,Origin-Fredericksburg-PA,PA,USA,40.4526,-76.4244,0
Z17042,Origin-Lebanon-PA,PA,USA,40.3199,-76.4234,0
Z17043,Origin-Lemoyne-PA,PA,USA,40.2473,-76.898,0
Z17053,Origin-Marysville-PA,PA,USA,40.3333,-76.9666,0
Z17055,Origin-Mechanicsburg-PA,PA,USA,40.216,-76.9982,0
Z17072,Origin-New Kingstown-PA,PA,USA,40.2332,-77.0821,0
Z17078,Origin-Palmyra-PA,PA,USA,40.3042,-76.5912,0
Z17104,Origin-Harrisburg-PA,PA,USA,40.259,-76.8592,0
Z17105,Origin-Harrisburg-PA,PA,USA,40.2785,-76.8751,0
Z17112,Origin-Harrisburg-PA,PA,USA,40.3433,-76.7807,0
Z17201,Origin-Chambersburg-PA,PA,USA,39.9312,-77.6613,0
Z17241,Origin-Newville-PA,PA,USA,40.1725,-77.4082,0
Z17257,Origin-Shippensburg-PA,PA,USA,40.0534,-77.5062,0
Z17268,Origin-Waynesboro-PA,PA,USA,39.7663,-77.5724,0
Z17301,Origin-Abbottstown-PA,PA,USA,39.8916,-76.9835,0
Z17304,Origin-Aspers-PA,PA,USA,39.9697,-77.218,0
Z17315,Origin-Dover-PA,PA,USA,40.0027,-76.8576,0
Z17331,Origin-Hanover-PA,PA,USA,39.7953,-76.9772,0
Z17345,Origin-Manchester-PA,PA,USA,40.0674,-76.7239,0
Z17350,Origin-New Oxford-PA,PA,USA,39.8746,-77.063,0
Z17353,Origin-Orrtanna-PA,PA,USA,39.8767,-77.3794,0
Z17356,Origin-Red Lion-PA,PA,USA,39.9004,-76.5978,0
Z17364,Origin-Thomasville-PA,PA,USA,39.9282,-76.9018,0
Z17402,Origin-York-PA,PA,USA,39.9769,-76.6778,0
Z17403,Origin-York-PA,PA,USA,39.9522,-76.7132,0
Z17404,Origin-York-PA,PA,USA,39.9629,-76.7676,0
Z17406,Origin-York-PA,PA,USA,40.0026,-76.5964,0
Z17517,Origin-Denver-PA,PA,USA,40.2344,-76.1265,0
Z17522,Origin-Ephrata-PA,PA,USA,40.1751,-76.1761,0
Z17540,Origin-Leola-PA,PA,USA,40.0964,-76.19,0
Z17543,Origin-Lititz-PA,PA,USA,40.1641,-76.2994,0
Z17557,Origin-New Holland-PA,PA,USA,40.1024,-76.0803,0
Z17578,Origin-Stevens-PA,PA,USA,40.2261,-76.1668,0
Z17603,Origin-Lancaster-PA,PA,USA,40.0327,-76.3333,0
Z17857,Origin-Northumberland-PA,PA,USA,40.8994,-76.7894,0
Z17901,Origin-Pottsville-PA,PA,USA,40.6852,-76.2138,0
Z17976,Origin-Shenandoah-PA,PA,USA,40.8209,-76.2042,0
Z18015,Origin-Bethlehem-PA,PA,USA,40.6013,-75.3754,0
Z18016,Origin-Bethlehem-PA,PA,USA,40.6935,-75.4711,0
Z18017,Origin-Bethlehem-PA,PA,USA,40.6457,-75.3692,0
Z18020,Origin-Bethlehem-PA,PA,USA,40.6566,-75.3293,0
Z18031,Origin-Breinigsville-PA,PA,USA,40.5521,-75.6491,0
Z18040,Origin-Easton-PA,PA,USA,40.7303,-75.2234,0
Z18051,Origin-Fogelsville-PA,PA,USA,40.5932,-75.6522,0
Z18062,Origin-Macungie-PA,PA,USA,40.5173,-75.5651,0
Z18063,Origin-Martins Creek-PA,PA,USA,40.7819,-75.1859,0
Z18064,Origin-Nazareth-PA,PA,USA,40.7469,-75.3163,0
Z18069,Origin-Orefield-PA,PA,USA,40.6246,-75.6072,0
Z18102,Origin-Allentown-PA,PA,USA,40.6078,-75.4793,0
Z18103,Origin-Allentown-PA,PA,USA,40.5952,-75.4591,0
Z18104,Origin-Allentown-PA,PA,USA,40.602,-75.521,0
Z18105,Origin-Allentown-PA,PA,USA,40.6934,-75.4711,0
Z18106,Origin-Allentown-PA,PA,USA,40.5693,-75.5888,0
Z18109,Destination-Allentown-PA,PA,USA,40.69354,-75.47111,1
Z18201,Origin-Hazleton-PA,PA,USA,40.9584,-75.9851,0
Z18202,Origin-Hazleton-PA,PA,USA,40.9697,-75.9904,0
Z18360,Origin-Stroudsburg-PA,PA,USA,40.9831,-75.2602,0
Z18431,Origin-Honesdale-PA,PA,USA,41.6004,-75.251,0
Z18501,Origin-Scranton-PA,PA,USA,41.402,-75.6376,0
Z18504,Origin-Scranton-PA,PA,USA,41.415,-75.6878,0
Z18505,Origin-Scranton-PA,PA,USA,41.3921,-75.6659,0
Z18508,Origin-Scranton-PA,PA,USA,41.4394,-75.6619,0
Z18512,Origin-Scranton-PA,PA,USA,41.4273,-75.6181,0
Z18517,Origin-Taylor-PA,PA,USA,41.3914,-75.7153,0
Z18603,Origin-Berwick-PA,PA,USA,41.0614,-76.2493,0
Z18640,Destination-Pittston-PA,PA,USA,41.3173,-75.7794,1
Z18702,Origin-Wilkes Barre-PA,PA,USA,41.2363,-75.8725,0
Z18704,Origin-Kingston-PA,PA,USA,41.2748,-75.8907,0
Z18706,Origin-Wilkes Barre-PA,PA,USA,41.2099,-75.9177,0
Z18707,Origin-Mountain Top-PA,PA,USA,41.1335,-75.9194,0
Z18924,Origin-Franconia-PA,PA,USA,40.3082,-75.3585,0
Z18951,Origin-Quakertown-PA,PA,USA,40.4453,-75.3483,0
Z18964,Origin-Souderton-PA,PA,USA,40.3053,-75.3249,0
Z18977,Origin-Washington Crossing-PA,PA,USA,40.29,-74.8788,0
Z19013,Origin-Chester-PA,PA,USA,39.847,-75.3744,0
Z19018,Origin-Primos-PA,PA,USA,39.9229,-75.2963,0
Z19021,Origin-Croydon-PA,PA,USA,40.0935,-74.8991,0
Z19022,Origin-Crum Lynne-PA,PA,USA,39.8628,-75.3395,0
Z19057,Origin-Levittown-PA,PA,USA,40.1421,-74.8581,0
Z19061,Origin-Marcus Hook-PA,PA,USA,39.8329,-75.4406,0
Z19082,Origin-Upper Darby-PA,PA,USA,39.9585,-75.2685,0
Z19116,Origin-Philadelphia-PA,PA,USA,40.1174,-75.0153,0
Z19120,Origin-Philadelphia-PA,PA,USA,40.0339,-75.1212,0
Z19122,Origin-Philadelphia-PA,PA,USA,39.9777,-75.1433,0
Z19123,Origin-Philadelphia-PA,PA,USA,39.9641,-75.1476,0
Z19124,Origin-Philadelphia-PA,PA,USA,40.0174,-75.0876,0
Z19125,Origin-Philadelphia-PA,PA,USA,39.9782,-75.1256,0
Z19134,Origin-Philadelphia-PA,PA,USA,39.9918,-75.1111,0
Z19140,Origin-Philadelphia-PA,PA,USA,40.0122,-75.145,0
Z19143,Origin-Philadelphia-PA,PA,USA,39.9442,-75.2272,0
Z19145,Origin-Philadelphia-PA,PA,USA,39.9223,-75.1825,0
Z19146,Origin-Philadelphia-PA,PA,USA,39.9386,-75.1806,0
Z19147,Origin-Philadelphia-PA,PA,USA,39.9366,-75.154,0
Z19148,Origin-Philadelphia-PA,PA,USA,39.9199,-75.158,0
Z19153,Origin-Philadelphia-PA,PA,USA,39.899,-75.2322,0
Z19154,Origin-Philadelphia-PA,PA,USA,40.0915,-74.9772,0
Z19311,Origin-Avondale-PA,PA,USA,39.8257,-75.7724,0
Z19320,Origin-Coatesville-PA,PA,USA,39.9785,-75.8227,0
Z19335,Origin-Downingtown-PA,PA,USA,40.0235,-75.7138,0
Z19355,Origin-Malvern-PA,PA,USA,40.043,-75.5322,0
Z19363,Origin-Oxford-PA,PA,USA,39.782,-75.9746,0
Z19374,Origin-Toughkenamon-PA,PA,USA,39.831,-75.7552,0
Z19403,Origin-Norristown-PA,PA,USA,40.1461,-75.3837,0
Z19406,Origin-King Of Prussia-PA,PA,USA,40.093,-75.3752,0
Z19432,Origin-Devault-PA,PA,USA,40.0797,-75.5599,0
Z19438,Origin-Harleysville-PA,PA,USA,40.2705,-75.3857,0
Z19440,Origin-Hatfield-PA,PA,USA,40.2784,-75.2948,0
Z19464,Origin-Pottstown-PA,PA,USA,40.2535,-75.6348,0
Z19473,Origin-Schwenksville-PA,PA,USA,40.2571,-75.4709,0
Z19518,Origin-Douglassville-PA,PA,USA,40.2732,-75.7392,0
Z19522,Origin-Fleetwood-PA,PA,USA,40.4471,-75.82,0
Z19530,Origin-Kutztown-PA,PA,USA,40.5351,-75.7756,0
Z19533,Origin-Leesport-PA,PA,USA,40.4356,-75.9893,0
Z19601,Origin-Reading-PA,PA,USA,40.3481,-75.9357,0
Z19603,Origin-Reading-PA,PA,USA,40.3885,-75.963,0
Z19605,Origin-Reading-PA,PA,USA,40.391,-75.9375,0
Z19609,Origin-Reading-PA,PA,USA,40.3247,-75.9921,0
Z19610,Origin-Reading-PA,PA,USA,40.3351,-75.9709,0
Z19720,Origin-New Castle-DE,DE,USA,39.6693,-75.59,0
Z19801,Origin-Wilmington-DE,DE,USA,39.7386,-75.5482,0
Z19805,Origin-Wilmington-DE,DE,USA,39.7454,-75.5825,0
Z19933,Origin-Bridgeville-DE,DE,USA,38.7364,-75.608,0
Z19963,Origin-Milford-DE,DE,USA,38.9229,-75.4145,0
Z20109,Destination-Manassas-VA,VA,USA,38.7902,-77.5129,1
Z20111,Origin-Manassas-VA,VA,USA,38.7698,-77.4491,0
Z20701,Origin-Annapolis Junction-MD,MD,USA,39.1278,-76.7923,0
Z20705,Origin-Beltsville-MD,MD,USA,39.0446,-76.9132,0
Z20707,Origin-Laurel-MD,MD,USA,39.0986,-76.8657,0
Z20743,Origin-Capitol Heights-MD,MD,USA,38.8868,-76.9064,0
Z20746,Origin-Suitland-MD,MD,USA,38.8397,-76.9148,0
Z20763,Origin-Savage-MD,MD,USA,39.1374,-76.8233,0
Z20781,Origin-Hyattsville-MD,MD,USA,38.9468,-76.9355,0
Z20785,Origin-Hyattsville-MD,MD,USA,38.9201,-76.8889,0
Z20794,Origin-Jessup-MD,MD,USA,39.1449,-76.7876,0
Z20879,Origin-Gaithersburg-MD,MD,USA,39.1687,-77.1871,0
Z20910,Origin-Silver Spring-MD,MD,USA,39,-77.034,0
Z21001,Origin-Aberdeen-MD,MD,USA,39.5082,-76.1806,0
Z21017,Origin-Belcamp-MD,MD,USA,39.4761,-76.2435,0
Z21031,Origin-Hunt Valley-MD,MD,USA,39.488,-76.6593,0
Z21044,Origin-Columbia-MD,MD,USA,39.2154,-76.8782,0
Z21074,Origin-Hampstead-MD,MD,USA,39.6134,-76.848,0
Z21076,Origin-Hanover-MD,MD,USA,39.1678,-76.717,0
Z21117,Origin-Owings Mills-MD,MD,USA,39.4192,-76.7838,0
Z21133,Origin-Randallstown-MD,MD,USA,39.3765,-76.7991,0
Z21144,Destination-Severn-MD,MD,USA,39.1302,-76.6914,1
Z21220,Origin-Middle River-MD,MD,USA,39.3378,-76.4153,0
Z21222,Origin-Dundalk-MD,MD,USA,39.2632,-76.5081,0
Z21223,Origin-Baltimore-MD,MD,USA,39.2866,-76.6464,0
Z21224,Origin-Baltimore-MD,MD,USA,39.2846,-76.5569,0
Z21225,Origin-Brooklyn-MD,MD,USA,39.2295,-76.612,0
Z21227,Origin-Halethorpe-MD,MD,USA,39.242,-76.677,0
Z21230,Origin-Baltimore-MD,MD,USA,39.2731,-76.6261,0
Z21237,Origin-Rosedale-MD,MD,USA,39.3323,-76.5036,0
Z21240,Origin-Baltimore-MD,MD,USA,39.1429,-76.6515,0
Z21244,Origin-Windsor Mill-MD,MD,USA,39.3382,-76.7644,0
Z21275,Origin-Baltimore-MD,MD,USA,39.2847,-76.6204,0
Z21403,Origin-Annapolis-MD,MD,USA,38.9466,-76.4835,0
Z21632,Origin-Federalsburg-MD,MD,USA,38.7058,-75.7748,0
Z21673,Origin-Trappe-MD,MD,USA,38.6625,-76.07,0
Z21750,Origin-Hancock-MD,MD,USA,39.6927,-78.2168,0
Z21776,Origin-New Windsor-MD,MD,USA,39.5299,-77.0971,0
Z21783,Origin-Smithsburg-MD,MD,USA,39.6558,-77.5672,0
Z21795,Origin-Williamsport-MD,MD,USA,39.6001,-77.8158,0
Z21851,Origin-Pocomoke City-MD,MD,USA,38.0694,-75.548,0
Z22312,Origin-Alexandria-VA,VA,USA,38.8175,-77.1536,0
Z22488,Origin-Kinsale-VA,VA,USA,38.0465,-76.5792,0
Z22601,Origin-Winchester-VA,VA,USA,39.1791,-78.1665,0
Z22657,Origin-Strasburg-VA,VA,USA,39.0013,-78.3648,0
Z22718,Origin-Elkwood-VA,VA,USA,38.4936,-77.8206,0
Z22801,Origin-Harrisonburg-VA,VA,USA,38.4268,-78.8815,0
Z22802,Origin-Harrisonburg-VA,VA,USA,38.4778,-78.863,0
Z22815,Origin-Broadway-VA,VA,USA,38.6197,-78.8051,0
Z22824,Origin-Edinburg-VA,VA,USA,38.8287,-78.6096,0
Z22842,Origin-Mount Jackson-VA,VA,USA,38.7724,-78.6946,0
Z22853,Origin-Timberville-VA,VA,USA,38.6416,-78.7626,0
Z22922,Origin-Arrington-VA,VA,USA,37.6948,-78.9324,0
Z22952,Origin-Lyndhurst-VA,VA,USA,37.9697,-78.9571,0
Z23005,Origin-Ashland-VA,VA,USA,37.7543,-77.4746,0
Z23150,Origin-Sandston-VA,VA,USA,37.5178,-77.2867,0
Z23224,Origin-Richmond-VA,VA,USA,37.5052,-77.461,0
Z23228,Origin-Richmond-VA,VA,USA,37.6218,-77.4889,0
Z23236,Origin-Richmond-VA,VA,USA,37.4758,-77.5823,0
Z23323,Origin-Chesapeake-VA,VA,USA,36.7578,-76.3357,0
Z23430,Origin-Smithfield-VA,VA,USA,36.9789,-76.6397,0
Z23435,Origin-Suffolk-VA,VA,USA,36.8488,-76.4652,0
Z23451,Origin-Virginia Beach-VA,VA,USA,36.8649,-76.0009,0
Z23502,Origin-Norfolk-VA,VA,USA,36.8552,-76.2123,0
Z23504,Origin-Norfolk-VA,VA,USA,36.8594,-76.2702,0
Z23603,Origin-Newport News-VA,VA,USA,37.1937,-76.5717,0
Z23606,Origin-Newport News-VA,VA,USA,37.0783,-76.4944,0
Z23663,Origin-Hampton-VA,VA,USA,37.0315,-76.3164,0
Z23804,Origin-Petersburg-VA,VA,USA,37.2048,-77.3927,0
Z23875,Origin-Prince George-VA,VA,USA,37.236,-77.3025,0
Z23883,Origin-Surry-VA,VA,USA,37.1406,-76.7433,0
Z24012,Origin-Roanoke-VA,VA,USA,37.3058,-79.9276,0
Z24016,Origin-Roanoke-VA,VA,USA,37.2722,-79.9531,0
Z24019,Origin-Roanoke-VA,VA,USA,37.3415,-79.9504,0
Z24084,Origin-Dublin-VA,VA,USA,37.1073,-80.6738,0
Z24153,Destination-Salem-VA,VA,USA,37.2889,-80.0782,1
Z24184,Origin-Wirtz-VA,VA,USA,37.0688,-79.7491,0
Z24212,Origin-Abingdon-VA,VA,USA,36.691,-81.9707,0
Z24382,Origin-Wytheville-VA,VA,USA,36.9475,-81.0943,0
Z24450,Origin-Lexington-VA,VA,USA,37.7944,-79.4765,0
Z24517,Origin-Altavista-VA,VA,USA,37.1276,-79.274,0
Z24550,Origin-Evington-VA,VA,USA,37.238,-79.2826,0
Z25064,Origin-Dunbar-WV,WV,USA,38.3673,-81.7447,0
Z25082,Origin-Fraziers Bottom-WV,WV,USA,38.6218,-82.0282,0
Z25312,Origin-Charleston-WV,WV,USA,38.4142,-81.6616,0
Z25502,Origin-Apple Grove-WV,WV,USA,38.6696,-82.1265,0
Z25510,Origin-Culloden-WV,WV,USA,38.3996,-82.0656,0
Z25526,Destination-Hurricane-WV,WV,USA,38.427,-81.9895,1
Z25530,Origin-Kenova-WV,WV,USA,38.386,-82.5746,0
Z25541,Origin-Milton-WV,WV,USA,38.4404,-82.1353,0
Z25570,Origin-Wayne-WV,WV,USA,38.2251,-82.4391,0
Z25701,Origin-Huntington-WV,WV,USA,38.4036,-82.439,0
Z25702,Origin-Huntington-WV,WV,USA,38.4311,-82.3702,0
Z25812,Origin-Ansted-WV,WV,USA,38.1385,-81.104,0
Z25813,Origin-Beaver-WV,WV,USA,37.7547,-81.113,0
Z26120,Origin-Mineral Wells-WV,WV,USA,39.2183,-81.4978,0
Z26288,Origin-Webster Springs-WV,WV,USA,38.4849,-80.3802,0
Z26301,Origin-Clarksburg-WV,WV,USA,39.2813,-80.3434,0
Z26501,Origin-Morgantown-WV,WV,USA,39.6285,-79.9879,0
Z26836,Origin-Moorefield-WV,WV,USA,39.0382,-78.9719,0
Z27006,Origin-Advance-NC,NC,USA,35.9548,-80.4413,0
Z27055,Origin-Yadkinville-NC,NC,USA,36.123,-80.6455,0
Z27101,Origin-Winston Salem-NC,NC,USA,36.1071,-80.2192,0
Z27103,Origin-Winston Salem-NC,NC,USA,36.0666,-80.3073,0
Z27107,Origin-Winston Salem-NC,NC,USA,36.0463,-80.1899,0
Z27214,Origin-Browns Summit-NC,NC,USA,36.2058,-79.6983,0
Z27235,Origin-Colfax-NC,NC,USA,36.0921,-80.01,0
Z27253,Origin-Graham-NC,NC,USA,36.0319,-79.3781,0
Z27260,Origin-High Point-NC,NC,USA,35.9505,-79.9934,0
Z27262,Origin-High Point-NC,NC,USA,35.9646,-80.0223,0
Z27263,Origin-High Point-NC,NC,USA,35.9146,-79.9606,0
Z27284,Origin-Kernersville-NC,NC,USA,36.1199,-80.0872,0
Z27292,Origin-Lexington-NC,NC,USA,35.7758,-80.2317,0
Z27330,Origin-Sanford-NC,NC,USA,35.4589,-79.1641,0
Z27344,Origin-Siler City-NC,NC,USA,35.7298,-79.4498,0
Z27406,Origin-Greensboro-NC,NC,USA,36.0229,-79.7789,0
Z27407,Origin-Greensboro-NC,NC,USA,36.0254,-79.8711,0
Z27409,Origin-Greensboro-NC,NC,USA,36.084,-79.9412,0
Z27504,Origin-Benson-NC,NC,USA,35.3905,-78.5315,0
Z27520,Origin-Clayton-NC,NC,USA,35.6354,-78.4489,0
Z27524,Origin-Four Oaks-NC,NC,USA,35.4152,-78.4212,0
Z27534,Origin-Goldsboro-NC,NC,USA,35.3771,-77.9246,0
Z27536,Origin-Henderson-NC,NC,USA,36.3407,-78.3942,0
Z27549,Origin-Louisburg-NC,NC,USA,36.0623,-78.2495,0
Z27555,Origin-Micro-NC,NC,USA,35.5622,-78.2034,0
Z27565,Origin-Oxford-NC,NC,USA,36.3405,-78.6159,0
Z27576,Origin-Selma-NC,NC,USA,35.558,-78.2648,0
Z27577,Origin-Smithfield-NC,NC,USA,35.5066,-78.3444,0
Z27597,Destination-Zebulon-NC,NC,USA,35.8481,-78.3013,1
Z27604,Origin-Raleigh-NC,NC,USA,35.8146,-78.5835,0
Z27616,Origin-Raleigh-NC,NC,USA,35.8655,-78.5493,0
Z27701,Origin-Durham-NC,NC,USA,35.9972,-78.8973,0
Z27801,Origin-Rocky Mount-NC,NC,USA,35.9352,-77.7707,0
Z27809,Origin-Battleboro-NC,NC,USA,36.0325,-77.7864,0
Z27839,Origin-Halifax-NC,NC,USA,36.3111,-77.5781,0
Z27851,Origin-Lucama-NC,NC,USA,35.6403,-78.0234,0
Z27860,Origin-Pantego-NC,NC,USA,35.6241,-76.6727,0
Z27877,Origin-Severn-NC,NC,USA,36.5152,-77.1843,0
Z27886,Origin-Tarboro-NC,NC,USA,35.9054,-77.5405,0
Z27893,Origin-Wilson-NC,NC,USA,35.7154,-77.9198,0
Z27932,Origin-Edenton-NC,NC,USA,36.0933,-76.6208,0
Z28021,Origin-Cherryville-NC,NC,USA,35.384,-81.3937,0
Z28027,Origin-Concord-NC,NC,USA,35.4057,-80.6381,0
Z28073,Origin-Grover-NC,NC,USA,35.1896,-81.4792,0
Z28078,Origin-Huntersville-NC,NC,USA,35.4096,-80.8636,0
Z28079,Origin-Indian Trail-NC,NC,USA,35.1052,-80.6209,0
Z28080,Origin-Iron Station-NC,NC,USA,35.4546,-81.1236,0
Z28086,Origin-Kings Mountain-NC,NC,USA,35.2412,-81.3614,0
Z28098,Origin-Lowell-NC,NC,USA,35.2673,-81.0994,0
Z28105,Origin-Matthews-NC,NC,USA,35.1169,-80.7163,0
Z28110,Origin-Monroe-NC,NC,USA,35.032,-80.56,0
Z28115,Origin-Mooresville-NC,NC,USA,35.5842,-80.8026,0
Z28117,Origin-Mooresville-NC,NC,USA,35.5719,-80.8923,0
Z28145,Origin-Salisbury-NC,NC,USA,35.6827,-80.4771,0
Z28160,Origin-Spindale-NC,NC,USA,35.3605,-81.925,0
Z28205,Origin-Charlotte-NC,NC,USA,35.2224,-80.7922,0
Z28206,Origin-Charlotte-NC,NC,USA,35.2484,-80.8274,0
Z28208,Origin-Charlotte-NC,NC,USA,35.2358,-80.8929,0
Z28211,Origin-Charlotte-NC,NC,USA,35.1701,-80.7985,0
Z28216,Origin-Charlotte-NC,NC,USA,35.287,-80.8789,0
Z28217,Origin-Charlotte-NC,NC,USA,35.1723,-80.8973,0
Z28269,Destination-Charlotte-NC,NC,USA,35.3293,-80.8048,1
Z28273,Origin-Charlotte-NC,NC,USA,35.1241,-80.9395,0
Z28290,Origin-Charlotte-NC,NC,USA,35.2601,-80.8041,0
Z28301,Origin-Fayetteville-NC,NC,USA,35.0424,-78.8412,0
Z28328,Origin-Clinton-NC,NC,USA,35.0002,-78.3342,0
Z28329,Origin-Clinton-NC,NC,USA,34.9941,-78.2777,0
Z28332,Origin-Dublin-NC,NC,USA,34.656,-78.7207,0
Z28333,Origin-Dudley-NC,NC,USA,35.2933,-78.0189,0
Z28334,Origin-Dunn-NC,NC,USA,35.3025,-78.6011,0
Z28358,Origin-Lumberton-NC,NC,USA,34.6209,-78.9898,0
Z28365,Origin-Mount Olive-NC,NC,USA,35.1846,-78.0605,0
Z28376,Origin-Raeford-NC,NC,USA,34.9922,-79.23,0
Z28392,Origin-Tar Heel-NC,NC,USA,34.7428,-78.8064,0
Z28393,Origin-Turkey-NC,NC,USA,34.9898,-78.1855,0
Z28398,Origin-Warsaw-NC,NC,USA,34.993,-78.084,0
Z28403,Origin-Wilmington-NC,NC,USA,34.2215,-77.8844,0
Z28405,Origin-Wilmington-NC,NC,USA,34.2543,-77.8724,0
Z28431,Origin-Chadbourn-NC,NC,USA,34.3124,-78.8302,0
Z28433,Origin-Clarkton-NC,NC,USA,34.4912,-78.6436,0
Z28458,Origin-Rose Hill-NC,NC,USA,34.8225,-78.0417,0
Z28461,Origin-Southport-NC,NC,USA,33.9632,-78.0574,0
Z28464,Origin-Teachey-NC,NC,USA,34.7723,-78.0139,0
Z28472,Origin-Whiteville-NC,NC,USA,34.3121,-78.7077,0
Z28501,Origin-Kinston-NC,NC,USA,35.2609,-77.5646,0
Z28504,Origin-Kinston-NC,NC,USA,35.2648,-77.6248,0
Z28513,Origin-Ayden-NC,NC,USA,35.4631,-77.4161,0
Z28601,Origin-Hickory-NC,NC,USA,35.76,-81.3301,0
Z28607,Origin-Boone-NC,NC,USA,36.2128,-81.6625,0
Z28613,Origin-Conover-NC,NC,USA,35.7203,-81.2146,0
Z28618,Origin-Deep Gap-NC,NC,USA,36.1979,-81.5227,0
Z28625,Origin-Statesville-NC,NC,USA,35.8406,-80.8799,0
Z28655,Origin-Morganton-NC,NC,USA,35.7428,-81.7162,0
Z28658,Origin-Newton-NC,NC,USA,35.6535,-81.2344,0
Z28677,Origin-Statesville-NC,NC,USA,35.7658,-80.8981,0
Z28681,Origin-Taylorsville-NC,NC,USA,35.9143,-81.2083,0
Z28690,Origin-Valdese-NC,NC,USA,35.7404,-81.568,0
Z28712,Origin-Brevard-NC,NC,USA,35.1881,-82.7579,0
Z28715,Origin-Candler-NC,NC,USA,35.5299,-82.7045,0
Z28731,Origin-Flat Rock-NC,NC,USA,35.2708,-82.4152,0
Z28792,Origin-Hendersonville-NC,NC,USA,35.3539,-82.4162,0
Z28803,Origin-Asheville-NC,NC,USA,35.5418,-82.523,0
Z28806,Origin-Asheville-NC,NC,USA,35.5759,-82.6061,0
Z29053,Origin-Gaston-SC,SC,USA,33.8304,-81.0921,0
Z29070,Origin-Leesville-SC,SC,USA,33.9314,-81.4649,0
Z29072,Destination-Lexington-SC,SC,USA,33.9914,-81.2504,1
Z29127,Origin-Prosperity-SC,SC,USA,34.1486,-81.5109,0
Z29129,Origin-Ridge Spring-SC,SC,USA,33.8044,-81.6557,0
Z29154,Origin-Sumter-SC,SC,USA,33.8992,-80.4343,0
Z29170,Origin-West Columbia-SC,SC,USA,33.9433,-81.1413,0
Z29172,Origin-West Columbia-SC,SC,USA,33.9023,-81.0825,0
Z29201,Origin-Columbia-SC,SC,USA,33.9985,-81.0351,0
Z29202,Origin-Columbia-SC,SC,USA,34.023,-81.0288,0
Z29209,Origin-Columbia-SC,SC,USA,33.9681,-80.9384,0
Z29304,Origin-Spartanburg-SC,SC,USA,34.9167,-81.8638,0
Z29340,Origin-Gaffney-SC,SC,USA,35.0366,-81.6249,0
Z29401,Origin-Charleston-SC,SC,USA,32.7792,-79.9355,0
Z29405,Origin-North Charleston-SC,SC,USA,32.8567,-79.9822,0
Z29406,Origin-Charleston-SC,SC,USA,32.9188,-80.0227,0
Z29410,Origin-Charleston-SC,SC,USA,33.1926,-80.0306,0
Z29456,Origin-Ladson-SC,SC,USA,32.9936,-80.1216,0
Z29461,Origin-Moncks Corner-SC,SC,USA,33.1642,-80.0103,0
Z29501,Origin-Florence-SC,SC,USA,34.1957,-79.8097,0
Z29506,Origin-Florence-SC,SC,USA,34.2014,-79.7172,0
Z29536,Origin-Dillon-SC,SC,USA,34.4139,-79.365,0
Z29541,Origin-Effingham-SC,SC,USA,34.0701,-79.7579,0
Z29568,Origin-Longs-SC,SC,USA,33.9158,-78.7479,0
Z29605,Origin-Greenville-SC,SC,USA,34.7981,-82.3928,0
Z29606,Origin-Greenville-SC,SC,USA,34.8498,-82.4537,0
Z29607,Origin-Greenville-SC,SC,USA,34.8256,-82.341,0
Z29609,Origin-Greenville-SC,SC,USA,34.8893,-82.3936,0
Z29640,Origin-Easley-SC,SC,USA,34.8497,-82.5936,0
Z29644,Origin-Fountain Inn-SC,SC,USA,34.6813,-82.1973,0
Z29646,Origin-Greenwood-SC,SC,USA,34.1699,-82.1547,0
Z29648,Origin-Greenwood-SC,SC,USA,34.2125,-82.168,0
Z29650,Origin-Greer-SC,SC,USA,34.9115,-82.2517,0
Z29662,Origin-Mauldin-SC,SC,USA,34.7747,-82.3043,0
Z29673,Origin-Piedmont-SC,SC,USA,34.7232,-82.4564,0
Z29676,Origin-Salem-SC,SC,USA,34.8881,-82.9587,0
Z29692,Origin-Ware Shoals-SC,SC,USA,34.4046,-82.2385,0
Z29715,Destination-Fort Mill-SC,SC,USA,35.0085,-80.9164,1
Z29824,Origin-Edgefield-SC,SC,USA,33.8191,-81.9503,0
Z29827,Origin-Fairfax-SC,SC,USA,32.9631,-81.2405,0
Z29901,Origin-Beaufort-SC,SC,USA,32.4244,-80.5653,0
Z30004,Origin-Alpharetta-GA,GA,USA,34.1192,-84.3028,0
Z30008,Origin-Marietta-GA,GA,USA,33.9074,-84.5787,0
Z30013,Origin-Conyers-GA,GA,USA,33.6337,-83.9838,0
Z30014,Origin-Covington-GA,GA,USA,33.5815,-83.851,0
Z30024,Origin-Suwanee-GA,GA,USA,34.0527,-84.0748,0
Z30025,Origin-Social Circle-GA,GA,USA,33.6508,-83.7077,0
Z30035,Origin-Decatur-GA,GA,USA,33.7258,-84.2111,0
Z30039,Origin-Snellville-GA,GA,USA,33.8222,-84.037,0
Z30040,Origin-Cumming-GA,GA,USA,34.2355,-84.1744,0
Z30043,Origin-Lawrenceville-GA,GA,USA,34.0012,-84.0149,0
Z30058,Origin-Lithonia-GA,GA,USA,33.7503,-84.0963,0
Z30062,Origin-Marietta-GA,GA,USA,33.9961,-84.4746,0
Z30065,Origin-Marietta-GA,GA,USA,33.9125,-84.5572,0
Z30066,Origin-Marietta-GA,GA,USA,34.0276,-84.5147,0
Z30071,Destination-Norcross-GA,GA,USA,33.9409,-84.2062,1
Z30080,Origin-Smyrna-GA,GA,USA,33.8758,-84.5038,0
Z30082,Origin-Smyrna-GA,GA,USA,33.8592,-84.5374,0
Z30083,Origin-Stone Mountain-GA,GA,USA,33.7957,-84.1976,0
Z30084,Origin-Tucker-GA,GA,USA,33.8539,-84.2203,0
Z30093,Origin-Norcross-GA,GA,USA,33.91,-84.1793,0
Z30096,Origin-Duluth-GA,GA,USA,33.9795,-84.1511,0
Z30102,Origin-Acworth-GA,GA,USA,34.098,-84.6182,0
Z30106,Origin-Austell-GA,GA,USA,33.8282,-84.6259,0
Z30110,Origin-Bremen-GA,GA,USA,33.724,-85.1428,0
Z30122,Origin-Lithia Springs-GA,GA,USA,33.7762,-84.6448,0
Z30152,Origin-Kennesaw-GA,GA,USA,34.0022,-84.6339,0
Z30153,Origin-Rockmart-GA,GA,USA,33.9875,-85.055,0
Z30161,Origin-Rome-GA,GA,USA,34.2534,-85.1531,0
Z30168,Origin-Austell-GA,GA,USA,33.7975,-84.6061,0
Z30180,Origin-Villa Rica-GA,GA,USA,33.7181,-84.9235,0
Z30213,Destination-Fairburn-GA,GA,USA,33.5657,-84.5931,1
Z30223,Origin-Griffin-GA,GA,USA,33.2682,-84.273,0
Z30224,Origin-Griffin-GA,GA,USA,33.2155,-84.2542,0
Z30228,Origin-Hampton-GA,GA,USA,33.4019,-84.3015,0
Z30236,Origin-Jonesboro-GA,GA,USA,33.5284,-84.3334,0
Z30253,Origin-Mcdonough-GA,GA,USA,33.4551,-84.1721,0
Z30260,Origin-Morrow-GA,GA,USA,33.5878,-84.3301,0
Z30265,Origin-Newnan-GA,GA,USA,33.4009,-84.712,0
Z30268,Origin-Palmetto-GA,GA,USA,33.5278,-84.6945,0
Z30287,Origin-Morrow-GA,GA,USA,33.5007,-84.3513,0
Z30291,Origin-Union City-GA,GA,USA,33.581,-84.5461,0
Z30297,Origin-Forest Park-GA,GA,USA,33.6154,-84.367,0
Z30301,Origin-Atlanta-GA,GA,USA,33.8444,-84.474,0
Z30303,Origin-Atlanta-GA,GA,USA,33.7529,-84.3901,0
Z30305,Origin-Atlanta-GA,GA,USA,33.8301,-84.3846,0
Z30310,Origin-Atlanta-GA,GA,USA,33.7279,-84.4198,0
Z30312,Origin-Atlanta-GA,GA,USA,33.7458,-84.3763,0
Z30316,Origin-Atlanta-GA,GA,USA,33.7295,-84.3408,0
Z30318,Origin-Atlanta-GA,GA,USA,33.7868,-84.437,0
Z30319,Origin-Atlanta-GA,GA,USA,33.8721,-84.3361,0
Z30324,Origin-Atlanta-GA,GA,USA,33.8184,-84.3578,0
Z30329,Origin-Atlanta-GA,GA,USA,33.8276,-84.3235,0
Z30331,Origin-Atlanta-GA,GA,USA,33.7157,-84.5273,0
Z30336,Origin-Atlanta-GA,GA,USA,33.7441,-84.5603,0
Z30337,Origin-Atlanta-GA,GA,USA,33.647,-84.4538,0
Z30340,Origin-Atlanta-GA,GA,USA,33.8994,-84.2537,0
Z30341,Origin-Atlanta-GA,GA,USA,33.8881,-84.2931,0
Z30344,Origin-Atlanta-GA,GA,USA,33.6763,-84.4497,0
Z30349,Origin-Atlanta-GA,GA,USA,33.6155,-84.4903,0
Z30350,Origin-Atlanta-GA,GA,USA,33.9729,-84.3277,0
Z30353,Origin-Atlanta-GA,GA,USA,33.84441,-84.4742,0
Z30354,Origin-Atlanta-GA,GA,USA,33.6589,-84.3968,0
Z30360,Origin-Atlanta-GA,GA,USA,33.9346,-84.2721,0
Z30384,Origin-Atlanta-GA,GA,USA,33.8445,-84.474,0
Z30474,Origin-Vidalia-GA,GA,USA,32.2202,-82.4149,0
Z30501,Origin-Gainesville-GA,GA,USA,34.3066,-83.8235,0
Z30504,Origin-Gainesville-GA,GA,USA,34.2744,-83.87,0
Z30507,Origin-Gainesville-GA,GA,USA,34.2537,-83.7735,0
Z30513,Origin-Blue Ridge-GA,GA,USA,34.8512,-84.329,0
Z30518,Origin-Buford-GA,GA,USA,34.1212,-84.018,0
Z30520,Origin-Canon-GA,GA,USA,34.3381,-83.0965,0
Z30540,Origin-Ellijay-GA,GA,USA,34.6888,-84.4671,0
Z30554,Origin-Lula-GA,GA,USA,34.3917,-83.6597,0
Z30564,Origin-Murrayville-GA,GA,USA,34.4662,-83.8843,0
Z30566,Origin-Oakwood-GA,GA,USA,34.2366,-83.8912,0
Z30567,Origin-Pendergrass-GA,GA,USA,34.1673,-83.6853,0
Z30601,Origin-Athens-GA,GA,USA,33.9791,-83.3642,0
Z30606,Origin-Athens-GA,GA,USA,33.9457,-83.4173,0
Z30620,Origin-Bethlehem-GA,GA,USA,33.929,-83.7352,0
Z30666,Origin-Statham-GA,GA,USA,33.9578,-83.5848,0
Z30705,Origin-Chatsworth-GA,GA,USA,34.7531,-84.775,0
Z30721,Origin-Dalton-GA,GA,USA,34.7808,-84.9399,0
Z30817,Origin-Lincolnton-GA,GA,USA,33.7656,-82.4389,0
Z30901,Origin-Augusta-GA,GA,USA,33.4612,-81.9726,0
Z31015,Origin-Cordele-GA,GA,USA,31.9509,-83.7781,0
Z31041,Origin-Ideal-GA,GA,USA,32.3714,-84.1825,0
Z31063,Origin-Montezuma-GA,GA,USA,32.2933,-83.9891,0
Z31069,Origin-Perry-GA,GA,USA,32.4608,-83.7353,0
Z31085,Origin-Shady Dale-GA,GA,USA,33.4218,-83.6143,0
Z31216,Origin-Macon-GA,GA,USA,32.7307,-83.6792,0
Z31308,Origin-Ellabell-GA,GA,USA,32.1727,-81.4844,0
Z31322,Origin-Pooler-GA,GA,USA,32.1104,-81.2456,0
Z31326,Origin-Rincon-GA,GA,USA,32.2932,-81.23,0
Z31405,Origin-Savannah-GA,GA,USA,32.0431,-81.1218,0
Z31407,Origin-Savannah-GA,GA,USA,32.163,-81.1723,0
Z31408,Origin-Savannah-GA,GA,USA,32.1068,-81.1691,0
Z31412,Origin-Savannah-GA,GA,USA,31.9715,-81.0715,0
Z31535,Origin-Douglas-GA,GA,USA,31.465,-82.8632,0
Z31601,Origin-Valdosta-GA,GA,USA,30.8074,-83.2866,0
Z31719,Origin-Americus-GA,GA,USA,32.0855,-84.2526,0
Z31720,Origin-Barwick-GA,GA,USA,30.891,-83.7381,0
Z31768,Origin-Moultrie-GA,GA,USA,31.1654,-83.7716,0
Z31788,Origin-White House-TN,TN,USA,31.1381,-83.7167,0
Z31794,Origin-Tifton-GA,GA,USA,31.4597,-83.5108,0
Z31823,Origin-Pine Mountain Valley-GA,GA,USA,32.8012,-84.8204,0
Z31901,Origin-Columbus-GA,GA,USA,32.4716,-84.98,0
Z31904,Origin-Columbus-GA,GA,USA,32.5134,-84.9775,0
Z31906,Origin-Columbus-GA,GA,USA,32.4685,-84.9512,0
Z32033,Origin-Elkton-FL,FL,USA,29.7879,-81.4467,0
Z32055,Origin-Lake City-FL,FL,USA,30.2161,-82.6395,0
Z32060,Origin-Live Oak-FL,FL,USA,30.2851,-83.041,0
Z32083,Origin-Raiford-FL,FL,USA,30.0704,-82.2236,0
Z32084,Origin-Saint Augustine-FL,FL,USA,29.8714,-81.2946,0
Z32124,Destination-Daytona Beach-FL,FL,USA,29.1056,-81.0864,1
Z32141,Origin-Edgewater-FL,FL,USA,28.9449,-80.8952,0
Z32177,Origin-Palatka-FL,FL,USA,29.6663,-81.674,0
Z32204,Origin-Jacksonville-FL,FL,USA,30.3238,-81.6817,0
Z32206,Origin-Jacksonville-FL,FL,USA,30.3511,-81.6465,0
Z32208,Origin-Jacksonville-FL,FL,USA,30.393,-81.6793,0
Z32209,Origin-Jacksonville-FL,FL,USA,30.3546,-81.691,0
Z32218,Origin-Jacksonville-FL,FL,USA,30.4492,-81.6565,0
Z32219,Origin-Jacksonville-FL,FL,USA,30.4116,-81.7665,0
Z32220,Origin-Jacksonville-FL,FL,USA,30.3297,-81.8086,0
Z32226,Origin-Jacksonville-FL,FL,USA,30.4535,-81.5255,0
Z32254,Origin-Jacksonville-FL,FL,USA,30.3361,-81.725,0
Z32320,Origin-Apalachicola-FL,FL,USA,29.7189,-85.0269,0
Z32401,Origin-Panama City-FL,FL,USA,30.162,-85.653,0
Z32446,Origin-Marianna-FL,FL,USA,30.8047,-85.2205,0
Z32502,Origin-Pensacola-FL,FL,USA,30.4743,-87.2256,0
Z32547,Origin-Fort Walton Beach-FL,FL,USA,30.4473,-86.6211,0
Z32669,Origin-Newberry-FL,FL,USA,29.6407,-82.5944,0
Z32681,Origin-Orange Lake-FL,FL,USA,29.4254,-82.2158,0
Z32707,Origin-Casselberry-FL,FL,USA,28.6651,-81.3177,0
Z32708,Origin-Winter Springs-FL,FL,USA,28.6835,-81.2815,0
Z32720,Origin-Deland-FL,FL,USA,29.0218,-81.3335,0
Z32724,Origin-Deland-FL,FL,USA,29.0398,-81.2792,0
Z32750,Origin-Longwood-FL,FL,USA,28.7037,-81.3538,0
Z32771,Origin-Sanford-FL,FL,USA,28.804,-81.2875,0
Z32779,Origin-Longwood-FL,FL,USA,28.7049,-81.417,0
Z32784,Origin-Umatilla-FL,FL,USA,28.9486,-81.7062,0
Z32803,Origin-Orlando-FL,FL,USA,28.5576,-81.3524,0
Z32805,Origin-Orlando-FL,FL,USA,28.5304,-81.4008,0
Z32806,Origin-Orlando-FL,FL,USA,28.5149,-81.3605,0
Z32808,Origin-Orlando-FL,FL,USA,28.5761,-81.4436,0
Z32809,Origin-Orlando-FL,FL,USA,28.4635,-81.3881,0
Z32811,Origin-Orlando-FL,FL,USA,28.5249,-81.4399,0
Z32822,Origin-Orlando-FL,FL,USA,28.495,-81.2894,0
Z32824,Origin-Orlando-FL,FL,USA,28.4109,-81.3589,0
Z32837,Origin-Orlando-FL,FL,USA,28.386,-81.4118,0
Z32860,Origin-Orlando-FL,FL,USA,28.5663,-81.2608,0
Z32935,Origin-Melbourne-FL,FL,USA,28.1393,-80.6507,0
Z33009,Origin-Hallandale-FL,FL,USA,25.9871,-80.15,0
Z33010,Origin-Hialeah-FL,FL,USA,25.8324,-80.2787,0
Z33012,Origin-Hialeah-FL,FL,USA,25.8648,-80.3006,0
Z33013,Origin-Hialeah-FL,FL,USA,25.8605,-80.2717,0
Z33014,Origin-Hialeah-FL,FL,USA,25.9022,-80.3073,0
Z33016,Origin-Hialeah-FL,FL,USA,25.8881,-80.3328,0
Z33018,Origin-Hialeah-FL,FL,USA,25.8956,-80.3551,0
Z33020,Origin-Hollywood-FL,FL,USA,26.0171,-80.1492,0
Z33021,Origin-Hollywood-FL,FL,USA,26.0237,-80.1891,0
Z33023,Origin-Hollywood-FL,FL,USA,25.9892,-80.2132,0
Z33025,Origin-Hollywood-FL,FL,USA,25.9905,-80.2732,0
Z33050,Origin-Marathon-FL,FL,USA,24.7318,-81.0278,0
Z33054,Origin-Opa Locka-FL,FL,USA,25.9091,-80.2494,0
Z33060,Origin-Pompano Beach-FL,FL,USA,26.232,-80.122,0
Z33064,Origin-Pompano Beach-FL,FL,USA,26.2792,-80.1132,0
Z33069,Origin-Pompano Beach-FL,FL,USA,26.2288,-80.1581,0
Z33071,Origin-Pompano Beach-FL,FL,USA,26.2426,-80.2656,0
Z33122,Origin-Miami-FL,FL,USA,25.8,-80.3177,0
Z33126,Origin-Miami-FL,FL,USA,25.778,-80.2972,0
Z33127,Origin-Miami-FL,FL,USA,25.8138,-80.2058,0
Z33138,Origin-Miami-FL,FL,USA,25.8532,-80.1862,0
Z33142,Origin-Miami-FL,FL,USA,25.8126,-80.2368,0
Z33147,Origin-Miami-FL,FL,USA,25.8502,-80.2377,0
Z33150,Origin-Miami-FL,FL,USA,25.852,-80.2056,0
Z33157,Origin-Miami-FL,FL,USA,25.6066,-80.3486,0
Z33163,Origin-Miami-FL,FL,USA,25.945,-80.2145,0
Z33166,Origin-Miami-FL,FL,USA,25.8248,-80.3047,0
Z33167,Origin-Miami-FL,FL,USA,25.8858,-80.2326,0
Z33169,Origin-Miami-FL,FL,USA,25.9427,-80.2127,0
Z33172,Origin-Miami-FL,FL,USA,25.7867,-80.3615,0
Z33178,Origin-Miami-FL,FL,USA,25.8377,-80.3694,0
Z33179,Origin-Miami-FL,FL,USA,25.9588,-80.1794,0
Z33182,Origin-Miami-FL,FL,USA,25.7812,-80.4046,0
Z33185,Origin-Miami-FL,FL,USA,25.7232,-80.4399,0
Z33186,Origin-Miami-FL,FL,USA,25.6623,-80.4095,0
Z33309,Origin-Fort Lauderdale-FL,FL,USA,26.1855,-80.1721,0
Z33312,Origin-Fort Lauderdale-FL,FL,USA,26.0948,-80.1799,0
Z33313,Origin-Fort Lauderdale-FL,FL,USA,26.1487,-80.2244,0
Z33315,Origin-Fort Lauderdale-FL,FL,USA,26.0944,-80.1541,0
Z33317,Origin-Fort Lauderdale-FL,FL,USA,26.1137,-80.2237,0
Z33319,Origin-Fort Lauderdale-FL,FL,USA,26.1837,-80.2212,0
Z33401,Origin-West Palm Beach-FL,FL,USA,26.7113,-80.0604,0
Z33404,Origin-West Palm Beach-FL,FL,USA,26.7822,-80.0652,0
Z33405,Origin-West Palm Beach-FL,FL,USA,26.6698,-80.0585,0
Z33406,Origin-West Palm Beach-FL,FL,USA,26.6594,-80.0912,0
Z33409,Origin-West Palm Beach-FL,FL,USA,26.7096,-80.0944,0
Z33426,Origin-Boynton Beach-FL,FL,USA,26.5296,-80.0822,0
Z33431,Origin-Boca Raton-FL,FL,USA,26.3813,-80.0961,0
Z33442,Origin-Deerfield Beach-FL,FL,USA,26.3098,-80.1454,0
Z33445,Origin-Delray Beach-FL,FL,USA,26.4597,-80.1058,0
Z33462,Origin-Lake Worth-FL,FL,USA,26.5797,-80.0743,0
Z33469,Origin-Jupiter-FL,FL,USA,26.9689,-80.0994,0
Z33470,Origin-Loxahatchee-FL,FL,USA,26.7512,-80.3015,0
Z33487,Destination-Boca Raton-FL,FL,USA,26.41,-80.0884,1
Z33493,Origin-South Bay-FL,FL,USA,26.6631,-80.7182,0
Z33527,Origin-Dover-FL,FL,USA,27.9871,-82.2135,0
Z33540,Origin-Zephyrhills-FL,FL,USA,28.2354,-82.1686,0
Z33556,Origin-Odessa-FL,FL,USA,28.1434,-82.5904,0
Z33563,Origin-Plant City-FL,FL,USA,28.017,-82.1285,0
Z33564,Origin-Plant City-FL,FL,USA,28.0296,-82.1346,0
Z33566,Origin-Plant City-FL,FL,USA,28.0138,-82.1168,0
Z33567,Origin-Plant City-FL,FL,USA,27.983,-82.1454,0
Z33602,Origin-Tampa-FL,FL,USA,27.9562,-82.4571,0
Z33605,Origin-Tampa-FL,FL,USA,27.9639,-82.4319,0
Z33610,Destination-Tampa-FL,FL,USA,27.9935,-82.4091,1
Z33611,Origin-Tampa-FL,FL,USA,27.8912,-82.5058,0
Z33614,Origin-Tampa-FL,FL,USA,28.0063,-82.5062,0
Z33619,Origin-Tampa-FL,FL,USA,27.9461,-82.3752,0
Z33626,Origin-Tampa-FL,FL,USA,28.0529,-82.6113,0
Z33634,Origin-Tampa-FL,FL,USA,28.0056,-82.5493,0
Z33637,Origin-Tampa-FL,FL,USA,28.0384,-82.3628,0
Z33707,Origin-Saint Petersburg-FL,FL,USA,27.7565,-82.7176,0
Z33711,Origin-Saint Petersburg-FL,FL,USA,27.7507,-82.6881,0
Z33712,Origin-Saint Petersburg-FL,FL,USA,27.7454,-82.6657,0
Z33714,Origin-Saint Petersburg-FL,FL,USA,27.8174,-82.676,0
Z33715,Origin-Saint Petersburg-FL,FL,USA,27.683,-82.7209,0
Z33716,Origin-Saint Petersburg-FL,FL,USA,27.8743,-82.6451,0
Z33747,Origin-Saint Petersburg-FL,FL,USA,27.8919,-82.7247,0
Z33760,Origin-Clearwater-FL,FL,USA,27.9081,-82.7136,0
Z33762,Origin-Clearwater-FL,FL,USA,27.8832,-82.6838,0
Z33765,Origin-Clearwater-FL,FL,USA,27.9715,-82.7447,0
Z33773,Origin-Largo-FL,FL,USA,27.8833,-82.7563,0
Z33801,Destination-Lakeland-FL,FL,USA,28.0412,-81.9239,1
Z33805,Origin-Lakeland-FL,FL,USA,28.0716,-81.958,0
Z33811,Origin-Lakeland-FL,FL,USA,27.9784,-82.0083,0
Z33813,Origin-Lakeland-FL,FL,USA,27.9655,-81.9221,0
Z33815,Origin-Lakeland-FL,FL,USA,28.043,-81.9848,0
Z33823,Origin-Auburndale-FL,FL,USA,28.0689,-81.8027,0
Z33838,Origin-Dundee-FL,FL,USA,28.0211,-81.6187,0
Z33840,Origin-Eaton Park-FL,FL,USA,28.0844,-81.5414,0
Z33843,Origin-Frostproof-FL,FL,USA,27.758,-81.5087,0
Z33844,Origin-Haines City-FL,FL,USA,28.1016,-81.6235,0
Z33845,Origin-Haines City-FL,FL,USA,28.0027,-81.6186,0
Z33851,Origin-Lake Hamilton-FL,FL,USA,28.0447,-81.6237,0
Z33853,Origin-Lake Wales-FL,FL,USA,27.8946,-81.5282,0
Z33859,Origin-Lake Wales-FL,FL,USA,27.8854,-81.5229,0
Z33870,Origin-Sebring-FL,FL,USA,27.4839,-81.4212,0
Z33880,Origin-Winter Haven-FL,FL,USA,27.9973,-81.7455,0
Z33905,Origin-Fort Myers-FL,FL,USA,26.6804,-81.748,0
Z33913,Origin-Fort Myers-FL,FL,USA,26.5421,-81.6998,0
Z34109,Origin-Naples-FL,FL,USA,26.2407,-81.7666,0
Z34142,Origin-Immokalee-FL,FL,USA,26.3983,-81.3932,0
Z34143,Origin-Immokalee-FL,FL,USA,26.4643,-81.5046,0
Z34203,Origin-Bradenton-FL,FL,USA,27.4484,-82.5232,0
Z34208,Origin-Bradenton-FL,FL,USA,27.4865,-82.5349,0
Z34221,Origin-Palmetto-FL,FL,USA,27.5493,-82.5598,0
Z34238,Origin-Sarasota-FL,FL,USA,27.2406,-82.4783,0
Z34243,Origin-Sarasota-FL,FL,USA,27.4077,-82.5292,0
Z34475,Origin-Ocala-FL,FL,USA,29.2129,-82.1538,0
Z34604,Origin-Spring Hill-FL,FL,USA,28.4791,-82.4535,0
Z34689,Origin-Tarpon Springs-FL,FL,USA,28.1497,-82.7533,0
Z34698,Origin-Dunedin-FL,FL,USA,28.0254,-82.7753,0
Z34748,Origin-Leesburg-FL,FL,USA,28.7973,-81.8847,0
Z34758,Origin-Kissimmee-FL,FL,USA,28.1782,-81.4872,0
Z34761,Origin-Ocoee-FL,FL,USA,28.5747,-81.5294,0
Z34769,Origin-Saint Cloud-FL,FL,USA,28.2494,-81.2875,0
Z34787,Origin-Winter Garden-FL,FL,USA,28.5369,-81.5934,0
Z34951,Origin-Fort Pierce-FL,FL,USA,27.5384,-80.4052,0
Z34956,Origin-Indiantown-FL,FL,USA,27.0498,-80.4805,0
Z34957,Origin-Jensen Beach-FL,FL,USA,27.2485,-80.2327,0
Z34986,Origin-Port Saint Lucie-FL,FL,USA,27.3412,-80.3978,0
Z35004,Origin-Moody-AL,AL,USA,33.6065,-86.5025,0
Z35022,Origin-Bessemer-AL,AL,USA,33.3469,-86.9525,0
Z35040,Origin-Calera-AL,AL,USA,33.1076,-86.7499,0
Z35046,Origin-Clanton-AL,AL,USA,32.8944,-86.5649,0
Z35126,Origin-Pinson-AL,AL,USA,33.7286,-86.6604,0
Z35204,Origin-Birmingham-AL,AL,USA,33.5199,-86.8353,0
Z35205,Origin-Birmingham-AL,AL,USA,33.4971,-86.8056,0
Z35208,Origin-Birmingham-AL,AL,USA,33.4946,-86.8811,0
Z35211,Origin-Birmingham-AL,AL,USA,33.4794,-86.8587,0
Z35217,Origin-Birmingham-AL,AL,USA,33.59,-86.767,0
Z35233,Origin-Birmingham-AL,AL,USA,33.5097,-86.7997,0
Z35243,Origin-Birmingham-AL,AL,USA,33.4377,-86.7458,0
Z35401,Origin-Tuscaloosa-AL,AL,USA,33.1939,-87.5683,0
Z35443,Origin-Boligee-AL,AL,USA,32.7729,-88.032,0
Z35462,Origin-Eutaw-AL,AL,USA,32.9312,-87.9383,0
Z35470,Origin-Livingston-AL,AL,USA,32.559,-88.1248,0
Z35501,Origin-Jasper-AL,AL,USA,33.8285,-87.2763,0
Z35502,Origin-Jasper-AL,AL,USA,33.902,-87.2939,0
Z35601,Origin-Decatur-AL,AL,USA,34.5954,-86.9878,0
Z35654,Origin-Russellville-AL,AL,USA,34.5166,-87.6526,0
Z35752,Origin-Hollywood-AL,AL,USA,34.7453,-85.9473,0
Z35758,Origin-Madison-AL,AL,USA,34.7152,-86.7395,0
Z35905,Origin-Gadsden-AL,AL,USA,33.9421,-85.9399,0
Z35950,Origin-Albertville-AL,AL,USA,34.2619,-86.2283,0
Z35951,Origin-Albertville-AL,AL,USA,34.3131,-86.1928,0
Z35954,Origin-Attalla-AL,AL,USA,34.0433,-86.089,0
Z35971,Origin-Fyffe-AL,AL,USA,34.4578,-85.9277,0
Z35976,Origin-Guntersville-AL,AL,USA,34.3509,-86.3047,0
Z36010,Origin-Brundidge-AL,AL,USA,31.6784,-85.8242,0
Z36024,Origin-Eclectic-AL,AL,USA,32.6977,-86.0159,0
Z36032,Origin-Fort Deposit-AL,AL,USA,31.9844,-86.5708,0
Z36043,Origin-Hope Hull-AL,AL,USA,32.2238,-86.3979,0
Z36067,Origin-Prattville-AL,AL,USA,32.4882,-86.5296,0
Z36105,Origin-Montgomery-AL,AL,USA,32.3024,-86.305,0
Z36107,Origin-Montgomery-AL,AL,USA,32.3782,-86.279,0
Z36108,Destination-Montgomery-AL,AL,USA,32.3533,-86.3604,1
Z36109,Origin-Montgomery-AL,AL,USA,32.3862,-86.2451,0
Z36111,Origin-Montgomery-AL,AL,USA,32.3391,-86.2731,0
Z36117,Origin-Montgomery-AL,AL,USA,32.3738,-86.1644,0
Z36310,Origin-Abbeville-AL,AL,USA,31.5993,-85.2094,0
Z36330,Origin-Enterprise-AL,AL,USA,31.3258,-85.8411,0
Z36340,Origin-Geneva-AL,AL,USA,31.0435,-85.8794,0
Z36346,Origin-Jack-AL,AL,USA,31.5672,-85.931,0
Z36360,Origin-Ozark-AL,AL,USA,31.4471,-85.629,0
Z36401,Origin-Evergreen-AL,AL,USA,31.461,-86.9626,0
Z36460,Origin-Monroeville-AL,AL,USA,31.5091,-87.3241,0
Z36509,Origin-Bayou La Batre-AL,AL,USA,30.4014,-88.2466,0
Z36511,Origin-Bon Secour-AL,AL,USA,30.3124,-87.7347,0
Z36526,Origin-Daphne-AL,AL,USA,30.6206,-87.883,0
Z36551,Origin-Loxley-AL,AL,USA,30.6316,-87.753,0
Z36571,Origin-Saraland-AL,AL,USA,30.8317,-88.0938,0
Z36582,Origin-Theodore-AL,AL,USA,30.5338,-88.1686,0
Z36607,Origin-Mobile-AL,AL,USA,30.6996,-88.1047,0
Z36610,Origin-Mobile-AL,AL,USA,30.7374,-88.082,0
Z36615,Origin-Mobile-AL,AL,USA,30.6411,-88.0622,0
Z36786,Origin-Uniontown-AL,AL,USA,32.4409,-87.4965,0
Z36832,Origin-Auburn-AL,AL,USA,32.5896,-85.5399,0
Z36850,Origin-Camp Hill-AL,AL,USA,32.8,-85.6461,0
Z36869,Origin-Phenix City-AL,AL,USA,32.4331,-85.045,0
Z37013,Origin-Antioch-TN,TN,USA,36.0552,-86.6478,0
Z37066,Origin-Gallatin-TN,TN,USA,36.3891,-86.4548,0
Z37072,Origin-Goodlettsville-TN,TN,USA,36.3547,-86.7188,0
Z37086,Origin-La Vergne-TN,TN,USA,36.0134,-86.5626,0
Z37087,Origin-Lebanon-TN,TN,USA,36.2404,-86.2927,0
Z37090,Origin-Lebanon-TN,TN,USA,36.1475,-86.3106,0
Z37115,Origin-Madison-TN,TN,USA,36.2642,-86.7056,0
Z37122,Origin-Mount Juliet-TN,TN,USA,36.195,-86.4973,0
Z37127,Origin-Murfreesboro-TN,TN,USA,35.791,-86.3444,0
Z37129,Origin-Murfreesboro-TN,TN,USA,35.8967,-86.4242,0
Z37148,Origin-Portland-TN,TN,USA,36.5762,-86.5135,0
Z37160,Origin-Shelbyville-TN,TN,USA,35.4708,-86.4596,0
Z37167,Origin-Smyrna-TN,TN,USA,35.9686,-86.5222,0
Z37203,Origin-Nashville-TN,TN,USA,36.1526,-86.7892,0
Z37204,Origin-Nashville-TN,TN,USA,36.1121,-86.7762,0
Z37207,Origin-Nashville-TN,TN,USA,36.2156,-86.7732,0
Z37209,Origin-Nashville-TN,TN,USA,36.1513,-86.8559,0
Z37210,Origin-Nashville-TN,TN,USA,36.1409,-86.7444,0
Z37211,Origin-Nashville-TN,TN,USA,36.0793,-86.7258,0
Z37213,Origin-Nashville-TN,TN,USA,36.1673,-86.7677,0
Z37215,Origin-Nashville-TN,TN,USA,36.0984,-86.8252,0
Z37307,Origin-Benton-TN,TN,USA,35.1724,-84.639,0
Z37311,Origin-Cleveland-TN,TN,USA,35.1464,-84.8872,0
Z37312,Origin-Cleveland-TN,TN,USA,35.2196,-84.8649,0
Z37315,Origin-Collegedale-TN,TN,USA,35.0479,-85.0573,0
Z37404,Origin-Chattanooga-TN,TN,USA,35.0305,-85.2748,0
Z37405,Origin-Chattanooga-TN,TN,USA,35.0814,-85.319,0
Z37406,Origin-Chattanooga-TN,TN,USA,35.0658,-85.2501,0
Z37410,Origin-Chattanooga-TN,TN,USA,35.0024,-85.314,0
Z37416,Origin-Chattanooga-TN,TN,USA,35.0898,-85.1815,0
Z37421,Origin-Chattanooga-TN,TN,USA,35.0286,-85.1594,0
Z37601,Origin-Johnson City-TN,TN,USA,36.3311,-82.3386,0
Z37701,Destination-Alcoa-TN,TN,USA,35.7847,-83.9796,1
Z37725,Origin-Dandridge-TN,TN,USA,35.9965,-83.3978,0
Z37745,Origin-Greeneville-TN,TN,USA,36.23,-82.814,0
Z37764,Origin-Kodak-TN,TN,USA,35.9756,-83.6137,0
Z37771,Origin-Lenoir City-TN,TN,USA,35.8156,-84.2929,0
Z37777,Origin-Louisville-TN,TN,USA,35.8354,-84.0119,0
Z37813,Origin-Morristown-TN,TN,USA,36.186,-83.2747,0
Z37821,Origin-Newport-TN,TN,USA,35.9633,-83.2011,0
Z37849,Origin-Powell-TN,TN,USA,36.0446,-84.0419,0
Z37885,Origin-Vonore-TN,TN,USA,35.5434,-84.1933,0
Z37902,Origin-Knoxville-TN,TN,USA,35.9641,-83.9196,0
Z37914,Origin-Knoxville-TN,TN,USA,35.9885,-83.8498,0
Z37918,Origin-Knoxville-TN,TN,USA,36.0466,-83.925,0
Z37919,Origin-Knoxville-TN,TN,USA,35.9229,-84.0038,0
Z37921,Origin-Knoxville-TN,TN,USA,35.9737,-83.9741,0
Z37931,Origin-Knoxville-TN,TN,USA,35.9762,-84.1181,0
Z38006,Origin-Bells-TN,TN,USA,35.6967,-89.0845,0
Z38012,Origin-Brownsville-TN,TN,USA,35.5906,-89.2608,0
Z38017,Origin-Collierville-TN,TN,USA,35.0572,-89.6742,0
Z38059,Origin-Newbern-TN,TN,USA,36.1149,-89.2541,0
Z38106,Origin-Memphis-TN,TN,USA,35.1031,-90.0401,0
Z38112,Origin-Memphis-TN,TN,USA,35.1486,-89.9747,0
Z38113,Origin-Memphis-TN,TN,USA,35.1274,-89.9845,0
Z38114,Origin-Memphis-TN,TN,USA,35.1016,-89.9853,0
Z38116,Origin-Memphis-TN,TN,USA,35.0332,-90.0113,0
Z38118,Origin-Memphis-TN,TN,USA,35.0485,-89.9242,0
Z38122,Origin-Memphis-TN,TN,USA,35.1556,-89.9231,0
Z38126,Origin-Memphis-TN,TN,USA,35.1265,-90.0435,0
Z38141,Destination-Memphis-TN,TN,USA,35.0169,-89.847,1
Z38242,Origin-Paris-TN,TN,USA,36.3003,-88.3288,0
Z38261,Origin-Union City-TN,TN,USA,36.427,-89.0726,0
Z38351,Origin-Lexington-TN,TN,USA,35.6585,-88.4053,0
Z38372,Origin-Savannah-TN,TN,USA,35.181,-88.1894,0
Z38501,Origin-Cookeville-TN,TN,USA,36.1832,-85.5205,0
Z38555,Origin-Crossville-TN,TN,USA,35.9294,-85.0592,0
Z38574,Origin-Monterey-TN,TN,USA,36.134,-85.238,0
Z38637,Origin-Horn Lake-MS,MS,USA,34.9592,-90.0409,0
Z38652,Origin-New Albany-MS,MS,USA,34.4892,-88.9997,0
Z38654,Origin-Olive Branch-MS,MS,USA,34.9541,-89.8374,0
Z38671,Origin-Southaven-MS,MS,USA,34.9685,-89.9979,0
Z38701,Origin-Greenville-MS,MS,USA,33.3805,-91.0518,0
Z38703,Origin-Greenville-MS,MS,USA,33.4428,-91.0298,0
Z38754,Origin-Isola-MS,MS,USA,33.2317,-90.5858,0
Z38756,Origin-Leland-MS,MS,USA,33.4073,-90.8787,0
Z38804,Origin-Tupelo-MS,MS,USA,34.2724,-88.6822,0
Z38863,Origin-Pontotoc-MS,MS,USA,34.2364,-89.0042,0
Z38941,Origin-Itta Bena-MS,MS,USA,33.4925,-90.3243,0
Z39040,Origin-Bentonia-MS,MS,USA,32.64,-90.4085,0
Z39042,Origin-Brandon-MS,MS,USA,32.2378,-89.9351,0
Z39046,Origin-Canton-MS,MS,USA,32.6186,-90.0104,0
Z39066,Origin-Edwards-MS,MS,USA,32.2952,-90.6028,0
Z39073,Origin-Florence-MS,MS,USA,32.1257,-90.1096,0
Z39074,Origin-Forest-MS,MS,USA,32.3798,-89.4655,0
Z39083,Origin-Hazlehurst-MS,MS,USA,31.8413,-90.4299,0
Z39090,Origin-Kosciusko-MS,MS,USA,33.0382,-89.5631,0
Z39111,Origin-Magee-MS,MS,USA,31.8803,-89.7209,0
Z39117,Origin-Morton-MS,MS,USA,32.3139,-89.6651,0
Z39157,Origin-Ridgeland-MS,MS,USA,32.4208,-90.1313,0
Z39180,Origin-Vicksburg-MS,MS,USA,32.2928,-90.8718,0
Z39194,Origin-Yazoo City-MS,MS,USA,32.8559,-90.4496,0
Z39206,Origin-Jackson-MS,MS,USA,32.3658,-90.1718,0
Z39207,Origin-Jackson-MS,MS,USA,32.3113,-90.3971,0
Z39208,Origin-Jackson-MS,MS,USA,32.2808,-90.107,0
Z39209,Origin-Jackson-MS,MS,USA,32.3256,-90.257,0
Z39218,Origin-Jackson-MS,MS,USA,32.2305,-90.1621,0
Z39288,Destination-Jackson-MS,MS,USA,32.3132,-89.7995,1
Z39341,Origin-Macon-MS,MS,USA,33.1157,-88.5815,0
Z39350,Origin-Philadelphia-MS,MS,USA,32.7764,-89.1279,0
Z39401,Origin-Hattiesburg-MS,MS,USA,31.2855,-89.2798,0
Z39428,Origin-Collins-MS,MS,USA,31.6515,-89.5652,0
Z39440,Origin-Laurel-MS,MS,USA,31.7015,-89.1392,0
Z39530,Origin-Biloxi-MS,MS,USA,30.3992,-88.8891,0
Z39701,Origin-Columbus-MS,MS,USA,33.4922,-88.4374,0
Z40004,Origin-Bardstown-KY,KY,USA,37.8111,-85.4616,0
Z40008,Origin-Bloomfield-KY,KY,USA,37.9238,-85.2825,0
Z40165,Origin-Shepherdsville-KY,KY,USA,37.9979,-85.6966,0
Z40203,Origin-Louisville-KY,KY,USA,38.2482,-85.7665,0
Z40206,Origin-Louisville-KY,KY,USA,38.2547,-85.7025,0
Z40208,Origin-Louisville-KY,KY,USA,38.2188,-85.7623,0
Z40214,Origin-Louisville-KY,KY,USA,38.161,-85.7762,0
Z40216,Origin-Louisville-KY,KY,USA,38.189,-85.8313,0
Z40218,Origin-Louisville-KY,KY,USA,38.1939,-85.6572,0
Z40232,Origin-Louisville-KY,KY,USA,38.1891,-85.6768,0
Z40245,Origin-Louisville-KY,KY,USA,38.2709,-85.4831,0
Z40258,Origin-Louisville-KY,KY,USA,38.1417,-85.8637,0
Z40299,Origin-Louisville-KY,KY,USA,38.1906,-85.5534,0
Z40347,Origin-Midway-KY,KY,USA,38.1538,-84.7092,0
Z40906,Origin-Barbourville-KY,KY,USA,36.854,-83.885,0
Z41011,Origin-Covington-KY,KY,USA,39.0752,-84.5206,0
Z41042,Origin-Florence-KY,KY,USA,38.9839,-84.644,0
Z41076,Origin-Newport-KY,KY,USA,39.0193,-84.442,0
Z41094,Origin-Walton-KY,KY,USA,38.8787,-84.6255,0
Z41102,Origin-Ashland-KY,KY,USA,38.4396,-82.6932,0
Z42001,Destination-Paducah-KY,KY,USA,37.0666,-88.6568,1
Z42003,Origin-Paducah-KY,KY,USA,37.0443,-88.5904,0
Z42051,Origin-Hickory-KY,KY,USA,36.8524,-88.6376,0
Z42071,Origin-Murray-KY,KY,USA,36.6175,-88.2874,0
Z42102,Origin-Bowling Green-KY,KY,USA,36.9224,-86.3869,0
Z42103,Origin-Bowling Green-KY,KY,USA,36.9698,-86.3824,0
Z42240,Origin-Hopkinsville-KY,KY,USA,36.8669,-87.4762,0
Z42301,Origin-Owensboro-KY,KY,USA,37.7534,-87.1742,0
Z42420,Origin-Henderson-KY,KY,USA,37.8252,-87.5605,0
Z42503,Origin-Somerset-KY,KY,USA,37.1123,-84.588,0
Z42749,Origin-Horse Cave-KY,KY,USA,37.1768,-85.8829,0
Z43013,Origin-Croton-OH,OH,USA,40.2355,-82.6904,0
Z43025,Origin-Hebron-OH,OH,USA,39.9589,-82.4988,0
Z43026,Origin-Hilliard-OH,OH,USA,40.0217,-83.1475,0
Z43031,Origin-Johnstown-OH,OH,USA,40.152,-82.6694,0
Z43064,Origin-Plain City-OH,OH,USA,40.1032,-83.2682,0
Z43123,Origin-Grove City-OH,OH,USA,39.8863,-83.0798,0
Z43130,Origin-Lancaster-OH,OH,USA,39.713,-82.6121,0
Z43138,Origin-Logan-OH,OH,USA,39.5311,-82.408,0
Z43162,Origin-West Jefferson-OH,OH,USA,39.9396,-83.289,0
Z43204,Origin-Columbus-OH,OH,USA,39.9585,-83.0822,0
Z43207,Origin-Columbus-OH,OH,USA,39.8977,-82.9696,0
Z43213,Origin-Columbus-OH,OH,USA,39.9669,-82.8741,0
Z43214,Origin-Columbus-OH,OH,USA,40.0531,-83.0188,0
Z43217,Origin-Columbus-OH,OH,USA,39.8248,-82.9438,0
Z43219,Origin-Columbus-OH,OH,USA,40.0025,-82.9258,0
Z43223,Origin-Columbus-OH,OH,USA,39.9353,-83.0455,0
Z43228,Origin-Columbus-OH,OH,USA,39.9544,-83.1229,0
Z43229,Origin-Columbus-OH,OH,USA,40.0854,-82.9733,0
Z43230,Origin-Columbus-OH,OH,USA,40.04,-82.8785,0
Z43232,Origin-Columbus-OH,OH,USA,39.9243,-82.8655,0
Z43302,Origin-Marion-OH,OH,USA,40.5898,-83.1217,0
Z43314,Origin-Caledonia-OH,OH,USA,40.6426,-82.9615,0
Z43326,Origin-Kenton-OH,OH,USA,40.6423,-83.6057,0
Z43402,Origin-Bowling Green-OH,OH,USA,41.3886,-83.6579,0
Z43420,Origin-Fremont-OH,OH,USA,41.3532,-83.1122,0
Z43512,Origin-Defiance-OH,OH,USA,41.2904,-84.3653,0
Z43537,Origin-Maumee-OH,OH,USA,41.5771,-83.672,0
Z43545,Origin-Napoleon-OH,OH,USA,41.3884,-84.1251,0
Z43551,Origin-Perrysburg-OH,OH,USA,41.5408,-83.589,0
Z43605,Origin-Toledo-OH,OH,USA,41.6426,-83.5103,0
Z43612,Origin-Toledo-OH,OH,USA,41.706,-83.5577,0
Z43619,Origin-Northwood-OH,OH,USA,41.6074,-83.4832,0
Z43623,Origin-Toledo-OH,OH,USA,41.7077,-83.6436,0
Z43701,Origin-Zanesville-OH,OH,USA,39.9494,-82.0049,0
Z43762,Origin-New Concord-OH,OH,USA,40.019,-81.7365,0
Z44077,Origin-Painesville-OH,OH,USA,41.7161,-81.2396,0
Z44087,Destination-Twinsburg-OH,OH,USA,41.3148,-81.4443,1
Z44102,Origin-Cleveland-OH,OH,USA,41.4735,-81.7357,0
Z44103,Origin-Cleveland-OH,OH,USA,41.5138,-81.6428,0
Z44104,Origin-Cleveland-OH,OH,USA,41.484,-81.627,0
Z44111,Origin-Cleveland-OH,OH,USA,41.4595,-81.7816,0
Z44113,Origin-Cleveland-OH,OH,USA,41.4847,-81.7012,0
Z44115,Origin-Cleveland-OH,OH,USA,41.4936,-81.6712,0
Z44127,Origin-Cleveland-OH,OH,USA,41.47,-81.6501,0
Z44128,Origin-Cleveland-OH,OH,USA,41.4412,-81.5518,0
Z44131,Origin-Independence-OH,OH,USA,41.3918,-81.6581,0
Z44135,Origin-Cleveland-OH,OH,USA,41.4322,-81.8046,0
Z44137,Origin-Maple Heights-OH,OH,USA,41.4127,-81.5606,0
Z44139,Origin-Solon-OH,OH,USA,41.3884,-81.4436,0
Z44142,Origin-Brookpark-OH,OH,USA,41.4004,-81.8205,0
Z44145,Origin-Westlake-OH,OH,USA,41.4545,-81.9286,0
Z44146,Origin-Bedford-OH,OH,USA,41.3895,-81.5271,0
Z44217,Origin-Creston-OH,OH,USA,40.9769,-81.9062,0
Z44223,Origin-Cuyahoga Falls-OH,OH,USA,41.1486,-81.5124,0
Z44234,Origin-Hiram-OH,OH,USA,41.3372,-81.167,0
Z44241,Origin-Streetsboro-OH,OH,USA,41.2495,-81.344,0
Z44256,Origin-Medina-OH,OH,USA,41.1399,-81.8565,0
Z44260,Origin-Mogadore-OH,OH,USA,41.0432,-81.3652,0
Z44270,Origin-Rittman-OH,OH,USA,40.9718,-81.7793,0
Z44278,Origin-Tallmadge-OH,OH,USA,41.0932,-81.4268,0
Z44303,Origin-Akron-OH,OH,USA,41.1032,-81.5362,0
Z44305,Origin-Akron-OH,OH,USA,41.0737,-81.4628,0
Z44310,Origin-Akron-OH,OH,USA,41.1077,-81.5008,0
Z44314,Origin-Akron-OH,OH,USA,41.0402,-81.5591,0
Z44319,Origin-Akron-OH,OH,USA,40.9909,-81.5295,0
Z44320,Origin-Akron-OH,OH,USA,41.0832,-81.5701,0
Z44333,Origin-Akron-OH,OH,USA,41.1447,-81.6194,0
Z44420,Origin-Girard-OH,OH,USA,41.1608,-80.6929,0
Z44425,Origin-Hubbard-OH,OH,USA,41.1668,-80.5772,0
Z44460,Origin-Salem-OH,OH,USA,40.8987,-80.8609,0
Z44483,Origin-Warren-OH,OH,USA,41.2528,-80.8077,0
Z44484,Origin-Warren-OH,OH,USA,41.227,-80.7647,0
Z44502,Origin-Youngstown-OH,OH,USA,41.0863,-80.6456,0
Z44512,Origin-Youngstown-OH,OH,USA,41.0328,-80.6646,0
Z44601,Origin-Alliance-OH,OH,USA,40.918,-81.1164,0
Z44614,Origin-Canal Fulton-OH,OH,USA,40.8868,-81.5832,0
Z44641,Origin-Louisville-OH,OH,USA,40.8437,-81.2629,0
Z44646,Origin-Massillon-OH,OH,USA,40.8052,-81.501,0
Z44647,Origin-Massillon-OH,OH,USA,40.794,-81.5525,0
Z44662,Origin-Navarre-OH,OH,USA,40.7229,-81.5407,0
Z44690,Origin-Winesburg-OH,OH,USA,40.6167,-81.6953,0
Z44702,Origin-Canton-OH,OH,USA,40.7989,-81.375,0
Z44711,Origin-Canton-OH,OH,USA,40.8119,-81.3682,0
Z44720,Origin-Canton-OH,OH,USA,40.8884,-81.4106,0
Z44805,Origin-Ashland-OH,OH,USA,40.867,-82.3151,0
Z44820,Origin-Bucyrus-OH,OH,USA,40.8153,-82.9708,0
Z44839,Origin-Huron-OH,OH,USA,41.3886,-82.5568,0
Z44875,Origin-Shelby-OH,OH,USA,40.889,-82.656,0
Z44883,Origin-Tiffin-OH,OH,USA,41.1208,-83.1765,0
Z45005,Origin-Franklin-OH,OH,USA,39.5503,-84.3087,0
Z45011,Origin-Hamilton-OH,OH,USA,39.4049,-84.5226,0
Z45014,Origin-Fairfield-OH,OH,USA,39.3305,-84.5528,0
Z45030,Origin-Harrison-OH,OH,USA,39.258,-84.7699,0
Z45040,Origin-Mason-OH,OH,USA,39.3443,-84.3152,0
Z45050,Origin-Monroe-OH,OH,USA,39.441,-84.3658,0
Z45066,Origin-Springboro-OH,OH,USA,39.5572,-84.2269,0
Z45069,Origin-West Chester-OH,OH,USA,39.3438,-84.4025,0
Z45103,Origin-Batavia-OH,OH,USA,39.083,-84.1531,0
Z45150,Origin-Milford-OH,OH,USA,39.1689,-84.2499,0
Z45203,Origin-Cincinnati-OH,OH,USA,39.1042,-84.5306,0
Z45214,Origin-Cincinnati-OH,OH,USA,39.1206,-84.5358,0
Z45215,Origin-Cincinnati-OH,OH,USA,39.2289,-84.4571,0
Z45217,Origin-Cincinnati-OH,OH,USA,39.167,-84.4951,0
Z45223,Origin-Cincinnati-OH,OH,USA,39.1619,-84.5425,0
Z45227,Origin-Cincinnati-OH,OH,USA,39.1521,-84.3835,0
Z45229,Origin-Cincinnati-OH,OH,USA,39.1522,-84.4889,0
Z45232,Origin-Cincinnati-OH,OH,USA,39.1734,-84.5129,0
Z45237,Origin-Cincinnati-OH,OH,USA,39.1889,-84.4579,0
Z45240,Origin-Cincinnati-OH,OH,USA,39.2849,-84.5294,0
Z45241,Origin-Cincinnati-OH,OH,USA,39.2763,-84.3931,0
Z45246,Destination-Cincinnati-OH,OH,USA,39.2886,-84.4737,1
Z45315,Origin-Clayton-OH,OH,USA,39.8538,-84.3412,0
Z45320,Origin-Eaton-OH,OH,USA,39.7394,-84.6539,0
Z45322,Origin-Englewood-OH,OH,USA,39.8778,-84.31,0
Z45348,Origin-New Weston-OH,OH,USA,40.3328,-84.6501,0
Z45365,Origin-Sidney-OH,OH,USA,40.2849,-84.1597,0
Z45371,Origin-Tipp City-OH,OH,USA,39.9543,-84.1768,0
Z45380,Origin-Versailles-OH,OH,USA,40.2318,-84.4993,0
Z45414,Origin-Dayton-OH,OH,USA,39.8208,-84.1937,0
Z45426,Origin-Dayton-OH,OH,USA,39.8027,-84.3019,0
Z45429,Origin-Dayton-OH,OH,USA,39.6875,-84.1559,0
Z45502,Origin-Springfield-OH,OH,USA,39.9267,-83.8127,0
Z45504,Origin-Springfield-OH,OH,USA,39.9419,-83.837,0
Z45505,Origin-Springfield-OH,OH,USA,39.9109,-83.7858,0
Z45601,Origin-Chillicothe-OH,OH,USA,39.3305,-82.9722,0
Z45620,Origin-Cheshire-OH,OH,USA,38.9433,-82.1358,0
Z45640,Origin-Jackson-OH,OH,USA,39.0343,-82.6368,0
Z45750,Origin-Marietta-OH,OH,USA,39.4266,-81.4437,0
Z45804,Origin-Lima-OH,OH,USA,40.7226,-84.0897,0
Z45817,Origin-Bluffton-OH,OH,USA,40.8868,-83.8925,0
Z45891,Origin-Van Wert-OH,OH,USA,40.8742,-84.5787,0
Z46001,Origin-Alexandria-IN,IN,USA,40.2571,-85.6729,0
Z46012,Origin-Anderson-IN,IN,USA,40.133,-85.6509,0
Z46036,Origin-Elwood-IN,IN,USA,40.2794,-85.8376,0
Z46038,Destination-Fishers-IN,IN,USA,39.9565,-86.0087,1
Z46041,Origin-Frankfort-IN,IN,USA,40.2907,-86.5028,0
Z46052,Origin-Lebanon-IN,IN,USA,40.048,-86.4658,0
Z46063,Origin-Orestes-IN,IN,USA,40.2705,-85.7287,0
Z46064,Origin-Pendleton-IN,IN,USA,39.9978,-85.7507,0
Z46123,Origin-Avon-IN,IN,USA,39.7644,-86.3969,0
Z46140,Origin-Greenfield-IN,IN,USA,39.7992,-85.7844,0
Z46168,Origin-Plainfield-IN,IN,USA,39.6978,-86.3958,0
Z46202,Origin-Indianapolis-IN,IN,USA,39.7828,-86.1567,0
Z46203,Origin-Indianapolis-IN,IN,USA,39.7426,-86.1176,0
Z46214,Origin-Indianapolis-IN,IN,USA,39.793,-86.2857,0
Z46222,Origin-Indianapolis-IN,IN,USA,39.7869,-86.2108,0
Z46225,Origin-Indianapolis-IN,IN,USA,39.7471,-86.1589,0
Z46229,Origin-Indianapolis-IN,IN,USA,39.7951,-85.9735,0
Z46231,Origin-Indianapolis-IN,IN,USA,39.7197,-86.3312,0
Z46239,Origin-Indianapolis-IN,IN,USA,39.733,-85.9989,0
Z46241,Origin-Indianapolis-IN,IN,USA,39.7369,-86.2521,0
Z46268,Origin-Indianapolis-IN,IN,USA,39.8976,-86.2254,0
Z46278,Origin-Indianapolis-IN,IN,USA,39.8979,-86.2861,0
Z46321,Origin-Munster-IN,IN,USA,41.5515,-87.5014,0
Z46342,Origin-Hobart-IN,IN,USA,41.5338,-87.264,0
Z46350,Origin-La Porte-IN,IN,USA,41.6058,-86.7198,0
Z46401,Origin-Gary-IN,IN,USA,41.5907,-87.3199,0
Z46507,Origin-Bristol-IN,IN,USA,41.7251,-85.8178,0
Z46540,Origin-Middlebury-IN,IN,USA,41.6854,-85.6941,0
Z46563,Origin-Plymouth-IN,IN,USA,41.3472,-86.3201,0
Z46580,Origin-Warsaw-IN,IN,USA,41.2282,-85.8577,0
Z46714,Origin-Bluffton-IN,IN,USA,40.7288,-85.1656,0
Z46733,Origin-Decatur-IN,IN,USA,40.8314,-84.937,0
Z46740,Origin-Geneva-IN,IN,USA,40.5999,-84.9685,0
Z46785,Origin-Saint Joe-IN,IN,USA,41.318,-84.893,0
Z46801,Origin-Fort Wayne-IN,IN,USA,41.0938,-85.0707,0
Z46804,Origin-Fort Wayne-IN,IN,USA,41.0543,-85.2387,0
Z46806,Origin-Fort Wayne-IN,IN,USA,41.0482,-85.1111,0
Z46809,Origin-Fort Wayne-IN,IN,USA,41.0232,-85.1826,0
Z46818,Origin-Fort Wayne-IN,IN,USA,41.1483,-85.2215,0
Z46923,Origin-Delphi-IN,IN,USA,40.5977,-86.653,0
Z46975,Origin-Rochester-IN,IN,USA,41.0737,-86.2352,0
Z47025,Origin-Lawrenceburg-IN,IN,USA,39.1291,-84.8588,0
Z47130,Origin-Jeffersonville-IN,IN,USA,38.3091,-85.7203,0
Z47170,Origin-Scottsburg-IN,IN,USA,38.6845,-85.803,0
Z47302,Origin-Muncie-IN,IN,USA,40.1645,-85.3811,0
Z47327,Origin-Cambridge City-IN,IN,USA,39.8168,-85.1778,0
Z47374,Origin-Richmond-IN,IN,USA,39.8311,-84.8906,0
Z47384,Origin-Shirley-IN,IN,USA,39.9096,-85.5671,0
Z47394,Origin-Winchester-IN,IN,USA,40.1732,-84.9792,0
Z47404,Origin-Bloomington-IN,IN,USA,39.1883,-86.5677,0
Z47424,Origin-Bloomfield-IN,IN,USA,39.0217,-86.902,0
Z47591,Origin-Vincennes-IN,IN,USA,38.6688,-87.5079,0
Z47601,Origin-Boonville-IN,IN,USA,38.0573,-87.2658,0
Z47635,Origin-Rockport-IN,IN,USA,37.8835,-87.0977,0
Z47710,Origin-Evansville-IN,IN,USA,37.9996,-87.5761,0
Z47725,Origin-Evansville-IN,IN,USA,38.0968,-87.521,0
Z47951,Origin-Kentland-IN,IN,USA,40.7776,-87.4461,0
Z48021,Origin-Eastpointe-MI,MI,USA,42.4662,-82.9464,0
Z48034,Origin-Southfield-MI,MI,USA,42.4743,-83.2907,0
Z48045,Origin-Harrison Township-MI,MI,USA,42.583,-82.8306,0
Z48066,Origin-Roseville-MI,MI,USA,42.5033,-82.9384,0
Z48073,Origin-Royal Oak-MI,MI,USA,42.5186,-83.1635,0
Z48079,Origin-Saint Clair-MI,MI,USA,42.8331,-82.5042,0
Z48083,Origin-Troy-MI,MI,USA,42.557,-83.115,0
Z48091,Origin-Warren-MI,MI,USA,42.4659,-83.0559,0
Z48116,Origin-Brighton-MI,MI,USA,42.5095,-83.7771,0
Z48120,Origin-Dearborn-MI,MI,USA,42.3064,-83.1586,0
Z48122,Origin-Melvindale-MI,MI,USA,42.2817,-83.1818,0
Z48126,Origin-Dearborn-MI,MI,USA,42.3338,-83.1817,0
Z48150,Origin-Livonia-MI,MI,USA,42.366,-83.3651,0
Z48154,Origin-Livonia-MI,MI,USA,42.3962,-83.3715,0
Z48164,Origin-New Boston-MI,MI,USA,42.1281,-83.3878,0
Z48170,Origin-Plymouth-MI,MI,USA,42.3709,-83.4856,0
Z48174,Origin-Romulus-MI,MI,USA,42.2124,-83.3722,0
Z48180,Origin-Taylor-MI,MI,USA,42.2318,-83.2648,0
Z48187,Origin-Canton-MI,MI,USA,42.3309,-83.4757,0
Z48188,Origin-Canton-MI,MI,USA,42.2894,-83.4739,0
Z48203,Origin-Highland Park-MI,MI,USA,42.422,-83.0998,0
Z48207,Origin-Detroit-MI,MI,USA,42.3529,-83.0245,0
Z48210,Origin-Detroit-MI,MI,USA,42.3382,-83.1278,0
Z48211,Origin-Detroit-MI,MI,USA,42.3791,-83.0448,0
Z48212,Origin-Hamtramck-MI,MI,USA,42.4101,-83.0582,0
Z48213,Origin-Detroit-MI,MI,USA,42.396,-82.9963,0
Z48216,Origin-Detroit-MI,MI,USA,42.3284,-83.078,0
Z48217,Origin-Detroit-MI,MI,USA,42.2778,-83.1551,0
Z48237,Origin-Oak Park-MI,MI,USA,42.4673,-83.1795,0
Z48238,Origin-Detroit-MI,MI,USA,42.3968,-83.1415,0
Z48331,Origin-Farmington-MI,MI,USA,42.5088,-83.4087,0
Z48393,Destination-Wixom-MI,MI,USA,42.5323,-83.5337,1
Z48430,Origin-Fenton-MI,MI,USA,42.7847,-83.7407,0
Z48450,Origin-Lexington-MI,MI,USA,43.2439,-82.527,0
Z48532,Origin-Flint-MI,MI,USA,43.0055,-83.761,0
Z48601,Origin-Saginaw-MI,MI,USA,43.414,-83.9142,0
Z48650,Origin-Pinconning-MI,MI,USA,43.8513,-83.979,0
Z48726,Origin-Cass City-MI,MI,USA,43.6049,-83.1788,0
Z48843,Origin-Howell-MI,MI,USA,42.6122,-83.9183,0
Z48849,Origin-Lake Odessa-MI,MI,USA,42.7882,-85.1356,0
Z48854,Origin-Mason-MI,MI,USA,42.583,-84.4473,0
Z48881,Origin-Saranac-MI,MI,USA,42.9299,-85.2094,0
Z48895,Origin-Williamston-MI,MI,USA,42.6868,-84.2784,0
Z48911,Origin-Lansing-MI,MI,USA,42.6774,-84.5691,0
Z49001,Origin-Kalamazoo-MI,MI,USA,42.2789,-85.551,0
Z49007,Origin-Kalamazoo-MI,MI,USA,42.2972,-85.5857,0
Z49009,Origin-Kalamazoo-MI,MI,USA,42.2726,-85.6925,0
Z49022,Origin-Benton Harbor-MI,MI,USA,42.1081,-86.4179,0
Z49038,Origin-Coloma-MI,MI,USA,42.2094,-86.3337,0
Z49057,Origin-Hartford-MI,MI,USA,42.1992,-86.1694,0
Z49065,Origin-Lawton-MI,MI,USA,42.1441,-85.842,0
Z49068,Origin-Marshall-MI,MI,USA,42.2779,-84.9487,0
Z49079,Origin-Paw Paw-MI,MI,USA,42.2252,-85.9,0
Z49099,Origin-White Pigeon-MI,MI,USA,41.7927,-85.6723,0
Z49203,Origin-Jackson-MI,MI,USA,42.2276,-84.4091,0
Z49236,Origin-Clinton-MI,MI,USA,42.0678,-83.9577,0
Z49265,Origin-Onsted-MI,MI,USA,42.0202,-84.168,0
Z49301,Origin-Ada-MI,MI,USA,42.9726,-85.4779,0
Z49331,Origin-Lowell-MI,MI,USA,42.9449,-85.3493,0
Z49346,Origin-Stanwood-MI,MI,USA,43.5873,-85.3783,0
Z49401,Origin-Allendale-MI,MI,USA,42.9737,-85.9317,0
Z49420,Origin-Hart-MI,MI,USA,43.7081,-86.306,0
Z49423,Origin-Holland-MI,MI,USA,42.766,-86.1053,0
Z49426,Origin-Hudsonville-MI,MI,USA,42.8733,-85.8786,0
Z49431,Origin-Ludington-MI,MI,USA,43.9673,-86.4304,0
Z49441,Origin-Muskegon-MI,MI,USA,43.1994,-86.2668,0
Z49446,Origin-New Era-MI,MI,USA,43.5518,-86.4026,0
Z49455,Origin-Shelby-MI,MI,USA,43.6076,-86.37,0
Z49504,Origin-Grand Rapids-MI,MI,USA,42.978,-85.6973,0
Z49505,Origin-Grand Rapids-MI,MI,USA,43.0002,-85.6478,0
Z49509,Origin-Grand Rapids-MI,MI,USA,42.9059,-85.7038,0
Z49512,Origin-Grand Rapids-MI,MI,USA,42.8888,-85.5616,0
Z49548,Origin-Grand Rapids-MI,MI,USA,42.8683,-85.6639,0
Z49637,Origin-Grawn-MI,MI,USA,44.6477,-85.7065,0
Z49686,Origin-Traverse City-MI,MI,USA,44.7356,-85.545,0
Z50009,Origin-Altoona-IA,IA,USA,41.6448,-93.4663,0
Z50010,Origin-Ames-IA,IA,USA,42.0294,-93.6096,0
Z50021,Origin-Ankeny-IA,IA,USA,41.7253,-93.6047,0
Z50035,Origin-Bondurant-IA,IA,USA,41.7045,-93.4616,0
Z50047,Origin-Carlisle-IA,IA,USA,41.4911,-93.4806,0
Z50201,Origin-Nevada-IA,IA,USA,42.026,-93.4484,0
Z50208,Origin-Newton-IA,IA,USA,41.7022,-93.0446,0
Z50211,Origin-Norwalk-IA,IA,USA,41.4708,-93.6822,0
Z50213,Origin-Osceola-IA,IA,USA,41.0313,-93.77,0
Z50265,Origin-West Des Moines-IA,IA,USA,41.5709,-93.7356,0
Z50273,Origin-Winterset-IA,IA,USA,41.3327,-94.0379,0
Z50303,Origin-Des Moines-IA,IA,USA,41.6728,-93.5721,0
Z50313,Origin-Des Moines-IA,IA,USA,41.6376,-93.6163,0
Z50316,Origin-Des Moines-IA,IA,USA,41.6064,-93.5982,0
Z50321,Origin-Des Moines-IA,IA,USA,41.5429,-93.6618,0
Z50322,Origin-Urbandale-IA,IA,USA,41.6305,-93.7237,0
Z50439,Origin-Goodell-IA,IA,USA,42.9303,-93.6264,0
Z50501,Origin-Fort Dodge-IA,IA,USA,42.4993,-94.1825,0
Z50548,Origin-Humboldt-IA,IA,USA,42.7203,-94.2251,0
Z50643,Origin-Hudson-IA,IA,USA,42.3773,-92.4651,0
Z51031,Origin-Le Mars-IA,IA,USA,42.7973,-96.1716,0
Z51106,Origin-Sioux City-IA,IA,USA,42.4664,-96.3529,0
Z51108,Origin-Sioux City-IA,IA,USA,42.555,-96.3614,0
Z51111,Origin-Sioux City-IA,IA,USA,42.4064,-96.3761,0
Z52001,Origin-Dubuque-IA,IA,USA,42.5153,-90.6794,0
Z52241,Destination-Coralville-IA,IA,USA,41.6882,-91.5867,1
Z52244,Origin-Iowa City-IA,IA,USA,41.5727,-91.6619,0
Z52317,Origin-North Liberty-IA,IA,USA,41.7558,-91.6123,0
Z52501,Origin-Ottumwa-IA,IA,USA,41.0239,-92.4173,0
Z52627,Origin-Fort Madison-IA,IA,USA,40.6378,-91.3386,0
Z52722,Origin-Bettendorf-IA,IA,USA,41.5519,-90.4897,0
Z52730,Origin-Camanche-IA,IA,USA,41.7806,-90.2887,0
Z52748,Origin-Eldridge-IA,IA,USA,41.6591,-90.5686,0
Z52761,Origin-Muscatine-IL,IL,USA,41.4135,-91.006,0
Z53004,Origin-Belgium-WI,WI,USA,43.499,-87.8621,0
Z53014,Origin-Chilton-WI,WI,USA,44.0333,-88.1762,0
Z53018,Origin-Delafield-WI,WI,USA,43.0535,-88.3984,0
Z53022,Origin-Germantown-WI,WI,USA,43.2192,-88.1204,0
Z53037,Origin-Jackson-WI,WI,USA,43.3223,-88.1701,0
Z53050,Origin-Mayville-WI,WI,USA,43.4995,-88.539,0
Z53051,Destination-Menomonee Falls-WI,WI,USA,43.1513,-88.1103,1
Z53073,Origin-Plymouth-WI,WI,USA,43.7587,-87.9799,0
Z53075,Origin-Random Lake-WI,WI,USA,43.5645,-87.9908,0
Z53081,Origin-Sheboygan-WI,WI,USA,43.7362,-87.7289,0
Z53089,Origin-Sussex-WI,WI,USA,43.1401,-88.2264,0
Z53090,Origin-West Bend-WI,WI,USA,43.4467,-88.1787,0
Z53091,Origin-Theresa-WI,WI,USA,43.5027,-88.4329,0
Z53105,Origin-Burlington-WI,WI,USA,42.6627,-88.2812,0
Z53110,Origin-Cudahy-WI,WI,USA,42.9485,-87.861,0
Z53114,Origin-Darien-WI,WI,USA,42.6003,-88.7497,0
Z53126,Origin-Franksville-WI,WI,USA,42.7787,-87.966,0
Z53132,Origin-Franklin-WI,WI,USA,42.8962,-88.0088,0
Z53140,Origin-Kenosha-WI,WI,USA,42.6022,-87.8297,0
Z53141,Origin-Kenosha-WI,WI,USA,42.581,-87.6629,0
Z53144,Origin-Kenosha-WI,WI,USA,42.6019,-87.8761,0
Z53154,Origin-Oak Creek-WI,WI,USA,42.8844,-87.8992,0
Z53158,Origin-Pleasant Prairie-WI,WI,USA,42.5291,-87.872,0
Z53177,Origin-Sturtevant-WI,WI,USA,42.6993,-87.9169,0
Z53186,Origin-Waukesha-WI,WI,USA,43.0153,-88.2091,0
Z53188,Origin-Waukesha-WI,WI,USA,43.0209,-88.2685,0
Z53189,Origin-Waukesha-WI,WI,USA,42.9674,-88.2639,0
Z53204,Origin-Milwaukee-WI,WI,USA,43.0175,-87.9262,0
Z53205,Origin-Milwaukee-WI,WI,USA,43.0538,-87.9346,0
Z53207,Origin-Milwaukee-WI,WI,USA,42.9855,-87.8999,0
Z53209,Origin-Milwaukee-WI,WI,USA,43.1195,-87.9473,0
Z53212,Origin-Milwaukee-WI,WI,USA,43.0721,-87.9103,0
Z53215,Origin-Milwaukee-WI,WI,USA,42.9994,-87.9434,0
Z53222,Origin-Milwaukee-WI,WI,USA,43.0833,-88.0282,0
Z53223,Origin-Milwaukee-WI,WI,USA,43.1637,-87.9871,0
Z53224,Origin-Milwaukee-WI,WI,USA,43.1539,-88.0403,0
Z53225,Origin-Milwaukee-WI,WI,USA,43.1158,-88.0411,0
Z53227,Origin-Milwaukee-WI,WI,USA,42.9977,-88.0371,0
Z53233,Origin-Milwaukee-WI,WI,USA,43.0374,-87.9337,0
Z53235,Origin-Saint Francis-WI,WI,USA,42.9712,-87.8745,0
Z53403,Origin-Racine-WI,WI,USA,42.7046,-87.8006,0
Z53404,Origin-Racine-WI,WI,USA,42.7433,-87.8053,0
Z53511,Origin-Beloit-WI,WI,USA,42.5265,-89.0429,0
Z53530,Origin-Darlington-WI,WI,USA,42.6868,-90.1098,0
Z53538,Origin-Fort Atkinson-WI,WI,USA,42.925,-88.8481,0
Z53546,Origin-Janesville-WI,WI,USA,42.6668,-88.9952,0
Z53555,Origin-Lodi-WI,WI,USA,43.3252,-89.5607,0
Z53558,Origin-McFarland-WI,WI,USA,43.0155,-89.2895,0
Z53562,Origin-Middleton-WI,WI,USA,43.1038,-89.511,0
Z53566,Origin-Monroe-WI,WI,USA,42.6036,-89.6404,0
Z53581,Origin-Richland Center-WI,WI,USA,43.3611,-90.4077,0
Z53704,Origin-Madison-WI,WI,USA,43.1214,-89.3496,0
Z53705,Origin-Madison-WI,WI,USA,43.0734,-89.4505,0
Z53716,Origin-Madison-WI,WI,USA,43.0657,-89.3208,0
Z53901,Origin-Portage-WI,WI,USA,43.5499,-89.4709,0
Z53913,Origin-Baraboo-WI,WI,USA,43.4836,-89.7475,0
Z53916,Origin-Beaver Dam-WI,WI,USA,43.4569,-88.8405,0
Z53959,Origin-Reedsburg-WI,WI,USA,43.5341,-89.9918,0
Z53963,Origin-Waupun-WI,WI,USA,43.6339,-88.735,0
Z53964,Origin-Westfield-WI,WI,USA,43.9074,-89.494,0
Z54011,Origin-Ellsworth-WI,WI,USA,44.719,-92.4664,0
Z54015,Origin-Hammond-WI,WI,USA,44.9575,-92.4459,0
Z54017,Origin-New Richmond-WI,WI,USA,45.1221,-92.5368,0
Z54022,Origin-River Falls-WI,WI,USA,44.8547,-92.6172,0
Z54025,Origin-Somerset-WI,WI,USA,45.1422,-92.6819,0
Z54027,Origin-Wilson-WI,WI,USA,44.939,-92.1863,0
Z54028,Origin-Woodville-WI,WI,USA,44.9443,-92.2795,0
Z54106,Origin-Black Creek-WI,WI,USA,44.4725,-88.4574,0
Z54115,Origin-De Pere-WI,WI,USA,44.4204,-88.0789,0
Z54130,Origin-Kaukauna-WI,WI,USA,44.2932,-88.2592,0
Z54139,Origin-Lena-WI,WI,USA,44.9439,-88.0683,0
Z54154,Origin-Oconto Falls-WI,WI,USA,44.8681,-88.1644,0
Z54162,Origin-Pulaski-WI,WI,USA,44.6572,-88.242,0
Z54165,Origin-Seymour-WI,WI,USA,44.5152,-88.3107,0
Z54208,Origin-Denmark-WI,WI,USA,44.3586,-87.7975,0
Z54217,Origin-Luxemburg-WI,WI,USA,44.5569,-87.7141,0
Z54220,Origin-Manitowoc-WI,WI,USA,44.0962,-87.6892,0
Z54235,Origin-Sturgeon Bay-WI,WI,USA,44.8442,-87.3803,0
Z54241,Origin-Two Rivers-WI,WI,USA,44.1743,-87.586,0
Z54302,Origin-Green Bay-WI,WI,USA,44.5058,-87.9795,0
Z54303,Origin-Green Bay-WI,WI,USA,44.5309,-88.0448,0
Z54304,Origin-Green Bay-WI,WI,USA,44.4994,-88.0631,0
Z54307,Origin-Green Bay-WI,WI,USA,44.4602,-88.0074,0
Z54311,Origin-Green Bay-WI,WI,USA,44.4853,-87.9222,0
Z54313,Origin-Green Bay-WI,WI,USA,44.5643,-88.1032,0
Z54436,Origin-Granton-WI,WI,USA,44.5578,-90.4462,0
Z54437,Origin-Greenwood-WI,WI,USA,44.7751,-90.6263,0
Z54448,Origin-Marathon-WI,WI,USA,44.9351,-89.8369,0
Z54449,Origin-Marshfield-WI,WI,USA,44.6568,-90.1814,0
Z54451,Origin-Medford-WI,WI,USA,45.1712,-90.4052,0
Z54452,Origin-Merrill-WI,WI,USA,45.1814,-89.7046,0
Z54454,Origin-Milladore-WI,WI,USA,44.6202,-89.8722,0
Z54467,Origin-Plover-WI,WI,USA,44.4524,-89.5439,0
Z54473,Origin-Rosholt-WI,WI,USA,44.6416,-89.3359,0
Z54479,Origin-Spencer-WI,WI,USA,44.7644,-90.3317,0
Z54481,Origin-Stevens Point-WI,WI,USA,44.5241,-89.5562,0
Z54489,Origin-Vesper-WI,WI,USA,44.4568,-89.9962,0
Z54495,Origin-Wisconsin Rapids-WI,WI,USA,44.3765,-89.9077,0
Z54499,Origin-Wittenberg-WI,WI,USA,44.7974,-89.1844,0
Z54611,Origin-Alma Center-WI,WI,USA,44.4421,-90.9385,0
Z54619,Origin-Cashton-WI,WI,USA,43.7492,-90.7847,0
Z54656,Origin-Sparta-WI,WI,USA,43.9698,-90.8079,0
Z54703,Origin-Eau Claire-WI,WI,USA,44.8297,-91.5052,0
Z54722,Origin-Augusta-WI,WI,USA,44.7,-91.1251,0
Z54729,Origin-Chippewa Falls-WI,WI,USA,44.9327,-91.3888,0
Z54773,Origin-Whitehall-WI,WI,USA,44.3778,-91.3094,0
Z54826,Origin-Comstock-WI,WI,USA,45.506,-92.1764,0
Z54840,Origin-Grantsburg-WI,WI,USA,45.7513,-92.6717,0
Z54901,Origin-Oshkosh-WI,WI,USA,44.044,-88.5352,0
Z54912,Origin-Appleton-WI,WI,USA,44.4164,-88.4648,0
Z54914,Origin-Appleton-WI,WI,USA,44.2675,-88.4382,0
Z54921,Origin-Bancroft-WI,WI,USA,44.3076,-89.5467,0
Z54922,Origin-Bear Creek-WI,WI,USA,44.5389,-88.7438,0
Z54923,Origin-Berlin-WI,WI,USA,43.9786,-88.9541,0
Z54929,Origin-Clintonville-WI,WI,USA,44.6361,-88.7467,0
Z54935,Origin-Fond Du Lac-WI,WI,USA,43.77,-88.4281,0
Z54937,Origin-Fond Du Lac-WI,WI,USA,43.7855,-88.487,0
Z54942,Origin-Greenville-WI,WI,USA,44.2939,-88.5355,0
Z54949,Origin-Manawa-WI,WI,USA,44.4728,-88.9162,0
Z54956,Origin-Neenah-WI,WI,USA,44.1801,-88.4826,0
Z54966,Origin-Plainfield-WI,WI,USA,44.221,-89.5122,0
Z54974,Origin-Rosendale-WI,WI,USA,43.7977,-88.6626,0
Z55009,Origin-Cannon Falls-MN,MN,USA,44.4937,-92.894,0
Z55012,Origin-Center City-MN,MN,USA,45.4177,-92.806,0
Z55014,Origin-Circle Pines-MN,MN,USA,45.1536,-93.1445,0
Z55021,Origin-Faribault-MN,MN,USA,44.2949,-93.2873,0
Z55024,Origin-Farmington-MN,MN,USA,44.6493,-93.1522,0
Z55033,Origin-Hastings-MN,MN,USA,44.7265,-92.8615,0
Z55044,Origin-Lakeville-MN,MN,USA,44.6696,-93.2665,0
Z55045,Origin-Lindstrom-MN,MN,USA,45.3873,-92.8355,0
Z55055,Origin-Newport-MN,MN,USA,44.8712,-93.0018,0
Z55057,Origin-Northfield-MN,MN,USA,44.46,-93.1662,0
Z55060,Origin-Owatonna-MN,MN,USA,44.074,-93.2271,0
Z55066,Origin-Red Wing-MN,MN,USA,44.5391,-92.5364,0
Z55075,Origin-South Saint Paul-MN,MN,USA,44.8881,-93.0454,0
Z55077,Origin-Inver Grove Heights-MN,MN,USA,44.8255,-93.0689,0
Z55106,Origin-Saint Paul-MN,MN,USA,44.9676,-93.05,0
Z55107,Origin-Saint Paul-MN,MN,USA,44.9283,-93.0887,0
Z55108,Origin-Saint Paul-MN,MN,USA,44.9826,-93.1749,0
Z55110,Origin-Saint Paul-MN,MN,USA,45.0813,-93.0114,0
Z55112,Origin-Saint Paul-MN,MN,USA,45.0764,-93.1933,0
Z55113,Origin-Saint Paul-MN,MN,USA,45.0113,-93.1553,0
Z55114,Origin-Saint Paul-MN,MN,USA,44.9649,-93.1957,0
Z55120,Origin-Saint Paul-MN,MN,USA,44.8734,-93.1453,0
Z55121,Origin-Saint Paul-MN,MN,USA,44.845,-93.1442,0
Z55125,Origin-Saint Paul-MN,MN,USA,44.922,-92.9423,0
Z55307,Origin-Arlington-MN,MN,USA,44.6133,-94.1073,0
Z55317,Origin-Chanhassen-MN,MN,USA,44.8663,-93.5448,0
Z55318,Origin-Chaska-MN,MN,USA,44.81,-93.6105,0
Z55320,Origin-Clearwater-MN,MN,USA,45.3876,-94.0599,0
Z55334,Origin-Gaylord-MN,MN,USA,44.5428,-94.2176,0
Z55337,Origin-Burnsville-MN,MN,USA,44.7703,-93.273,0
Z55343,Origin-Hopkins-MN,MN,USA,44.9216,-93.4085,0
Z55344,Origin-Eden Prairie-MN,MN,USA,44.867,-93.4255,0
Z55355,Origin-Litchfield-MN,MN,USA,45.1045,-94.5286,0
Z55368,Origin-Norwood-MN,MN,USA,44.757,-93.9166,0
Z55374,Origin-Rogers-MN,MN,USA,45.1977,-93.571,0
Z55376,Origin-Saint Michael-MN,MN,USA,45.2038,-93.6761,0
Z55404,Origin-Minneapolis-MN,MN,USA,44.9634,-93.2617,0
Z55405,Origin-Minneapolis-MN,MN,USA,44.9718,-93.3027,0
Z55406,Origin-Minneapolis-MN,MN,USA,44.9387,-93.2208,0
Z55411,Origin-Minneapolis-MN,MN,USA,44.9993,-93.2982,0
Z55413,Origin-Minneapolis-MN,MN,USA,44.9977,-93.2492,0
Z55414,Origin-Minneapolis-MN,MN,USA,44.9805,-93.2299,0
Z55418,Origin-Minneapolis-MN,MN,USA,45.0193,-93.243,0
Z55421,Origin-Minneapolis-MN,MN,USA,45.0505,-93.25,0
Z55427,Origin-Minneapolis-MN,MN,USA,45.0068,-93.3822,0
Z55428,Origin-Minneapolis-MN,MN,USA,45.06,-93.377,0
Z55429,Origin-Minneapolis-MN,MN,USA,45.0647,-93.3415,0
Z55431,Origin-Minneapolis-MN,MN,USA,44.8296,-93.3098,0
Z55439,Origin-Minneapolis-MN,MN,USA,44.876,-93.3701,0
Z55442,Destination-Minneapolis-MN,MN,USA,45.0468,-93.4289,1
Z55485,Origin-Minneapolis-MN,MN,USA,45.0159,-93.4718,0
Z55705,Origin-Aurora-MN,MN,USA,47.4523,-92.2411,0
Z55901,Origin-Rochester-MN,MN,USA,44.0489,-92.4945,0
Z55904,Origin-Rochester-MN,MN,USA,43.9888,-92.4293,0
Z55910,Origin-Altura-MN,MN,USA,44.1283,-91.9595,0
Z55912,Origin-Austin-MN,MN,USA,43.672,-92.979,0
Z55921,Origin-Caledonia-MN,MN,USA,43.6301,-91.4867,0
Z55964,Origin-Plainview-MN,MN,USA,44.1645,-92.1704,0
Z55987,Origin-Winona-MN,MN,USA,44.0339,-91.651,0
Z55992,Origin-Zumbrota-MN,MN,USA,44.2972,-92.683,0
Z56007,Origin-Albert Lea-MN,MN,USA,43.6521,-93.3691,0
Z56031,Destination-Fairmont-MN,MN,USA,43.647,-94.4585,1
Z56050,Origin-Kasota-MN,MN,USA,44.2849,-93.958,0
Z56071,Origin-New Prague-MN,MN,USA,44.5465,-93.5784,0
Z56081,Origin-Saint James-MN,MN,USA,43.9866,-94.6334,0
Z56201,Origin-Willmar-MN,MN,USA,45.1189,-95.0449,0
Z56304,Origin-Saint Cloud-MN,MN,USA,45.5474,-94.113,0
Z56320,Origin-Cold Spring-MN,MN,USA,45.4628,-94.4251,0
Z56329,Origin-Foley-MN,MN,USA,45.6955,-93.9041,0
Z56334,Origin-Glenwood-MN,MN,USA,45.6096,-95.351,0
Z56347,Origin-Long Prairie-MN,MN,USA,45.9737,-94.8582,0
Z56367,Origin-Rice-MN,MN,USA,45.7453,-94.1818,0
Z56387,Origin-Waite Park-MN,MN,USA,45.5504,-94.2242,0
Z56431,Origin-Aitkin-MN,MN,USA,46.5073,-93.6645,0
Z56438,Origin-Browerville-MN,MN,USA,46.1493,-94.8308,0
Z56470,Origin-Park Rapids-MN,MN,USA,46.9743,-95.0657,0
Z56560,Origin-Moorhead-MN,MN,USA,46.8615,-96.7536,0
Z56573,Origin-Perham-MN,MN,USA,46.6075,-95.5591,0
Z56601,Origin-Bemidji-MN,MN,USA,47.5046,-94.871,0
Z56716,Origin-Crookston-MN,MN,USA,47.7621,-96.5805,0
Z56721,Origin-East Grand Forks-MN,MN,USA,47.9565,-96.9877,0
Z56744,Origin-Oslo-MN,MN,USA,48.234,-97.1187,0
Z57029,Origin-Freeman-SD,SD,USA,43.3357,-97.4702,0
Z57103,Origin-Sioux Falls-SD,SD,USA,43.5372,-96.6952,0
Z57104,Origin-Sioux Falls-SD,SD,USA,43.5609,-96.7324,0
Z57216,Origin-Big Stone City-SD,SD,USA,45.2854,-96.5023,0
Z57461,Origin-Mellette-SD,SD,USA,45.1524,-98.4249,0
Z57601,Origin-Mobridge-SD,SD,USA,45.4721,-100.458,0
Z58045,Origin-Hillsboro-ND,ND,USA,47.3892,-97.0532,0
Z58075,Origin-Wahpeton-ND,ND,USA,46.2824,-96.6849,0
Z58102,Origin-Fargo-ND,ND,USA,46.9004,-96.8001,0
Z58103,Origin-Fargo-ND,ND,USA,46.8609,-96.8159,0
Z58106,Origin-Fargo-ND,ND,USA,46.9347,-97.2297,0
Z58201,Destination-Grand Forks-ND,ND,USA,47.8992,-97.0589,1
Z58203,Origin-Grand Forks-ND,ND,USA,47.9389,-97.084,0
Z58240,Origin-Hatton-ND,ND,USA,47.631,-97.485,0
Z58256,Origin-Manvel-ND,ND,USA,48.0832,-97.1898,0
Z58257,Origin-Mayville-ND,ND,USA,47.4909,-97.2939,0
Z58401,Origin-Jamestown-ND,ND,USA,46.9071,-98.7282,0
Z58501,Destination-Bismarck-ND,ND,USA,46.8396,-100.772,1
Z58502,Origin-Bismarck-ND,ND,USA,46.8887,-100.682,0
Z58503,Origin-Bismarck-ND,ND,USA,46.8619,-100.78,0
Z58552,Origin-Linton-ND,ND,USA,46.2576,-100.238,0
Z58554,Origin-Mandan-ND,ND,USA,46.8122,-100.909,0
Z58601,Origin-Dickinson-ND,ND,USA,46.8781,-102.804,0
Z58638,Origin-Hebron-ND,ND,USA,46.8774,-102.05,0
Z59101,Origin-Billings-MT,MT,USA,45.7376,-108.487,0
Z59401,Origin-Great Falls-MT,MT,USA,47.5092,-111.274,0
Z60007,Origin-Elk Grove Village-IL,IL,USA,42.006,-87.9985,0
Z60016,Origin-Des Plaines-IL,IL,USA,42.0472,-87.8905,0
Z60018,Origin-Des Plaines-IL,IL,USA,42.0085,-87.8923,0
Z60031,Origin-Gurnee-IL,IL,USA,42.3758,-87.9351,0
Z60051,Origin-Mchenry-IL,IL,USA,42.3249,-88.4524,0
Z60060,Origin-Mundelein-IL,IL,USA,42.2637,-88.0117,0
Z60062,Origin-Northbrook-IL,IL,USA,42.1247,-87.843,0
Z60069,Origin-Lincolnshire-IL,IL,USA,42.1881,-87.9271,0
Z60084,Origin-Wauconda-IL,IL,USA,42.2632,-88.1433,0
Z60085,Origin-Waukegan-IL,IL,USA,42.3613,-87.8618,0
Z60089,Origin-Buffalo Grove-IL,IL,USA,42.1677,-87.9639,0
Z60090,Origin-Wheeling-IL,IL,USA,42.1316,-87.9295,0
Z60093,Origin-Winnetka-IL,IL,USA,42.1041,-87.7501,0
Z60101,Origin-Addison-IL,IL,USA,41.9316,-88.0022,0
Z60103,Origin-Bartlett-IL,IL,USA,41.9775,-88.1725,0
Z60104,Origin-Bellwood-IL,IL,USA,41.883,-87.8764,0
Z60106,Destination-Bensenville-IL,IL,USA,41.9566,-87.9511,1
Z60107,Origin-Streamwood-IL,IL,USA,42.0241,-88.1765,0
Z60115,Origin-Dekalb-IL,IL,USA,41.9241,-88.7461,0
Z60123,Origin-Elgin-IL,IL,USA,42.0348,-88.3239,0
Z60126,Origin-Elmhurst-IL,IL,USA,41.891,-87.9418,0
Z60131,Origin-Franklin Park-IL,IL,USA,41.9356,-87.8747,0
Z60133,Origin-Hanover Park-IL,IL,USA,41.9809,-88.1444,0
Z60134,Origin-Geneva-IL,IL,USA,41.8857,-88.3195,0
Z60139,Origin-Glendale Heights-IL,IL,USA,41.9202,-88.0788,0
Z60140,Origin-Hampshire-IL,IL,USA,42.0862,-88.5035,0
Z60142,Origin-Huntley-IL,IL,USA,42.172,-88.4288,0
Z60143,Origin-Itasca-IL,IL,USA,41.9724,-88.0219,0
Z60155,Origin-Broadview-IL,IL,USA,41.858,-87.8547,0
Z60160,Origin-Melrose Park-IL,IL,USA,41.8999,-87.8597,0
Z60163,Origin-Berkeley-IL,IL,USA,41.8868,-87.9104,0
Z60164,Origin-Melrose Park-IL,IL,USA,41.9183,-87.8963,0
Z60173,Origin-Schaumburg-IL,IL,USA,42.0519,-88.0481,0
Z60174,Origin-Saint Charles-IL,IL,USA,41.9198,-88.305,0
Z60176,Origin-Schiller Park-IL,IL,USA,41.9569,-87.8719,0
Z60177,Origin-South Elgin-IL,IL,USA,41.9922,-88.306,0
Z60180,Origin-Union-IL,IL,USA,42.2295,-88.526,0
Z60181,Origin-Villa Park-IL,IL,USA,41.8804,-87.9781,0
Z60185,Origin-West Chicago-IL,IL,USA,41.892,-88.205,0
Z60188,Origin-Carol Stream-IL,IL,USA,41.9186,-88.1369,0
Z60202,Origin-Evanston-IL,IL,USA,42.0303,-87.6882,0
Z60401,Origin-Beecher-IL,IL,USA,41.3505,-87.624,0
Z60402,Origin-Berwyn-IL,IL,USA,41.837,-87.7909,0
Z60409,Origin-Calumet City-IL,IL,USA,41.6142,-87.5463,0
Z60410,Origin-Channahon-IL,IL,USA,41.4396,-88.2089,0
Z60411,Origin-Chicago Heights-IL,IL,USA,41.5114,-87.61,0
Z60421,Origin-Elwood-IL,IL,USA,41.4297,-88.1028,0
Z60426,Origin-Harvey-IL,IL,USA,41.6091,-87.6626,0
Z60431,Origin-Joliet-IL,IL,USA,41.525,-88.1902,0
Z60436,Origin-Joliet-IL,IL,USA,41.508,-88.1054,0
Z60439,Origin-Lemont-IL,IL,USA,41.676,-87.9825,0
Z60440,Origin-Bolingbrook-IL,IL,USA,41.7031,-88.0746,0
Z60446,Origin-Romeoville-IL,IL,USA,41.6428,-88.0993,0
Z60447,Origin-Minooka-IL,IL,USA,41.4736,-88.2916,0
Z60450,Origin-Morris-IL,IL,USA,41.3707,-88.4075,0
Z60455,Origin-Bridgeview-IL,IL,USA,41.7425,-87.8068,0
Z60466,Origin-Park Forest-IL,IL,USA,41.473,-87.6876,0
Z60473,Origin-South Holland-IL,IL,USA,41.5975,-87.599,0
Z60481,Origin-Wilmington-IL,IL,USA,41.2983,-88.1463,0
Z60490,Origin-Bolingbrook-IL,IL,USA,41.6848,-88.1419,0
Z60501,Origin-Summit Argo-IL,IL,USA,41.7849,-87.8099,0
Z60505,Origin-Aurora-IL,IL,USA,41.7562,-88.2969,0
Z60506,Origin-Aurora-IL,IL,USA,41.766,-88.3524,0
Z60507,Origin-Aurora-IL,IL,USA,41.937,-88.4202,0
Z60510,Origin-Batavia-IL,IL,USA,41.8453,-88.3099,0
Z60513,Origin-Brookfield-IL,IL,USA,41.8227,-87.8474,0
Z60517,Origin-Woodridge-IL,IL,USA,41.7526,-88.0486,0
Z60525,Origin-La Grange-IL,IL,USA,41.7886,-87.876,0
Z60527,Origin-Hinsdale-IL,IL,USA,41.8397,-88.0887,0
Z60534,Origin-Lyons-IL,IL,USA,41.8124,-87.8232,0
Z60538,Origin-Montgomery-IL,IL,USA,41.722,-88.3297,0
Z60540,Origin-Naperville-IL,IL,USA,41.7648,-88.1457,0
Z60543,Origin-Oswego-IL,IL,USA,41.6849,-88.3418,0
Z60559,Origin-Westmont-IL,IL,USA,41.7954,-87.9778,0
Z60560,Origin-Yorkville-IL,IL,USA,41.6314,-88.4399,0
Z60607,Origin-Chicago-IL,IL,USA,41.8759,-87.6511,0
Z60608,Origin-Chicago-IL,IL,USA,41.8506,-87.6698,0
Z60609,Origin-Chicago-IL,IL,USA,41.8143,-87.6528,0
Z60610,Origin-Chicago-IL,IL,USA,41.8987,-87.637,0
Z60612,Destination-Chicago-IL,IL,USA,41.8808,-87.6877,1
Z60613,Origin-Chicago-IL,IL,USA,41.9533,-87.6628,0
Z60616,Origin-Chicago-IL,IL,USA,41.8475,-87.6312,0
Z60617,Origin-Chicago-IL,IL,USA,41.7201,-87.5556,0
Z60618,Origin-Chicago-IL,IL,USA,41.9457,-87.7048,0
Z60622,Origin-Chicago-IL,IL,USA,41.9004,-87.6693,0
Z60623,Origin-Chicago-IL,IL,USA,41.8503,-87.7179,0
Z60624,Origin-Chicago-IL,IL,USA,41.8794,-87.7219,0
Z60628,Origin-Chicago-IL,IL,USA,41.6955,-87.6225,0
Z60629,Origin-Chicago-IL,IL,USA,41.7775,-87.7115,0
Z60632,Origin-Chicago-IL,IL,USA,41.8094,-87.7104,0
Z60634,Origin-Chicago-IL,IL,USA,41.9445,-87.7965,0
Z60638,Origin-Chicago-IL,IL,USA,41.788,-87.7738,0
Z60639,Origin-Chicago-IL,IL,USA,41.9215,-87.7541,0
Z60641,Origin-Chicago-IL,IL,USA,41.9465,-87.7457,0
Z60644,Origin-Chicago-IL,IL,USA,41.8814,-87.7567,0
Z60645,Origin-Chicago-IL,IL,USA,42.009,-87.6963,0
Z60647,Origin-Chicago-IL,IL,USA,41.9211,-87.7008,0
Z60651,Origin-Chicago-IL,IL,USA,41.9015,-87.7405,0
Z60652,Origin-Chicago-IL,IL,USA,41.7447,-87.7118,0
Z60714,Origin-Niles-IL,IL,USA,42.0324,-87.8156,0
Z60803,Origin-Alsip-IL,IL,USA,41.6759,-87.7319,0
Z60804,Origin-Cicero-IL,IL,USA,41.8445,-87.7598,0
Z60901,Origin-Kankakee-IL,IL,USA,41.1142,-87.8678,0
Z60915,Origin-Bradley-IL,IL,USA,41.1443,-87.8624,0
Z60942,Origin-Hoopeston-IL,IL,USA,40.4659,-87.6676,0
Z61008,Origin-Belvidere-IL,IL,USA,42.2573,-88.8475,0
Z61025,Origin-East Dubuque-IL,IL,USA,42.484,-90.5894,0
Z61068,Origin-Rochelle-IL,IL,USA,41.9352,-89.0688,0
Z61201,Origin-Rock Island-IL,IL,USA,41.4903,-90.5695,0
Z61240,Origin-Coal Valley-IL,IL,USA,41.4398,-90.428,0
Z61332,Origin-Leonore-IL,IL,USA,41.1901,-88.9823,0
Z61350,Origin-Ottawa-IL,IL,USA,41.3527,-88.8473,0
Z61356,Origin-Princeton-IL,IL,USA,41.3726,-89.4431,0
Z61364,Destination-Streator-IL,IL,USA,41.1295,-88.8366,1
Z61603,Origin-Peoria-IL,IL,USA,40.7129,-89.579,0
Z61775,Origin-Strawn-IL,IL,USA,40.6538,-88.3902,0
Z61821,Origin-Champaign-IL,IL,USA,40.1086,-88.2733,0
Z61822,Origin-Champaign-IL,IL,USA,40.1269,-88.2931,0
Z61834,Origin-Danville-IL,IL,USA,40.1755,-87.6123,0
Z61866,Origin-Rantoul-IL,IL,USA,40.3071,-88.1557,0
Z62002,Origin-Alton-IL,IL,USA,38.9061,-90.1591,0
Z62025,Origin-Edwardsville-IL,IL,USA,38.8194,-89.955,0
Z62040,Origin-Granite City-IL,IL,USA,38.721,-90.1142,0
Z62060,Origin-Madison-IL,IL,USA,38.6807,-90.1541,0
Z62206,Origin-East Saint Louis-IL,IL,USA,38.5645,-90.1628,0
Z62220,Origin-Belleville-IL,IL,USA,38.5005,-89.9764,0
Z62239,Origin-Dupo-IL,IL,USA,38.5268,-90.1925,0
Z62245,Origin-Germantown-IL,IL,USA,38.5546,-89.5631,0
Z62258,Origin-Mascoutah-IL,IL,USA,38.4817,-89.7942,0
Z62260,Origin-Millstadt-IL,IL,USA,38.4638,-90.0982,0
Z62295,Origin-Valmeyer-IL,IL,USA,38.3,-90.3083,0
Z62312,Origin-Barry-IL,IL,USA,39.7047,-91.0368,0
Z62353,Origin-Mount Sterling-IL,IL,USA,39.9838,-90.7413,0
Z62526,Origin-Decatur-IL,IL,USA,39.8781,-88.9564,0
Z62565,Origin-Shelbyville-IL,IL,USA,39.4092,-88.8015,0
Z62905,Origin-Alto Pass-IL,IL,USA,37.5713,-89.3346,0
Z63005,Destination-Chesterfield-MO,MO,USA,38.6471,-90.6315,1
Z63011,Origin-Ballwin-MO,MO,USA,38.6015,-90.552,0
Z63026,Origin-Fenton-MO,MO,USA,38.5029,-90.4608,0
Z63042,Origin-Hazelwood-MO,MO,USA,38.7786,-90.37,0
Z63043,Origin-Maryland Heights-MO,MO,USA,38.7254,-90.4445,0
Z63045,Origin-Earth City-MO,MO,USA,38.6384,-90.427,0
Z63069,Origin-Pacific-MO,MO,USA,38.4824,-90.7389,0
Z63070,Origin-Pevely-MO,MO,USA,38.2791,-90.4086,0
Z63090,Origin-Washington-MO,MO,USA,38.5356,-91.0234,0
Z63102,Origin-Saint Louis-MO,MO,USA,38.6352,-90.187,0
Z63103,Origin-Saint Louis-MO,MO,USA,38.6315,-90.2141,0
Z63104,Origin-Saint Louis-MO,MO,USA,38.6108,-90.2136,0
Z63108,Origin-Saint Louis-MO,MO,USA,38.6463,-90.2543,0
Z63109,Origin-Saint Louis-MO,MO,USA,38.5861,-90.2941,0
Z63110,Origin-Saint Louis-MO,MO,USA,38.6227,-90.2617,0
Z63111,Origin-Saint Louis-MO,MO,USA,38.5594,-90.2517,0
Z63114,Destination-Saint Louis-MO,MO,USA,38.7027,-90.361,1
Z63116,Origin-Saint Louis-MO,MO,USA,38.5806,-90.263,0
Z63118,Origin-Saint Louis-MO,MO,USA,38.5949,-90.2278,0
Z63120,Origin-Saint Louis-MO,MO,USA,38.692,-90.2599,0
Z63122,Origin-Saint Louis-MO,MO,USA,38.5828,-90.4096,0
Z63123,Origin-Saint Louis-MO,MO,USA,38.5495,-90.3252,0
Z63129,Origin-Saint Louis-MO,MO,USA,38.47,-90.3215,0
Z63130,Origin-Saint Louis-MO,MO,USA,38.664,-90.3234,0
Z63132,Origin-Saint Louis-MO,MO,USA,38.6758,-90.3746,0
Z63134,Origin-Saint Louis-MO,MO,USA,38.7383,-90.339,0
Z63135,Origin-Saint Louis-MO,MO,USA,38.7479,-90.3025,0
Z63136,Origin-Saint Louis-MO,MO,USA,38.7384,-90.2615,0
Z63143,Origin-Saint Louis-MO,MO,USA,38.6125,-90.3182,0
Z63144,Origin-Saint Louis-MO,MO,USA,38.6192,-90.3496,0
Z63146,Origin-Saint Louis-MO,MO,USA,38.6886,-90.4468,0
Z63147,Origin-Saint Louis-MO,MO,USA,38.6929,-90.2189,0
Z63301,Origin-Saint Charles-MO,MO,USA,38.8086,-90.5068,0
Z63361,Origin-Montgomery City-MO,MO,USA,38.9736,-91.5355,0
Z63379,Origin-Troy-MO,MO,USA,38.992,-90.9864,0
Z63383,Origin-Warrenton-MO,MO,USA,38.8189,-91.1699,0
Z63385,Origin-Wentzville-MO,MO,USA,38.8089,-90.8592,0
Z63390,Origin-Wright City-MO,MO,USA,38.7974,-91.0346,0
Z63628,Origin-Bonne Terre-MO,MO,USA,37.9297,-90.5614,0
Z63703,Origin-Cape Girardeau-MO,MO,USA,37.2915,-89.5406,0
Z63750,Origin-Gipsy-MO,MO,USA,37.147,-90.1886,0
Z63776,Origin-McBride-MO,MO,USA,37.7348,-89.8116,0
Z63821,Origin-Arbyrd-MO,MO,USA,36.0484,-90.2334,0
Z63822,Origin-Bernie-MO,MO,USA,36.6624,-90.0076,0
Z63852,Origin-Holcomb-MO,MO,USA,36.3745,-90.0054,0
Z63866,Origin-Marston-MO,MO,USA,36.5217,-89.6072,0
Z63937,Origin-Ellsinore-MO,MO,USA,36.9366,-90.7502,0
Z63957,Origin-Piedmont-MO,MO,USA,37.1514,-90.6968,0
Z63965,Origin-Van Buren-MO,MO,USA,36.986,-90.9985,0
Z64020,Origin-Concordia-MO,MO,USA,38.9769,-93.5895,0
Z64024,Origin-Excelsior Springs-MO,MO,USA,39.3404,-94.226,0
Z64037,Origin-Higginsville-MO,MO,USA,39.0587,-93.7336,0
Z64050,Origin-Independence-MO,MO,USA,39.0989,-94.4144,0
Z64056,Origin-Independence-MO,MO,USA,39.1159,-94.3484,0
Z64063,Origin-Lees Summit-MO,MO,USA,38.9139,-94.3639,0
Z64082,Origin-Lees Summit-MO,MO,USA,38.8503,-94.3957,0
Z64086,Origin-Lees Summit-MO,MO,USA,38.9282,-94.3239,0
Z64101,Origin-Kansas City-MO,MO,USA,39.1031,-94.6006,0
Z64106,Origin-Kansas City-MO,MO,USA,39.1037,-94.573,0
Z64108,Origin-Kansas City-MO,MO,USA,39.0846,-94.5829,0
Z64110,Origin-Kansas City-MO,MO,USA,39.0335,-94.5728,0
Z64116,Origin-Kansas City-MO,MO,USA,39.1492,-94.5731,0
Z64117,Origin-Kansas City-MO,MO,USA,39.1653,-94.5315,0
Z64120,Origin-Kansas City-MO,MO,USA,39.1253,-94.5323,0
Z64124,Origin-Kansas City-MO,MO,USA,39.1073,-94.5398,0
Z64127,Origin-Kansas City-MO,MO,USA,39.0898,-94.5397,0
Z64150,Origin-Riverside-MO,MO,USA,39.1749,-94.6224,0
Z64151,Origin-Kansas City-MO,MO,USA,39.2157,-94.6301,0
Z64153,Origin-Kansas City-MO,MO,USA,39.2817,-94.7143,0
Z64161,Origin-Kansas City-MO,MO,USA,39.165,-94.4669,0
Z64504,Origin-Saint Joseph-MO,MO,USA,39.7077,-94.8735,0
Z64804,Origin-Joplin-MO,MO,USA,37.0473,-94.5112,0
Z64836,Origin-Carthage-MO,MO,USA,37.169,-94.3116,0
Z65013,Origin-Belle-MO,MO,USA,38.2798,-91.741,0
Z65018,Origin-California-MO,MO,USA,38.6249,-92.5643,0
Z65265,Origin-Mexico-MO,MO,USA,39.1793,-91.884,0
Z65336,Origin-Knob Noster-MO,MO,USA,38.767,-93.5671,0
Z65560,Destination-Salem-MO,MO,USA,37.6309,-91.5142,1
Z65625,Origin-Cassville-MO,MO,USA,36.6816,-93.851,0
Z65775,Origin-West Plains-MO,MO,USA,36.7192,-91.874,0
Z65802,Origin-Springfield-MO,MO,USA,37.2127,-93.3181,0
Z65803,Origin-Springfield-MO,MO,USA,37.2571,-93.2902,0
Z66012,Origin-Bonner Springs-KS,KS,USA,39.0658,-94.9045,0
Z66018,Origin-De Soto-KS,KS,USA,38.9615,-94.9767,0
Z66031,Origin-New Century-KS,KS,USA,38.8249,-94.8992,0
Z66044,Origin-Lawrence-KS,KS,USA,38.9836,-95.232,0
Z66046,Origin-Lawrence-KS,KS,USA,38.9324,-95.2251,0
Z66049,Origin-Lawrence-KS,KS,USA,38.9759,-95.3039,0
Z66061,Origin-Olathe-KS,KS,USA,38.8898,-94.8555,0
Z66062,Origin-Olathe-KS,KS,USA,38.8606,-94.7758,0
Z66085,Origin-Stilwell-KS,KS,USA,38.7987,-94.6552,0
Z66101,Origin-Kansas City-KS,KS,USA,39.1181,-94.6256,0
Z66102,Origin-Kansas City-KS,KS,USA,39.1122,-94.6664,0
Z66103,Origin-Kansas City-KS,KS,USA,39.0593,-94.6245,0
Z66105,Origin-Kansas City-KS,KS,USA,39.0851,-94.6312,0
Z66106,Origin-Kansas City-KS,KS,USA,39.0667,-94.6886,0
Z66111,Origin-Kansas City-KS,KS,USA,39.0766,-94.7901,0
Z66113,Origin-Edwardsville-KS,KS,USA,39.0736,-94.7232,0
Z66115,Origin-Kansas City-KS,KS,USA,39.1414,-94.6187,0
Z66203,Origin-Shawnee Mission-KS,KS,USA,39.0205,-94.7058,0
Z66204,Origin-Shawnee Mission-KS,KS,USA,38.9923,-94.6753,0
Z66206,Origin-Shawnee Mission-KS,KS,USA,38.9593,-94.6222,0
Z66215,Origin-Shawnee Mission-KS,KS,USA,38.9611,-94.7414,0
Z66219,Origin-Shawnee Mission-KS,KS,USA,38.9638,-94.7715,0
Z66603,Origin-Topeka-KS,KS,USA,39.0563,-95.6755,0
Z66607,Origin-Topeka-KS,KS,USA,39.0441,-95.6479,0
Z66618,Destination-Topeka-KS,KS,USA,39.1265,-95.733,1
Z66713,Origin-Baxter Springs-KS,KS,USA,37.0261,-94.7493,0
Z67005,Origin-Arkansas City-KS,KS,USA,37.0674,-97.0282,0
Z67063,Origin-Hillsboro-KS,KS,USA,38.3471,-97.2148,0
Z67107,Origin-Moundridge-KS,KS,USA,38.1934,-97.5283,0
Z67114,Origin-Newton-KS,KS,USA,38.0518,-97.3229,0
Z67117,Origin-North Newton-KS,KS,USA,38.0739,-97.3463,0
Z67201,Origin-Wichita-KS,KS,USA,37.652,-97.2589,0
Z67203,Origin-Wichita-KS,KS,USA,37.7039,-97.3623,0
Z67219,Origin-Wichita-KS,KS,USA,37.766,-97.3199,0
Z67501,Origin-Hutchinson-KS,KS,USA,38.0343,-97.9238,0
Z67504,Origin-Hutchinson-KS,KS,USA,37.9533,-98.0858,0
Z67505,Origin-South Hutchinson-KS,KS,USA,38.0272,-97.9397,0
Z67545,Origin-Hudson-KS,KS,USA,38.1514,-98.6472,0
Z67801,Origin-Dodge City-KS,KS,USA,37.7553,-100.026,0
Z67901,Origin-Liberal-KS,KS,USA,37.068,-100.928,0
Z68005,Origin-Bellevue-NE,NE,USA,41.1469,-95.9079,0
Z68025,Origin-Fremont-NE,NE,USA,41.4349,-96.4886,0
Z68026,Origin-Fremont-NE,NE,USA,41.5679,-96.6174,0
Z68102,Origin-Omaha-NE,NE,USA,41.2606,-95.9361,0
Z68106,Origin-Omaha-NE,NE,USA,41.2423,-95.9989,0
Z68107,Origin-Omaha-NE,NE,USA,41.2053,-95.9554,0
Z68108,Origin-Omaha-NE,NE,USA,41.2406,-95.9335,0
Z68110,Destination-Omaha-NE,NE,USA,41.2924,-95.9342,1
Z68112,Origin-Omaha-NE,NE,USA,41.335,-95.9592,0
Z68127,Origin-Omaha-NE,NE,USA,41.2031,-96.05,0
Z68128,Origin-La Vista-NE,NE,USA,41.1835,-96.0531,0
Z68131,Origin-Omaha-NE,NE,USA,41.2645,-95.9638,0
Z68134,Origin-Omaha-NE,NE,USA,41.2968,-96.0517,0
Z68137,Origin-Omaha-NE,NE,USA,41.2047,-96.121,0
Z68138,Origin-Omaha-NE,NE,USA,41.176,-96.1339,0
Z68152,Origin-Omaha-NE,NE,USA,41.3445,-96.0007,0
Z68333,Origin-Crete-NE,NE,USA,40.6202,-96.9609,0
Z68352,Origin-Fairbury-NE,NE,USA,40.1514,-97.2036,0
Z68501,Origin-Lincoln-NE,NE,USA,40.8652,-96.8231,0
Z68502,Origin-Lincoln-NE,NE,USA,40.7891,-96.6958,0
Z68504,Origin-Lincoln-NE,NE,USA,40.8443,-96.6556,0
Z68507,Origin-Lincoln-NE,NE,USA,40.8512,-96.6291,0
Z68512,Origin-Lincoln-NE,NE,USA,40.7449,-96.6957,0
Z68701,Origin-Norfolk-NE,NE,USA,42.0263,-97.4174,0
Z68788,Origin-West Point-NE,NE,USA,41.8411,-96.7257,0
Z68801,Origin-Grand Island-NE,NE,USA,40.9228,-98.3308,0
Z68803,Origin-Grand Island-NE,NE,USA,40.9169,-98.3874,0
Z68901,Origin-Hastings-NE,NE,USA,40.5894,-98.3813,0
Z70003,Origin-Metairie-LA,LA,USA,29.9972,-90.2137,0
Z70032,Origin-Arabi-LA,LA,USA,29.9589,-89.9989,0
Z70043,Origin-Chalmette-LA,LA,USA,29.9465,-89.9611,0
Z70052,Origin-Gramercy-LA,LA,USA,30.054,-90.6891,0
Z70053,Origin-Gretna-LA,LA,USA,29.9154,-90.0533,0
Z70062,Origin-Kenner-LA,LA,USA,29.9911,-90.2468,0
Z70087,Origin-Saint Rose-LA,LA,USA,29.9627,-90.3095,0
Z70094,Origin-Westwego-LA,LA,USA,29.9154,-90.1774,0
Z70113,Origin-New Orleans-LA,LA,USA,29.9436,-90.084,0
Z70115,Origin-New Orleans-LA,LA,USA,29.9273,-90.102,0
Z70121,Origin-New Orleans-LA,LA,USA,29.962,-90.1603,0
Z70123,Origin-New Orleans-LA,LA,USA,29.9527,-90.2053,0
Z70126,Origin-New Orleans-LA,LA,USA,30.0161,-90.0197,0
Z70127,Origin-New Orleans-LA,LA,USA,30.0335,-89.9773,0
Z70129,Origin-New Orleans-LA,LA,USA,30.0631,-89.8851,0
Z70130,Origin-New Orleans-LA,LA,USA,29.938,-90.0719,0
Z70341,Origin-Belle Rose-LA,LA,USA,30.0309,-91.0757,0
Z70346,Origin-Donaldsonville-LA,LA,USA,30.1039,-91.001,0
Z70353,Origin-Dulac-LA,LA,USA,29.3848,-90.6969,0
Z70364,Origin-Houma-LA,LA,USA,29.627,-90.7207,0
Z70391,Origin-Paincourtville-LA,LA,USA,29.9911,-91.0545,0
Z70427,Origin-Bogalusa-LA,LA,USA,30.763,-89.8777,0
Z70443,Origin-Independence-LA,LA,USA,30.6288,-90.5174,0
Z70448,Origin-Mandeville-LA,LA,USA,30.3672,-90.06,0
Z70501,Origin-Lafayette-LA,LA,USA,30.2334,-92.0096,0
Z70517,Origin-Breaux Bridge-LA,LA,USA,30.3013,-91.8616,0
Z70519,Origin-Cade-LA,LA,USA,30.0798,-91.9113,0
Z70535,Origin-Eunice-LA,LA,USA,30.4929,-92.4157,0
Z70546,Origin-Jennings-LA,LA,USA,30.2426,-92.6637,0
Z70570,Origin-Opelousas-LA,LA,USA,30.531,-92.0951,0
Z70577,Origin-Port Barre-LA,LA,USA,30.5492,-91.93,0
Z70582,Origin-Saint Martinville-LA,LA,USA,30.1486,-91.8003,0
Z70586,Origin-Ville Platte-LA,LA,USA,30.7107,-92.3062,0
Z70737,Origin-Gonzales-LA,LA,USA,30.2292,-90.9225,0
Z70760,Origin-New Roads-LA,LA,USA,30.7004,-91.4403,0
Z70776,Origin-Saint Gabriel-LA,LA,USA,30.2647,-91.0959,0
Z70805,Origin-Baton Rouge-LA,LA,USA,30.4857,-91.156,0
Z70806,Origin-Baton Rouge-LA,LA,USA,30.445,-91.138,0
Z70821,Origin-Baton Rouge-LA,LA,USA,30.4613,-91.0447,0
Z71019,Origin-Coushatta-LA,LA,USA,32.0501,-93.3193,0
Z71033,Origin-Greenwood-LA,LA,USA,32.4531,-93.9968,0
Z71101,Origin-Shreveport-LA,LA,USA,32.5054,-93.7486,0
Z71109,Origin-Shreveport-LA,LA,USA,32.4745,-93.8001,0
Z71203,Origin-Monroe-LA,LA,USA,32.5471,-92.0438,0
Z71232,Origin-Delhi-LA,LA,USA,32.4387,-91.508,0
Z71457,Origin-Natchitoches-LA,LA,USA,31.7513,-93.0902,0
Z71742,Origin-Fordyce-AR,AR,USA,33.8342,-92.4341,0
Z71852,Origin-Nashville-AR,AR,USA,33.9856,-93.8521,0
Z71901,Origin-Hot Springs National Park-AR,AR,USA,34.5065,-93.0194,0
Z71902,Origin-Hot Springs National Park-AR,AR,USA,34.5814,-93.0993,0
Z71909,Origin-Hot Springs Village-AR,AR,USA,34.6577,-92.9811,0
Z71913,Origin-Hot Springs National Park-AR,AR,USA,34.4707,-93.088,0
Z72042,Origin-De Witt-AR,AR,USA,34.2833,-91.3251,0
Z72110,Origin-Morrilton-AR,AR,USA,35.1566,-92.7586,0
Z72114,Origin-North Little Rock-AR,AR,USA,34.764,-92.2645,0
Z72115,Origin-North Little Rock-AR,AR,USA,34.7519,-92.3924,0
Z72117,Destination-North Little Rock-AR,AR,USA,34.7773,-92.1791,1
Z72160,Origin-Stuttgart-AR,AR,USA,34.4799,-91.5384,0
Z72204,Origin-Little Rock-AR,AR,USA,34.7292,-92.3401,0
Z72206,Origin-Little Rock-AR,AR,USA,34.6908,-92.2686,0
Z72209,Origin-Little Rock-AR,AR,USA,34.6742,-92.3555,0
Z72214,Origin-Little Rock-AR,AR,USA,34.7622,-92.2282,0
Z72301,Origin-West Memphis-AR,AR,USA,35.15,-90.1763,0
Z72401,Origin-Jonesboro-AR,AR,USA,35.8448,-90.6844,0
Z72601,Origin-Harrison-AR,AR,USA,36.237,-93.0934,0
Z72616,Origin-Berryville-AR,AR,USA,36.3508,-93.5632,0
Z72701,Origin-Fayetteville-AR,AR,USA,36.0405,-94.1337,0
Z72756,Origin-Rogers-AR,AR,USA,36.3423,-94.0714,0
Z72761,Origin-Siloam Springs-AR,AR,USA,36.18,-94.502,0
Z72764,Origin-Springdale-AR,AR,USA,36.1824,-94.1081,0
Z72774,Origin-West Fork-AR,AR,USA,35.8963,-94.1966,0
Z72801,Origin-Russellville-AR,AR,USA,35.2785,-93.1367,0
Z72802,Origin-Russellville-AR,AR,USA,35.3089,-93.109,0
Z72830,Origin-Clarksville-AR,AR,USA,35.4902,-93.485,0
Z72833,Origin-Danville-AR,AR,USA,35.0441,-93.4194,0
Z72901,Origin-Fort Smith-AR,AR,USA,35.3739,-94.4137,0
Z72904,Origin-Fort Smith-AR,AR,USA,35.4062,-94.3909,0
Z72956,Origin-Van Buren-AR,AR,USA,35.4566,-94.3458,0
Z73010,Origin-Blanchard-OK,OK,USA,35.1184,-97.6638,0
Z73030,Origin-Davis-OK,OK,USA,34.486,-97.1474,0
Z73036,Origin-El Reno-OK,OK,USA,35.5191,-97.9553,0
Z73069,Origin-Norman-OK,OK,USA,35.2287,-97.4563,0
Z73072,Origin-Norman-OK,OK,USA,35.2127,-97.4867,0
Z73099,Origin-Yukon-OK,OK,USA,35.5062,-97.7481,0
Z73106,Origin-Oklahoma City-OK,OK,USA,35.4824,-97.5349,0
Z73108,Origin-Oklahoma City-OK,OK,USA,35.4472,-97.5582,0
Z73109,Origin-Oklahoma City-OK,OK,USA,35.4337,-97.5249,0
Z73114,Destination-Oklahoma City-OK,OK,USA,35.5688,-97.5254,1
Z73116,Origin-Oklahoma City-OK,OK,USA,35.5449,-97.5563,0
Z73125,Origin-Oklahoma City-OK,OK,USA,35.4655,-97.5218,0
Z73127,Origin-Oklahoma City-OK,OK,USA,35.4815,-97.6422,0
Z73131,Destination-Oklahoma City-OK,OK,USA,35.5765,-97.4692,1
Z73137,Origin-Oklahoma City-OK,OK,USA,35.5514,-97.4075,0
Z73149,Origin-Oklahoma City-OK,OK,USA,35.3954,-97.4969,0
Z73179,Origin-Oklahoma City-OK,OK,USA,35.4169,-97.6279,0
Z73401,Origin-Ardmore-OK,OK,USA,34.1848,-97.1264,0
Z73701,Origin-Enid-OK,OK,USA,36.4111,-97.8503,0
Z73717,Origin-Alva-OK,OK,USA,36.805,-98.6971,0
Z73762,Origin-Okarche-OK,OK,USA,35.7137,-97.9721,0
Z73942,Origin-Guymon-OK,OK,USA,36.7395,-101.488,0
Z74110,Origin-Tulsa-OK,OK,USA,36.1812,-95.9542,0
Z74112,Origin-Tulsa-OK,OK,USA,36.1485,-95.9084,0
Z74115,Origin-Tulsa-OK,OK,USA,36.1802,-95.9113,0
Z74116,Origin-Tulsa-OK,OK,USA,36.1695,-95.8241,0
Z74117,Origin-Tulsa-OK,OK,USA,36.236,-95.8851,0
Z74120,Origin-Tulsa-OK,OK,USA,36.1512,-95.9774,0
Z74146,Origin-Tulsa-OK,OK,USA,36.1021,-95.8524,0
Z74301,Origin-Vinita-OK,OK,USA,36.6318,-95.173,0
Z74354,Origin-Miami-OK,OK,USA,36.8807,-94.8714,0
Z74361,Origin-Pryor-OK,OK,USA,36.2942,-95.3029,0
Z74403,Origin-Muskogee-OK,OK,USA,35.72,-95.3369,0
Z74602,Origin-Ponca City-OK,OK,USA,36.6954,-97.1377,0
Z74801,Origin-Shawnee-OK,OK,USA,35.3274,-96.9354,0
Z74948,Origin-Muldrow-OK,OK,USA,35.4318,-94.5657,0
Z75006,Origin-Carrollton-TX,TX,USA,32.9604,-96.8916,0
Z75007,Origin-Carrollton-TX,TX,USA,33.0054,-96.8976,0
Z75019,Origin-Coppell-TX,TX,USA,32.9674,-96.9865,0
Z75020,Origin-Denison-TX,TX,USA,33.7541,-96.5787,0
Z75024,Origin-Plano-TX,TX,USA,33.0771,-96.7985,0
Z75040,Origin-Garland-TX,TX,USA,32.9206,-96.6264,0
Z75041,Origin-Garland-TX,TX,USA,32.8816,-96.646,0
Z75042,Destination-Garland-TX,TX,USA,32.9157,-96.6739,1
Z75050,Origin-Grand Prairie-TX,TX,USA,32.76,-97.0121,0
Z75051,Origin-Grand Prairie-TX,TX,USA,32.729,-97.0042,0
Z75052,Origin-Grand Prairie-TX,TX,USA,32.6757,-97.0234,0
Z75056,Origin-The Colony-TX,TX,USA,33.0815,-96.8895,0
Z75057,Origin-Lewisville-TX,TX,USA,33.0487,-96.9931,0
Z75061,Origin-Irving-TX,TX,USA,32.8268,-96.9614,0
Z75067,Origin-Lewisville-TX,TX,USA,33.0201,-97.0077,0
Z75069,Origin-McKinney-TX,TX,USA,33.1951,-96.6036,0
Z75070,Origin-McKinney-TX,TX,USA,33.2123,-96.6752,0
Z75075,Origin-Plano-TX,TX,USA,33.0248,-96.7403,0
Z75081,Origin-Richardson-TX,TX,USA,32.9491,-96.7092,0
Z75110,Origin-Corsicana-TX,TX,USA,32.0783,-96.4461,0
Z75119,Origin-Ennis-TX,TX,USA,32.3313,-96.6196,0
Z75134,Origin-Lancaster-TX,TX,USA,32.6204,-96.7812,0
Z75137,Origin-Duncanville-TX,TX,USA,32.6349,-96.9134,0
Z75140,Origin-Grand Saline-TX,TX,USA,32.6613,-95.7174,0
Z75149,Origin-Mesquite-TX,TX,USA,32.7674,-96.6075,0
Z75160,Origin-Terrell-TX,TX,USA,32.7478,-96.2892,0
Z75165,Origin-Waxahachie-TX,TX,USA,32.3971,-96.8328,0
Z75172,Origin-Wilmer-TX,TX,USA,32.5989,-96.683,0
Z75182,Origin-Sunnyvale-TX,TX,USA,32.8037,-96.5696,0
Z75201,Origin-Dallas-TX,TX,USA,32.7877,-96.7993,0
Z75206,Origin-Dallas-TX,TX,USA,32.8262,-96.7712,0
Z75207,Origin-Dallas-TX,TX,USA,32.7865,-96.8199,0
Z75212,Origin-Dallas-TX,TX,USA,32.7824,-96.8694,0
Z75215,Origin-Dallas-TX,TX,USA,32.761,-96.7703,0
Z75218,Origin-Dallas-TX,TX,USA,32.8428,-96.6993,0
Z75220,Origin-Dallas-TX,TX,USA,32.868,-96.8631,0
Z75222,Origin-Dallas-TX,TX,USA,32.7673,-96.7775,0
Z75223,Origin-Dallas-TX,TX,USA,32.793,-96.7491,0
Z75226,Origin-Dallas-TX,TX,USA,32.784,-96.7766,0
Z75227,Origin-Dallas-TX,TX,USA,32.7701,-96.69,0
Z75228,Origin-Dallas-TX,TX,USA,32.8252,-96.6795,0
Z75229,Origin-Dallas-TX,TX,USA,32.8954,-96.8597,0
Z75230,Origin-Dallas-TX,TX,USA,32.9013,-96.7905,0
Z75233,Origin-Dallas-TX,TX,USA,32.7044,-96.8722,0
Z75234,Origin-Dallas-TX,TX,USA,32.926,-96.8832,0
Z75235,Origin-Dallas-TX,TX,USA,32.8282,-96.8461,0
Z75236,Origin-Dallas-TX,TX,USA,32.6856,-96.9174,0
Z75237,Origin-Dallas-TX,TX,USA,32.667,-96.8763,0
Z75238,Origin-Dallas-TX,TX,USA,32.8739,-96.7092,0
Z75243,Origin-Dallas-TX,TX,USA,32.9123,-96.7369,0
Z75244,Origin-Dallas-TX,TX,USA,32.9227,-96.8361,0
Z75247,Origin-Dallas-TX,TX,USA,32.818,-96.8792,0
Z75402,Origin-Greenville-TX,TX,USA,33.0825,-96.0897,0
Z75426,Origin-Clarksville-TX,TX,USA,33.6265,-95.0353,0
Z75455,Origin-Mount Pleasant-TX,TX,USA,33.1668,-94.9814,0
Z75460,Origin-Paris-TX,TX,USA,33.6603,-95.5595,0
Z75482,Origin-Sulphur Springs-TX,TX,USA,33.1438,-95.6009,0
Z75603,Origin-Longview-TX,TX,USA,32.3962,-94.7005,0
Z75604,Origin-Longview-TX,TX,USA,32.5239,-94.8068,0
Z75633,Origin-Carthage-TX,TX,USA,32.1452,-94.3125,0
Z75652,Origin-Henderson-TX,TX,USA,32.195,-94.7584,0
Z75656,Origin-Hughes Springs-TX,TX,USA,32.9988,-94.6194,0
Z75657,Origin-Jefferson-TX,TX,USA,32.768,-94.3491,0
Z75662,Origin-Kilgore-TX,TX,USA,32.3872,-94.8744,0
Z75686,Origin-Pittsburg-TX,TX,USA,32.9771,-94.9681,0
Z75704,Origin-Tyler-TX,TX,USA,32.3887,-95.4137,0
Z75708,Origin-Tyler-TX,TX,USA,32.4034,-95.2227,0
Z75765,Origin-Hawkins-TX,TX,USA,32.6172,-95.2244,0
Z75801,Origin-Palestine-TX,TX,USA,31.7795,-95.6332,0
Z76010,Origin-Arlington-TX,TX,USA,32.7235,-97.0849,0
Z76011,Origin-Arlington-TX,TX,USA,32.7538,-97.087,0
Z76015,Origin-Arlington-TX,TX,USA,32.6914,-97.1354,0
Z76051,Origin-Grapevine-TX,TX,USA,32.932,-97.0849,0
Z76102,Origin-Fort Worth-TX,TX,USA,32.7539,-97.3298,0
Z76104,Origin-Fort Worth-TX,TX,USA,32.7303,-97.3199,0
Z76106,Origin-Fort Worth-TX,TX,USA,32.7985,-97.3539,0
Z76107,Origin-Fort Worth-TX,TX,USA,32.7385,-97.3842,0
Z76110,Origin-Fort Worth-TX,TX,USA,32.7063,-97.3379,0
Z76111,Origin-Fort Worth-TX,TX,USA,32.7785,-97.301,0
Z76117,Origin-Haltom City-TX,TX,USA,32.8054,-97.2703,0
Z76131,Origin-Fort Worth-TX,TX,USA,32.8731,-97.3462,0
Z76133,Origin-Fort Worth-TX,TX,USA,32.6555,-97.3776,0
Z76134,Origin-Fort Worth-TX,TX,USA,32.6499,-97.3336,0
Z76137,Origin-Fort Worth-TX,TX,USA,32.8682,-97.2856,0
Z76140,Origin-Fort Worth-TX,TX,USA,32.6304,-97.271,0
Z76164,Origin-Fort Worth-TX,TX,USA,32.7714,-97.2915,0
Z76177,Origin-Fort Worth-TX,TX,USA,32.9499,-97.3141,0
Z76179,Origin-Fort Worth-TX,TX,USA,32.8766,-97.4124,0
Z76201,Origin-Denton-TX,TX,USA,33.2267,-97.1306,0
Z76203,Origin-Denton-TX,TX,USA,33.2465,-97.127,0
Z76259,Origin-Ponder-TX,TX,USA,33.1877,-97.2968,0
Z76262,Origin-Roanoke-TX,TX,USA,33.0002,-97.2187,0
Z76273,Origin-Whitesboro-TX,TX,USA,33.706,-96.9178,0
Z76384,Origin-Vernon-TX,TX,USA,34.1421,-99.2964,0
Z76442,Origin-Comanche-TX,TX,USA,31.9067,-98.6062,0
Z76446,Origin-Dublin-TX,TX,USA,32.0789,-98.3506,0
Z76503,Origin-Temple-TX,TX,USA,31.054,-97.3202,0
Z76504,Origin-Temple-TX,TX,USA,31.0995,-97.3576,0
Z76705,Origin-Waco-TX,TX,USA,31.6099,-97.0882,0
Z76712,Origin-Woodway-TX,TX,USA,31.5141,-97.2354,0
Z76877,Origin-San Saba-TX,TX,USA,31.1909,-98.7413,0
Z76905,Origin-San Angelo-TX,TX,USA,31.5157,-100.349,0
Z77003,Origin-Houston-TX,TX,USA,29.7493,-95.3474,0
Z77007,Origin-Houston-TX,TX,USA,29.7727,-95.4031,0
Z77008,Origin-Houston-TX,TX,USA,29.7988,-95.4095,0
Z77009,Origin-Houston-TX,TX,USA,29.7933,-95.3673,0
Z77013,Origin-Houston-TX,TX,USA,29.7815,-95.2428,0
Z77020,Origin-Houston-TX,TX,USA,29.776,-95.3183,0
Z77022,Origin-Houston-TX,TX,USA,29.8252,-95.378,0
Z77029,Origin-Houston-TX,TX,USA,29.7609,-95.2604,0
Z77032,Destination-Houston-TX,TX,USA,29.945,-95.3415,1
Z77033,Origin-Houston-TX,TX,USA,29.6692,-95.3383,0
Z77036,Origin-Houston-TX,TX,USA,29.7006,-95.5351,0
Z77040,Origin-Houston-TX,TX,USA,29.8784,-95.5334,0
Z77041,Origin-Houston-TX,TX,USA,29.8588,-95.5723,0
Z77043,Origin-Houston-TX,TX,USA,29.8026,-95.5617,0
Z77051,Origin-Houston-TX,TX,USA,29.6655,-95.3687,0
Z77053,Origin-Houston-TX,TX,USA,29.5968,-95.4598,0
Z77054,Origin-Houston-TX,TX,USA,29.6839,-95.3977,0
Z77055,Origin-Houston-TX,TX,USA,29.799,-95.4963,0
Z77061,Origin-Houston-TX,TX,USA,29.6603,-95.2844,0
Z77063,Origin-Houston-TX,TX,USA,29.7345,-95.5226,0
Z77066,Origin-Houston-TX,TX,USA,29.9595,-95.4968,0
Z77073,Origin-Houston-TX,TX,USA,30.0088,-95.4127,0
Z77090,Origin-Houston-TX,TX,USA,30.0128,-95.4513,0
Z77091,Origin-Houston-TX,TX,USA,29.8531,-95.4358,0
Z77099,Origin-Houston-TX,TX,USA,29.6685,-95.5869,0
Z77289,Origin-Houston-TX,TX,USA,29.834,-95.4342,0
Z77305,Origin-Conroe-TX,TX,USA,30.2907,-95.3831,0
Z77338,Origin-Humble-TX,TX,USA,30.0057,-95.2848,0
Z77347,Origin-Humble-TX,TX,USA,29.8341,-95.4342,0
Z77379,Origin-Spring-TX,TX,USA,30.0248,-95.5321,0
Z77380,Origin-Spring-TX,TX,USA,30.1435,-95.4682,0
Z77385,Destination-Conroe-TX,TX,USA,30.1878,-95.4388,1
Z77396,Origin-Humble-TX,TX,USA,29.9517,-95.2678,0
Z77434,Origin-Eagle Lake-TX,TX,USA,29.5755,-96.3208,0
Z77477,Origin-Stafford-TX,TX,USA,29.6262,-95.5714,0
Z77478,Origin-Sugar Land-TX,TX,USA,29.6278,-95.6244,0
Z77489,Origin-Missouri City-TX,TX,USA,29.6012,-95.5177,0
Z77507,Origin-Pasadena-TX,TX,USA,29.6248,-95.0611,0
Z77515,Origin-Angleton-TX,TX,USA,29.1687,-95.4453,0
Z77520,Origin-Baytown-TX,TX,USA,29.7488,-94.9438,0
Z77536,Origin-Deer Park-TX,TX,USA,29.6877,-95.1201,0
Z77541,Origin-Freeport-TX,TX,USA,28.9753,-95.3435,0
Z77550,Origin-Galveston-TX,TX,USA,29.2985,-94.7931,0
Z77551,Origin-Galveston-TX,TX,USA,29.2799,-94.8268,0
Z77571,Origin-La Porte-TX,TX,USA,29.6668,-95.0448,0
Z77705,Origin-Beaumont-TX,TX,USA,30.0096,-94.1139,0
Z77833,Origin-Brenham-TX,TX,USA,30.1837,-96.4025,0
Z77971,Origin-Lolita-TX,TX,USA,28.8532,-96.5273,0
Z77995,Origin-Yoakum-TX,TX,USA,29.2547,-97.1304,0
Z78004,Origin-Bergheim-TX,TX,USA,29.9036,-98.5579,0
Z78006,Origin-Boerne-TX,TX,USA,29.8517,-98.7293,0
Z78043,Origin-Laredo-TX,TX,USA,27.5387,-99.3827,0
Z78045,Origin-Laredo-TX,TX,USA,27.6488,-99.5336,0
Z78140,Origin-Nixon-TX,TX,USA,29.2927,-97.7616,0
Z78154,Origin-Schertz-TX,TX,USA,29.5774,-98.2786,0
Z78201,Origin-San Antonio-TX,TX,USA,29.4669,-98.5251,0
Z78204,Origin-San Antonio-TX,TX,USA,29.4037,-98.5063,0
Z78205,Origin-San Antonio-TX,TX,USA,29.426,-98.4892,0
Z78207,Origin-San Antonio-TX,TX,USA,29.424,-98.5234,0
Z78216,Origin-San Antonio-TX,TX,USA,29.5285,-98.4921,0
Z78218,Origin-San Antonio-TX,TX,USA,29.4943,-98.4043,0
Z78219,Origin-San Antonio-TX,TX,USA,29.4484,-98.399,0
Z78220,Origin-San Antonio-TX,TX,USA,29.4116,-98.4182,0
Z78223,Origin-San Antonio-TX,TX,USA,29.3524,-98.4321,0
Z78226,Origin-San Antonio-TX,TX,USA,29.3922,-98.5546,0
Z78227,Origin-San Antonio-TX,TX,USA,29.4054,-98.6383,0
Z78233,Origin-San Antonio-TX,TX,USA,29.5521,-98.3677,0
Z78247,Origin-San Antonio-TX,TX,USA,29.5814,-98.4089,0
Z78291,Origin-San Antonio-TX,TX,USA,29.4376,-98.4615,0
Z78404,Origin-Corpus Christi-TX,TX,USA,27.7701,-97.4,0
Z78406,Origin-Corpus Christi-TX,TX,USA,27.7764,-97.5124,0
Z78408,Origin-Corpus Christi-TX,TX,USA,27.7962,-97.4379,0
Z78503,Origin-Mcallen-TX,TX,USA,26.1721,-98.2503,0
Z78521,Origin-Brownsville-TX,TX,USA,25.9188,-97.4274,0
Z78537,Origin-Donna-TX,TX,USA,26.1654,-98.0556,0
Z78540,Origin-Edinburg-TX,TX,USA,26.3195,-98.1908,0
Z78541,Origin-Edinburg-TX,TX,USA,26.3195,-98.1548,0
Z78557,Origin-Hidalgo-TX,TX,USA,26.1057,-98.2463,0
Z78572,Origin-Mission-TX,TX,USA,26.2345,-98.342,0
Z78574,Origin-Sebastian-TX,TX,USA,26.2441,-98.3117,0
Z78577,Origin-Pharr-TX,TX,USA,26.2013,-98.1861,0
Z78578,Origin-Port Isabel-TX,TX,USA,26.0805,-97.2502,0
Z78580,Origin-Raymondville-TX,TX,USA,26.5003,-97.8101,0
Z78589,Origin-San Juan-TX,TX,USA,26.1905,-98.1529,0
Z78610,Destination-Buda-TX,TX,USA,30.0771,-97.8178,1
Z78624,Origin-Fredericksburg-TX,TX,USA,30.2794,-98.8839,0
Z78629,Origin-Gonzales-TX,TX,USA,29.5104,-97.4534,0
Z78643,Origin-Llano-TX,TX,USA,30.7213,-98.6655,0
Z78644,Origin-Lockhart-TX,TX,USA,29.8722,-97.6809,0
Z78660,Origin-Pflugerville-TX,TX,USA,30.4502,-97.6229,0
Z78681,Origin-Round Rock-TX,TX,USA,30.519,-97.7143,0
Z78702,Origin-Austin-TX,TX,USA,30.2652,-97.7187,0
Z78704,Origin-Austin-TX,TX,USA,30.2464,-97.7608,0
Z78721,Origin-Austin-TX,TX,USA,30.2729,-97.6866,0
Z78728,Origin-Austin-TX,TX,USA,30.4518,-97.6798,0
Z78729,Origin-Austin-TX,TX,USA,30.4514,-97.7659,0
Z78738,Origin-Austin-TX,TX,USA,30.3401,-97.9886,0
Z78744,Origin-Austin-TX,TX,USA,30.1884,-97.7404,0
Z78745,Origin-Austin-TX,TX,USA,30.2077,-97.7957,0
Z78748,Origin-Austin-TX,TX,USA,30.1721,-97.8226,0
Z78753,Origin-Austin-TX,TX,USA,30.3747,-97.6761,0
Z78757,Origin-Austin-TX,TX,USA,30.3495,-97.7332,0
Z78758,Origin-Austin-TX,TX,USA,30.3842,-97.7039,0
Z78852,Origin-Eagle Pass-TX,TX,USA,28.7163,-100.481,0
Z78962,Origin-Weimar-TX,TX,USA,29.6984,-96.7593,0
Z79022,Origin-Dalhart-TX,TX,USA,36.0903,-102.608,0
Z79025,Origin-Dawn-TX,TX,USA,34.9277,-102.22,0
Z79045,Origin-Hereford-TX,TX,USA,34.8549,-102.418,0
Z79101,Origin-Amarillo-TX,TX,USA,35.2065,-101.839,0
Z79107,Origin-Amarillo-TX,TX,USA,35.2283,-101.819,0
Z79108,Origin-Amarillo-TX,TX,USA,35.297,-101.786,0
Z79347,Origin-Muleshoe-TX,TX,USA,34.2069,-102.785,0
Z79401,Origin-Lubbock-TX,TX,USA,33.579,-101.832,0
Z79404,Destination-Lubbock-TX,TX,USA,33.5499,-101.826,1
Z79408,Origin-Lubbock-TX,TX,USA,33.566,-101.927,0
Z79415,Origin-Lubbock-TX,TX,USA,33.624,-101.881,0
Z79423,Origin-Lubbock-TX,TX,USA,33.4967,-101.869,0
Z79603,Origin-Abilene-TX,TX,USA,32.4668,-99.7693,0
Z79761,Origin-Odessa-TX,TX,USA,31.8545,-102.359,0
Z79838,Origin-Fabens-TX,TX,USA,31.4907,-106.154,0
Z79905,Origin-El Paso-TX,TX,USA,31.7688,-106.43,0
Z79912,Origin-El Paso-TX,TX,USA,31.8481,-106.545,0
Z79915,Origin-El Paso-TX,TX,USA,31.7431,-106.37,0
Z79924,Origin-El Paso-TX,TX,USA,31.9018,-106.418,0
Z79928,Origin-El Paso-TX,TX,USA,31.6748,-106.197,0
Z79934,Origin-El Paso-TX,TX,USA,31.9437,-106.424,0
Z79936,Origin-El Paso-TX,TX,USA,31.7664,-106.298,0
Z80011,Origin-Aurora-CO,CO,USA,39.7398,-104.809,0
Z80015,Origin-Aurora-CO,CO,USA,39.624,-104.777,0
Z80022,Origin-Commerce City-CO,CO,USA,39.8366,-104.904,0
Z80027,Origin-Louisville-CO,CO,USA,39.9634,-105.15,0
Z80104,Origin-Castle Rock-CO,CO,USA,39.3852,-104.86,0
Z80110,Origin-Englewood-CO,CO,USA,39.6469,-104.991,0
Z80111,Destination-Englewood-CO,CO,USA,39.6105,-104.881,1
Z80204,Origin-Denver-CO,CO,USA,39.7348,-105.02,0
Z80205,Origin-Denver-CO,CO,USA,39.7591,-104.967,0
Z80207,Origin-Denver-CO,CO,USA,39.7595,-104.919,0
Z80211,Origin-Denver-CO,CO,USA,39.7676,-105.02,0
Z80212,Origin-Denver-CO,CO,USA,39.7704,-105.047,0
Z80216,Origin-Denver-CO,CO,USA,39.7847,-104.962,0
Z80219,Origin-Denver-CO,CO,USA,39.6982,-105.035,0
Z80220,Origin-Denver-CO,CO,USA,39.7344,-104.917,0
Z80221,Origin-Denver-CO,CO,USA,39.8166,-105.011,0
Z80223,Origin-Denver-CO,CO,USA,39.6992,-105,0
Z80229,Origin-Denver-CO,CO,USA,39.8597,-104.959,0
Z80231,Origin-Denver-CO,CO,USA,39.6817,-104.883,0
Z80238,Origin-Denver-CO,CO,USA,39.7388,-104.408,0
Z80239,Origin-Denver-CO,CO,USA,39.7882,-104.83,0
Z80246,Origin-Denver-CO,CO,USA,39.7054,-104.931,0
Z80301,Origin-Boulder-CO,CO,USA,40.0445,-105.219,0
Z80403,Origin-Golden-CO,CO,USA,39.828,-105.322,0
Z80501,Origin-Longmont-CO,CO,USA,40.1715,-105.1,0
Z80504,Origin-Longmont-CO,CO,USA,40.1602,-105.018,0
Z80524,Origin-Fort Collins-CO,CO,USA,40.607,-105.051,0
Z80537,Origin-Loveland-CO,CO,USA,40.3837,-105.103,0
Z80538,Origin-Loveland-CO,CO,USA,40.4357,-105.087,0
Z80549,Origin-Wellington-CO,CO,USA,40.7623,-105.012,0
Z80601,Origin-Brighton-CO,CO,USA,39.9733,-104.824,0
Z80621,Origin-Fort Lupton-CO,CO,USA,40.0904,-104.797,0
Z80631,Origin-Greeley-CO,CO,USA,40.4219,-104.692,0
Z80640,Origin-Henderson-CO,CO,USA,39.8852,-104.883,0
Z80642,Origin-Hudson-CO,CO,USA,40.0606,-104.629,0
Z80701,Origin-Fort Morgan-CO,CO,USA,40.2264,-103.806,0
Z80744,Origin-Ovid-CO,CO,USA,40.8882,-102.373,0
Z80751,Origin-Sterling-CO,CO,USA,40.6339,-103.216,0
Z80758,Origin-Wray-CO,CO,USA,40.0648,-102.213,0
Z80759,Origin-Yuma-CO,CO,USA,40.1693,-102.69,0
Z80907,Origin-Colorado Springs-CO,CO,USA,38.8738,-104.819,0
Z81001,Origin-Pueblo-CO,CO,USA,38.2829,-104.57,0
Z81002,Origin-Pueblo-CO,CO,USA,38.1287,-104.552,0
Z81003,Origin-Pueblo-CO,CO,USA,38.2811,-104.626,0
Z81006,Origin-Pueblo-CO,CO,USA,38.2434,-104.529,0
Z81067,Origin-Rocky Ford-CO,CO,USA,38.0421,-103.722,0
Z81125,Origin-Center-CO,CO,USA,37.7739,-106.09,0
Z81144,Origin-Monte Vista-CO,CO,USA,37.5696,-106.149,0
Z81211,Origin-Buena Vista-CO,CO,USA,38.8672,-106.147,0
Z81321,Origin-Cortez-CO,CO,USA,37.3451,-108.603,0
Z83001,Origin-Jackson-WY,WY,USA,43.4684,-110.757,0
Z83201,Origin-Pocatello-ID,ID,USA,42.8833,-112.44,0
Z83210,Origin-Aberdeen-ID,ID,USA,42.9723,-112.832,0
Z83211,Origin-American Falls-ID,ID,USA,42.7516,-112.919,0
Z83221,Origin-Blackfoot-ID,ID,USA,43.2113,-112.395,0
Z83274,Origin-Shelley-ID,ID,USA,43.3661,-112.117,0
Z83301,Origin-Twin Falls-ID,ID,USA,42.5304,-114.475,0
Z83303,Origin-Twin Falls-ID,ID,USA,42.4563,-114.519,0
Z83318,Origin-Burley-ID,ID,USA,42.4967,-113.798,0
Z83334,Origin-Hansen-ID,ID,USA,42.4821,-114.299,0
Z83336,Origin-Heyburn-ID,ID,USA,42.5629,-113.786,0
Z83338,Origin-Jerome-ID,ID,USA,42.7102,-114.464,0
Z83347,Origin-Paul-ID,ID,USA,42.7156,-113.863,0
Z83350,Origin-Rupert-ID,ID,USA,42.6711,-113.63,0
Z83401,Origin-Idaho Falls-ID,ID,USA,43.5289,-111.981,0
Z83402,Origin-Idaho Falls-ID,ID,USA,43.4978,-112.074,0
Z83406,Origin-Idaho Falls-ID,ID,USA,43.4581,-111.959,0
Z83425,Origin-Hamer-ID,ID,USA,43.9518,-112.232,0
Z83431,Origin-Lewisville-ID,ID,USA,43.6949,-112.015,0
Z83440,Origin-Rexburg-ID,ID,USA,43.8099,-111.809,0
Z83442,Origin-Rigby-ID,ID,USA,43.6752,-111.874,0
Z83448,Origin-Sugar City-ID,ID,USA,43.8601,-111.709,0
Z83605,Origin-Caldwell-ID,ID,USA,43.6589,-116.678,0
Z83616,Origin-Eagle-ID,ID,USA,43.7056,-116.363,0
Z83651,Origin-Nampa-ID,ID,USA,43.5835,-116.587,0
Z83656,Origin-Notus-ID,ID,USA,43.7256,-116.801,0
Z83660,Origin-Parma-ID,ID,USA,43.7904,-116.935,0
Z83661,Origin-Payette-ID,ID,USA,44.08,-116.894,0
Z83676,Origin-Wilder-ID,ID,USA,43.654,-116.901,0
Z83687,Origin-Nampa-ID,ID,USA,43.5903,-116.538,0
Z83702,Origin-Boise-ID,ID,USA,43.6278,-116.208,0
Z83705,Origin-Boise-ID,ID,USA,43.5831,-116.225,0
Z83709,Origin-Boise-ID,ID,USA,43.5727,-116.295,0
Z83713,Origin-Boise-ID,ID,USA,43.6384,-116.331,0
Z83716,Origin-Boise-ID,ID,USA,43.6018,-116.027,0
Z83854,Origin-Post Falls-ID,ID,USA,47.7203,-116.946,0
Z84010,Origin-Bountiful-UT,UT,USA,40.8763,-111.872,0
Z84016,Origin-Clearfield-UT,UT,USA,40.893,-111.888,0
Z84017,Origin-Coalville-UT,UT,USA,40.8811,-111.377,0
Z84032,Origin-Heber City-UT,UT,USA,40.5114,-111.333,0
Z84036,Origin-Kamas-UT,UT,USA,40.626,-111.201,0
Z84057,Origin-Orem-UT,UT,USA,40.3119,-111.706,0
Z84074,Origin-Tooele-UT,UT,USA,40.5606,-112.294,0
Z84075,Origin-Syracuse-UT,UT,USA,41.0861,-112.063,0
Z84088,Origin-West Jordan-UT,UT,USA,40.5943,-111.979,0
Z84101,Origin-Salt Lake City-UT,UT,USA,40.7548,-111.899,0
Z84104,Origin-Salt Lake City-UT,UT,USA,40.7507,-111.941,0
Z84107,Origin-Salt Lake City-UT,UT,USA,40.6601,-111.884,0
Z84110,Origin-Salt Lake City-UT,UT,USA,40.6681,-111.908,0
Z84115,Origin-Salt Lake City-UT,UT,USA,40.7182,-111.889,0
Z84116,Origin-Salt Lake City-UT,UT,USA,40.7904,-111.94,0
Z84118,Origin-Salt Lake City-UT,UT,USA,40.6506,-111.996,0
Z84119,Origin-Salt Lake City-UT,UT,USA,40.6967,-111.952,0
Z84126,Origin-Salt Lake City-UT,UT,USA,40.66814,-111.9082,0
Z84157,Origin-Salt Lake City-UT,UT,USA,40.66811,-111.9087,0
Z84302,Origin-Brigham City-UT,UT,USA,41.5086,-112.047,0
Z84306,Origin-Collinston-UT,UT,USA,41.8049,-112.07,0
Z84319,Origin-Hyrum-UT,UT,USA,41.6309,-111.845,0
Z84321,Origin-Logan-UT,UT,USA,41.7307,-111.78,0
Z84333,Origin-Richmond-UT,UT,USA,41.9199,-111.817,0
Z84401,Destination-Ogden-UT,UT,USA,41.2249,-111.983,1
Z84405,Origin-Ogden-UT,UT,USA,41.1656,-111.967,0
Z84631,Origin-Fillmore-UT,UT,USA,38.9518,-112.317,0
Z84646,Origin-Moroni-UT,UT,USA,39.5262,-111.583,0
Z84663,Origin-Springville-UT,UT,USA,40.1683,-111.596,0
Z84720,Origin-Cedar City-UT,UT,USA,37.7517,-113.166,0
Z85004,Origin-Phoenix-AZ,AZ,USA,33.4511,-112.071,0
Z85009,Origin-Phoenix-AZ,AZ,USA,33.4564,-112.124,0
Z85017,Origin-Phoenix-AZ,AZ,USA,33.5141,-112.123,0
Z85018,Origin-Phoenix-AZ,AZ,USA,33.4981,-111.986,0
Z85019,Origin-Phoenix-AZ,AZ,USA,33.5121,-112.142,0
Z85021,Origin-Phoenix-AZ,AZ,USA,33.5595,-112.093,0
Z85027,Origin-Phoenix-AZ,AZ,USA,33.6987,-112.114,0
Z85030,Origin-Phoenix-AZ,AZ,USA,33.2766,-112.187,0
Z85040,Origin-Phoenix-AZ,AZ,USA,33.3933,-112.029,0
Z85043,Destination-Phoenix-AZ,AZ,USA,33.4354,-112.2,1
Z85210,Origin-Mesa-AZ,AZ,USA,33.3913,-111.841,0
Z85281,Origin-Tempe-AZ,AZ,USA,33.4269,-111.927,0
Z85282,Origin-Tempe-AZ,AZ,USA,33.3942,-111.929,0
Z85283,Origin-Tempe-AZ,AZ,USA,33.366,-111.932,0
Z85284,Origin-Tempe-AZ,AZ,USA,33.3383,-111.93,0
Z85301,Origin-Glendale-AZ,AZ,USA,33.5342,-112.177,0
Z85303,Origin-Glendale-AZ,AZ,USA,33.5282,-112.222,0
Z85307,Origin-Glendale-AZ,AZ,USA,33.5293,-112.306,0
Z85338,Origin-Goodyear-AZ,AZ,USA,33.4309,-112.385,0
Z85353,Origin-Tolleson-AZ,AZ,USA,33.4265,-112.283,0
Z85364,Origin-Yuma-AZ,AZ,USA,32.7045,-114.646,0
Z85365,Origin-Yuma-AZ,AZ,USA,32.7,-114.527,0
Z85621,Origin-Nogales-AZ,AZ,USA,31.3774,-110.926,0
Z85625,Origin-Pearce-AZ,AZ,USA,31.9119,-109.772,0
Z85640,Origin-Tumacacori-AZ,AZ,USA,31.5864,-111.042,0
Z85646,Origin-Tubac-AZ,AZ,USA,31.6235,-111.063,0
Z85648,Origin-Rio Rico-AZ,AZ,USA,31.4887,-110.989,0
Z85713,Origin-Tucson-AZ,AZ,USA,32.195,-110.976,0
Z85719,Destination-Tucson-AZ,AZ,USA,32.2407,-110.948,1
Z87002,Origin-Belen-NM,NM,USA,34.6469,-106.765,0
Z87102,Origin-Albuquerque-NM,NM,USA,35.084,-106.648,0
Z87105,Origin-Albuquerque-NM,NM,USA,35.0314,-106.687,0
Z87106,Origin-Albuquerque-NM,NM,USA,35.0783,-106.617,0
Z87107,Destination-Albuquerque-NM,NM,USA,35.1342,-106.641,1
Z87114,Origin-Albuquerque-NM,NM,USA,35.1965,-106.673,0
Z87401,Origin-Farmington-NM,NM,USA,36.6254,-108.192,0
Z87937,Origin-Hatch-NM,NM,USA,32.6041,-107.168,0
Z87941,Origin-Salem-NM,NM,USA,32.6999,-107.138,0
Z88001,Origin-Las Cruces-NM,NM,USA,32.3003,-106.761,0
Z88005,Origin-Las Cruces-NM,NM,USA,32.3478,-106.815,0
Z88007,Origin-Las Cruces-NM,NM,USA,32.3561,-106.83,0
Z88029,Origin-Columbus-NM,NM,USA,31.8237,-107.735,0
Z88030,Origin-Deming-NM,NM,USA,32.223,-107.713,0
Z88048,Origin-Mesquite-NM,NM,USA,32.1526,-106.661,0
Z88101,Origin-Clovis-NM,NM,USA,34.4329,-103.226,0
Z89015,Origin-Henderson-NV,NV,USA,36.0309,-114.968,0
Z89019,Origin-Jean-NV,NV,USA,35.802,-115.578,0
Z89030,Origin-North Las Vegas-NV,NV,USA,36.2065,-115.123,0
Z89032,Destination-North Las Vegas-NV,NV,USA,36.2243,-115.176,1
Z89081,Origin-Indian Springs-NV,NV,USA,36.5734,-115.675,0
Z89101,Origin-Las Vegas-NV,NV,USA,36.1703,-115.128,0
Z89103,Origin-Las Vegas-NV,NV,USA,36.1133,-115.218,0
Z89104,Origin-Las Vegas-NV,NV,USA,36.1512,-115.109,0
Z89106,Origin-Las Vegas-NV,NV,USA,36.1843,-115.163,0
Z89115,Origin-Las Vegas-NV,NV,USA,36.2337,-115.069,0
Z89118,Origin-Las Vegas-NV,NV,USA,36.0844,-115.21,0
Z89119,Origin-Las Vegas-NV,NV,USA,36.089,-115.139,0
Z89120,Origin-Las Vegas-NV,NV,USA,36.0877,-115.089,0
Z89139,Origin-Las Vegas-NV,NV,USA,36.032,-115.203,0
Z89406,Origin-Fallon-NV,NV,USA,39.4612,-118.693,0
Z89410,Origin-Gardnerville-NV,NV,USA,38.8787,-119.697,0
Z89431,Origin-Sparks-NV,NV,USA,39.5427,-119.754,0
Z89434,Origin-Sparks-NV,NV,USA,39.5442,-119.7,0
Z89445,Origin-Winnemucca-NV,NV,USA,41.0296,-117.944,0
Z89447,Origin-Yerington-NV,NV,USA,38.9468,-119.115,0
Z89460,Origin-Gardnerville Ranchos-NV,NV,USA,38.9034,-119.763,0
Z89506,Destination-Reno-NV,NV,USA,39.6599,-119.879,1
Z89509,Origin-Reno-NV,NV,USA,39.4963,-119.831,0
Z89512,Origin-Reno-NV,NV,USA,39.5464,-119.797,0
Z89521,Origin-Reno-NV,NV,USA,39.3954,-119.727,0
Z89706,Origin-Carson City-NV,NV,USA,39.2,-119.727,0
Z90001,Origin-Los Angeles-CA,CA,USA,33.973,-118.249,0
Z90006,Origin-Los Angeles-CA,CA,USA,34.0484,-118.294,0
Z90011,Origin-Los Angeles-CA,CA,USA,34.0071,-118.259,0
Z90012,Origin-Los Angeles-CA,CA,USA,34.0616,-118.239,0
Z90013,Origin-Los Angeles-CA,CA,USA,34.0447,-118.242,0
Z90016,Origin-Los Angeles-CA,CA,USA,34.0298,-118.353,0
Z90021,Origin-Los Angeles-CA,CA,USA,34.0293,-118.242,0
Z90022,Origin-Los Angeles-CA,CA,USA,34.0237,-118.156,0
Z90023,Origin-Los Angeles-CA,CA,USA,34.0231,-118.202,0
Z90025,Origin-Los Angeles-CA,CA,USA,34.0451,-118.445,0
Z90031,Origin-Los Angeles-CA,CA,USA,34.0787,-118.216,0
Z90033,Origin-Los Angeles-CA,CA,USA,34.0505,-118.212,0
Z90035,Origin-Los Angeles-CA,CA,USA,34.0527,-118.385,0
Z90040,Origin-Los Angeles-CA,CA,USA,33.9975,-118.153,0
Z90043,Origin-Los Angeles-CA,CA,USA,33.9875,-118.334,0
Z90057,Origin-Los Angeles-CA,CA,USA,34.0619,-118.277,0
Z90058,Origin-Los Angeles-CA,CA,USA,34.0003,-118.226,0
Z90061,Origin-Los Angeles-CA,CA,USA,33.9234,-118.276,0
Z90063,Origin-Los Angeles-CA,CA,USA,34.0452,-118.186,0
Z90064,Origin-Los Angeles-CA,CA,USA,34.0346,-118.428,0
Z90065,Origin-Los Angeles-CA,CA,USA,34.1077,-118.227,0
Z90074,Origin-Los Angeles-CA,CA,USA,33.7866,-118.299,0
Z90201,Origin-Bell-CA,CA,USA,33.9729,-118.174,0
Z90220,Origin-Compton-CA,CA,USA,33.8906,-118.237,0
Z90221,Origin-Compton-CA,CA,USA,33.8933,-118.204,0
Z90241,Origin-Downey-CA,CA,USA,33.9423,-118.129,0
Z90245,Origin-El Segundo-CA,CA,USA,33.9213,-118.408,0
Z90247,Origin-Gardena-CA,CA,USA,33.8913,-118.297,0
Z90248,Origin-Gardena-CA,CA,USA,33.8706,-118.288,0
Z90249,Origin-Gardena-CA,CA,USA,33.8993,-118.319,0
Z90250,Origin-Hawthorne-CA,CA,USA,33.9146,-118.351,0
Z90270,Origin-Maywood-CA,CA,USA,33.9889,-118.186,0
Z90280,Origin-South Gate-CA,CA,USA,33.9443,-118.195,0
Z90292,Origin-Marina Del Rey-CA,CA,USA,33.9764,-118.455,0
Z90302,Origin-Inglewood-CA,CA,USA,33.9753,-118.356,0
Z90501,Origin-Torrance-CA,CA,USA,33.8288,-118.314,0
Z90502,Origin-Torrance-CA,CA,USA,33.8334,-118.292,0
Z90504,Origin-Torrance-CA,CA,USA,33.8705,-118.331,0
Z90601,Origin-Whittier-CA,CA,USA,34.0024,-118.036,0
Z90605,Origin-Whittier-CA,CA,USA,33.9455,-118.034,0
Z90606,Origin-Whittier-CA,CA,USA,33.9784,-118.068,0
Z90620,Origin-Buena Park-CA,CA,USA,33.8411,-118.01,0
Z90621,Origin-Buena Park-CA,CA,USA,33.8758,-117.994,0
Z90630,Origin-Cypress-CA,CA,USA,33.8175,-118.04,0
Z90638,Destination-La Mirada-CA,CA,USA,33.9022,-118.01,1
Z90640,Origin-Montebello-CA,CA,USA,34.0143,-118.114,0
Z90650,Origin-Norwalk-CA,CA,USA,33.9069,-118.083,0
Z90660,Origin-Pico Rivera-CA,CA,USA,33.989,-118.089,0
Z90670,Origin-Santa Fe Springs-CA,CA,USA,33.9336,-118.068,0
Z90703,Origin-Cerritos-CA,CA,USA,33.8684,-118.068,0
Z90712,Origin-Lakewood-CA,CA,USA,33.8521,-118.147,0
Z90720,Origin-Los Alamitos-CA,CA,USA,33.794,-118.072,0
Z90723,Origin-Paramount-CA,CA,USA,33.9,-118.162,0
Z90731,Origin-San Pedro-CA,CA,USA,33.7324,-118.289,0
Z90744,Origin-Wilmington-CA,CA,USA,33.7841,-118.259,0
Z90745,Origin-Carson-CA,CA,USA,33.8239,-118.267,0
Z90746,Origin-Carson-CA,CA,USA,33.8575,-118.256,0
Z90755,Origin-Long Beach-CA,CA,USA,33.8018,-118.169,0
Z90801,Origin-Long Beach-CA,CA,USA,33.8044,-118.201,0
Z90810,Origin-Long Beach-CA,CA,USA,33.8162,-118.215,0
Z90813,Origin-Long Beach-CA,CA,USA,33.7811,-118.192,0
Z91025,Origin-Sierra Madre-CA,CA,USA,33.78662,-118.2992,0
Z91203,Origin-Glendale-CA,CA,USA,34.1529,-118.266,0
Z91208,Origin-Glendale-CA,CA,USA,34.1897,-118.229,0
Z91311,Origin-Chatsworth-CA,CA,USA,34.2591,-118.594,0
Z91331,Origin-Pacoima-CA,CA,USA,34.2548,-118.424,0
Z91340,Origin-San Fernando-CA,CA,USA,34.285,-118.438,0
Z91352,Origin-Sun Valley-CA,CA,USA,34.2241,-118.376,0
Z91358,Origin-Thousand Oaks-CA,CA,USA,34.0324,-119.134,0
Z91362,Origin-Thousand Oaks-CA,CA,USA,34.1908,-118.837,0
Z91405,Origin-Van Nuys-CA,CA,USA,34.1998,-118.447,0
Z91406,Origin-Van Nuys-CA,CA,USA,34.2016,-118.494,0
Z91502,Origin-Burbank-CA,CA,USA,34.1777,-118.309,0
Z91604,Origin-Studio City-CA,CA,USA,34.1439,-118.394,0
Z91605,Origin-North Hollywood-CA,CA,USA,34.2081,-118.401,0
Z91702,Origin-Azusa-CA,CA,USA,34.129,-117.903,0
Z91706,Origin-Baldwin Park-CA,CA,USA,34.0872,-117.97,0
Z91708,Origin-Chino-CA,CA,USA,34.84,-115.967,0
Z91709,Origin-Chino Hills-CA,CA,USA,33.9753,-117.723,0
Z91710,Origin-Chino-CA,CA,USA,34.0161,-117.687,0
Z91715,Origin-City Of Industry-CA,CA,USA,33.78661,-118.2992,0
Z91722,Origin-Covina-CA,CA,USA,34.0978,-117.907,0
Z91723,Origin-Covina-CA,CA,USA,34.0858,-117.887,0
Z91730,Origin-Rancho Cucamonga-CA,CA,USA,34.1046,-117.587,0
Z91733,Origin-South El Monte-CA,CA,USA,34.0506,-118.048,0
Z91744,Origin-La Puente-CA,CA,USA,34.0296,-117.94,0
Z91745,Origin-Hacienda Heights-CA,CA,USA,34.0006,-117.969,0
Z91746,Origin-La Puente-CA,CA,USA,34.0469,-117.985,0
Z91747,Origin-La Puente-CA,CA,USA,33.7867,-118.299,0
Z91748,Origin-Rowland Heights-CA,CA,USA,33.9851,-117.897,0
Z91752,Origin-Mira Loma-CA,CA,USA,34.0019,-117.528,0
Z91754,Origin-Monterey Park-CA,CA,USA,34.0483,-118.142,0
Z91761,Origin-Ontario-CA,CA,USA,34.0362,-117.609,0
Z91763,Origin-Montclair-CA,CA,USA,34.0704,-117.699,0
Z91764,Origin-Ontario-CA,CA,USA,34.0774,-117.622,0
Z91766,Origin-Pomona-CA,CA,USA,34.0456,-117.753,0
Z91767,Origin-Pomona-CA,CA,USA,34.0802,-117.739,0
Z91768,Origin-Pomona-CA,CA,USA,34.0652,-117.779,0
Z91773,Origin-San Dimas-CA,CA,USA,34.1034,-117.818,0
Z91789,Origin-Walnut-CA,CA,USA,34.0184,-117.854,0
Z91791,Origin-West Covina-CA,CA,USA,34.0637,-117.897,0
Z91911,Origin-Chula Vista-CA,CA,USA,32.6088,-117.061,0
Z91950,Origin-National City-CA,CA,USA,32.6709,-117.093,0
Z91978,Origin-Spring Valley-CA,CA,USA,32.7326,-116.951,0
Z92008,Origin-Carlsbad-CA,CA,USA,33.1582,-117.326,0
Z92020,Origin-El Cajon-CA,CA,USA,32.7991,-116.973,0
Z92024,Origin-Encinitas-CA,CA,USA,33.0531,-117.268,0
Z92028,Origin-Fallbrook-CA,CA,USA,33.3804,-117.206,0
Z92029,Origin-Escondido-CA,CA,USA,33.088,-117.116,0
Z92054,Origin-Oceanside-CA,CA,USA,33.2025,-117.361,0
Z92058,Origin-Oceanside-CA,CA,USA,33.0169,-116.846,0
Z92064,Origin-Poway-CA,CA,USA,32.9737,-117.037,0
Z92078,Origin-San Marcos-CA,CA,USA,33.1221,-117.156,0
Z92082,Origin-Valley Center-CA,CA,USA,33.2618,-117.01,0
Z92083,Destination-Vista-CA,CA,USA,33.1796,-117.245,1
Z92110,Origin-San Diego-CA,CA,USA,32.7665,-117.201,0
Z92126,Origin-San Diego-CA,CA,USA,32.9144,-117.141,0
Z92131,Origin-San Diego-CA,CA,USA,32.918,-117.084,0
Z92154,Origin-San Diego-CA,CA,USA,32.5744,-117.056,0
Z92203,Origin-Indio-CA,CA,USA,33.7531,-116.247,0
Z92223,Origin-Beaumont-CA,CA,USA,33.9453,-116.976,0
Z92230,Origin-Cabazon-CA,CA,USA,33.9114,-116.768,0
Z92231,Origin-Calexico-CA,CA,USA,32.6836,-115.483,0
Z92233,Origin-Calipatria-CA,CA,USA,33.1318,-115.512,0
Z92236,Origin-Coachella-CA,CA,USA,33.6799,-116.177,0
Z92250,Origin-Holtville-CA,CA,USA,32.8003,-115.354,0
Z92274,Origin-Thermal-CA,CA,USA,33.4663,-116.069,0
Z92316,Origin-Bloomington-CA,CA,USA,34.0641,-117.394,0
Z92324,Origin-Colton-CA,CA,USA,34.0619,-117.32,0
Z92335,Origin-Fontana-CA,CA,USA,34.0889,-117.452,0
Z92336,Origin-Fontana-CA,CA,USA,34.1252,-117.458,0
Z92337,Origin-Fontana-CA,CA,USA,34.0471,-117.481,0
Z92373,Origin-Redlands-CA,CA,USA,34.0348,-117.173,0
Z92374,Origin-Redlands-CA,CA,USA,34.0634,-117.169,0
Z92376,Origin-Rialto-CA,CA,USA,34.1095,-117.376,0
Z92394,Origin-Victorville-CA,CA,USA,34.5597,-117.358,0
Z92404,Origin-San Bernardino-CA,CA,USA,34.1486,-117.263,0
Z92407,Origin-San Bernardino-CA,CA,USA,34.1983,-117.358,0
Z92408,Origin-San Bernardino-CA,CA,USA,34.0808,-117.273,0
Z92410,Origin-San Bernardino-CA,CA,USA,34.107,-117.297,0
Z92411,Origin-San Bernardino-CA,CA,USA,34.1206,-117.318,0
Z92504,Origin-Riverside-CA,CA,USA,33.9264,-117.409,0
Z92507,Origin-Riverside-CA,CA,USA,33.979,-117.336,0
Z92509,Origin-Riverside-CA,CA,USA,33.9988,-117.447,0
Z92553,Origin-Moreno Valley-CA,CA,USA,33.9233,-117.242,0
Z92562,Origin-Murrieta-CA,CA,USA,33.5687,-117.253,0
Z92563,Origin-Murrieta-CA,CA,USA,33.5712,-117.154,0
Z92570,Origin-Perris-CA,CA,USA,33.7841,-117.298,0
Z92571,Origin-Perris-CA,CA,USA,33.8222,-117.215,0
Z92589,Origin-Temecula-CA,CA,USA,33.7529,-116.056,0
Z92590,Origin-Temecula-CA,CA,USA,33.4795,-117.209,0
Z92606,Origin-Irvine-CA,CA,USA,33.6956,-117.806,0
Z92614,Origin-Irvine-CA,CA,USA,33.6804,-117.826,0
Z92618,Origin-Irvine-CA,CA,USA,33.6597,-117.739,0
Z92647,Origin-Huntington Beach-CA,CA,USA,33.7252,-118.005,0
Z92649,Origin-Huntington Beach-CA,CA,USA,33.72,-118.046,0
Z92703,Origin-Santa Ana-CA,CA,USA,33.7471,-117.904,0
Z92704,Origin-Santa Ana-CA,CA,USA,33.7242,-117.906,0
Z92705,Origin-Santa Ana-CA,CA,USA,33.7621,-117.818,0
Z92707,Origin-Santa Ana-CA,CA,USA,33.7192,-117.871,0
Z92780,Origin-Tustin-CA,CA,USA,33.7417,-117.821,0
Z92801,Origin-Anaheim-CA,CA,USA,33.8449,-117.954,0
Z92806,Origin-Anaheim-CA,CA,USA,33.8355,-117.874,0
Z92821,Origin-Brea-CA,CA,USA,33.9235,-117.896,0
Z92831,Origin-Fullerton-CA,CA,USA,33.879,-117.893,0
Z92832,Destination-Fullerton-CA,CA,USA,33.8691,-117.93,1
Z92833,Origin-Fullerton-CA,CA,USA,33.8744,-117.964,0
Z92836,Origin-Fullerton-CA,CA,USA,33.6403,-117.769,0
Z92837,Origin-Fullerton-CA,CA,USA,33.6404,-117.769,0
Z92841,Origin-Garden Grove-CA,CA,USA,33.787,-117.982,0
Z92860,Origin-Norco-CA,CA,USA,33.9259,-117.56,0
Z92865,Origin-Orange-CA,CA,USA,33.8319,-117.847,0
Z92867,Origin-Orange-CA,CA,USA,33.8116,-117.829,0
Z92870,Origin-Placentia-CA,CA,USA,33.8834,-117.854,0
Z92879,Destination-Corona-CA,CA,USA,33.8808,-117.541,1
Z92880,Origin-Corona-CA,CA,USA,33.9038,-117.602,0
Z93001,Origin-Ventura-CA,CA,USA,34.3112,-119.302,0
Z93012,Origin-Camarillo-CA,CA,USA,34.2188,-118.992,0
Z93030,Origin-Oxnard-CA,CA,USA,34.2171,-119.177,0
Z93033,Origin-Oxnard-CA,CA,USA,34.167,-119.161,0
Z93036,Origin-Oxnard-CA,CA,USA,34.2295,-119.179,0
Z93060,Origin-Santa Paula-CA,CA,USA,34.3675,-119.073,0
Z93203,Origin-Arvin-CA,CA,USA,35.162,-118.847,0
Z93221,Origin-Exeter-CA,CA,USA,36.3047,-119.114,0
Z93230,Origin-Hanford-CA,CA,USA,36.3272,-119.645,0
Z93234,Origin-Huron-CA,CA,USA,36.2098,-120.085,0
Z93245,Origin-Lemoore-CA,CA,USA,36.3121,-119.803,0
Z93263,Origin-Shafter-CA,CA,USA,35.4906,-119.265,0
Z93274,Origin-Tulare-CA,CA,USA,36.2015,-119.35,0
Z93286,Origin-Woodlake-CA,CA,USA,36.4311,-119.106,0
Z93291,Origin-Visalia-CA,CA,USA,36.351,-119.337,0
Z93301,Origin-Bakersfield-CA,CA,USA,35.3815,-119.019,0
Z93307,Origin-Bakersfield-CA,CA,USA,35.3248,-118.963,0
Z93308,Origin-Bakersfield-CA,CA,USA,35.4875,-119.009,0
Z93313,Origin-Bakersfield-CA,CA,USA,35.1977,-119.057,0
Z93380,Origin-Bakersfield-CA,CA,USA,35.2944,-118.905,0
Z93456,Origin-Santa Maria-CA,CA,USA,35.0278,-120.197,0
Z93458,Origin-Santa Maria-CA,CA,USA,34.9564,-120.452,0
Z93549,Origin-Olancha-CA,CA,USA,36.2285,-117.971,0
Z93608,Origin-Cantua Creek-CA,CA,USA,36.5235,-120.384,0
Z93611,Origin-Clovis-CA,CA,USA,36.8401,-119.661,0
Z93616,Origin-Del Rey-CA,CA,USA,36.6573,-119.593,0
Z93618,Origin-Dinuba-CA,CA,USA,36.5381,-119.389,0
Z93622,Origin-Firebaugh-CA,CA,USA,36.8001,-120.58,0
Z93624,Origin-Five Points-CA,CA,USA,36.4027,-120.129,0
Z93625,Origin-Fowler-CA,CA,USA,36.6266,-119.675,0
Z93631,Origin-Kingsburg-CA,CA,USA,36.5061,-119.546,0
Z93638,Origin-Madera-CA,CA,USA,36.9915,-119.987,0
Z93657,Origin-Sanger-CA,CA,USA,36.7285,-119.536,0
Z93666,Origin-Sultana-CA,CA,USA,36.5458,-119.339,0
Z93702,Origin-Fresno-CA,CA,USA,36.7412,-119.755,0
Z93721,Origin-Fresno-CA,CA,USA,36.7333,-119.785,0
Z93722,Origin-Fresno-CA,CA,USA,36.8016,-119.889,0
Z93725,Origin-Fresno-CA,CA,USA,36.6587,-119.741,0
Z93901,Origin-Salinas-CA,CA,USA,36.6659,-121.655,0
Z93902,Origin-Salinas-CA,CA,USA,36.3544,-121.133,0
Z93908,Origin-Salinas-CA,CA,USA,36.62,-121.651,0
Z93926,Origin-Gonzales-CA,CA,USA,36.5183,-121.425,0
Z93933,Origin-Marina-CA,CA,USA,36.6782,-121.797,0
Z93940,Origin-Monterey-CA,CA,USA,36.5863,-121.887,0
Z93960,Origin-Soledad-CA,CA,USA,36.4118,-121.326,0
Z94005,Origin-Brisbane-CA,CA,USA,37.6829,-122.404,0
Z94010,Origin-Burlingame-CA,CA,USA,37.575,-122.363,0
Z94043,Origin-Mountain View-CA,CA,USA,37.4068,-122.075,0
Z94063,Origin-Redwood City-CA,CA,USA,37.4836,-122.214,0
Z94080,Origin-South San Francisco-CA,CA,USA,37.6529,-122.43,0
Z94102,Origin-San Francisco-CA,CA,USA,37.7794,-122.419,0
Z94103,Origin-San Francisco-CA,CA,USA,37.7723,-122.411,0
Z94118,Origin-San Francisco-CA,CA,USA,37.7821,-122.462,0
Z94124,Origin-San Francisco-CA,CA,USA,37.7328,-122.393,0
Z94502,Origin-Alameda-CA,CA,USA,37.7344,-122.239,0
Z94503,Origin-American Canyon-CA,CA,USA,38.1704,-122.256,0
Z94510,Origin-Benicia-CA,CA,USA,38.0718,-122.155,0
Z94533,Origin-Fairfield-CA,CA,USA,38.2696,-122.037,0
Z94534,Origin-Fairfield-CA,CA,USA,38.2459,-122.102,0
Z94538,Origin-Fremont-CA,CA,USA,37.5273,-121.968,0
Z94540,Origin-Hayward-CA,CA,USA,37.6802,-121.921,0
Z94544,Origin-Hayward-CA,CA,USA,37.6338,-122.061,0
Z94545,Origin-Hayward-CA,CA,USA,37.6357,-122.104,0
Z94550,Origin-Livermore-CA,CA,USA,37.6578,-121.73,0
Z94551,Destination-Livermore-CA,CA,USA,37.68022,-121.9212,1
Z94560,Origin-Newark-CA,CA,USA,37.5356,-122.034,0
Z94565,Origin-Pittsburg-CA,CA,USA,38.018,-121.905,0
Z94577,Origin-San Leandro-CA,CA,USA,37.7223,-122.157,0
Z94580,Origin-San Lorenzo-CA,CA,USA,37.6785,-122.132,0
Z94586,Origin-Sunol-CA,CA,USA,37.594,-121.883,0
Z94587,Origin-Union City-CA,CA,USA,37.5922,-122.046,0
Z94601,Origin-Oakland-CA,CA,USA,37.7769,-122.218,0
Z94603,Origin-Oakland-CA,CA,USA,37.7384,-122.173,0
Z94606,Origin-Oakland-CA,CA,USA,37.7932,-122.243,0
Z94607,Origin-Oakland-CA,CA,USA,37.8065,-122.289,0
Z94621,Origin-Oakland-CA,CA,USA,37.754,-122.19,0
Z94710,Origin-Berkeley-CA,CA,USA,37.87,-122.298,0
Z94801,Origin-Richmond-CA,CA,USA,37.9415,-122.366,0
Z94804,Origin-Richmond-CA,CA,USA,37.9266,-122.341,0
Z94901,Origin-San Rafael-CA,CA,USA,37.9724,-122.515,0
Z94931,Origin-Cotati-CA,CA,USA,38.3287,-122.71,0
Z94949,Origin-Novato-CA,CA,USA,38.0632,-122.541,0
Z94952,Origin-Petaluma-CA,CA,USA,38.2438,-122.693,0
Z95012,Origin-Castroville-CA,CA,USA,36.7689,-121.751,0
Z95020,Origin-Gilroy-CA,CA,USA,37.017,-121.566,0
Z95023,Origin-Hollister-CA,CA,USA,36.8623,-121.38,0
Z95037,Origin-Morgan Hill-CA,CA,USA,37.1377,-121.662,0
Z95039,Origin-Moss Landing-CA,CA,USA,36.813,-121.783,0
Z95045,Origin-San Juan Bautista-CA,CA,USA,36.8291,-121.528,0
Z95046,Origin-San Martin-CA,CA,USA,37.0888,-121.6,0
Z95050,Origin-Santa Clara-CA,CA,USA,37.3478,-121.951,0
Z95076,Origin-Watsonville-CA,CA,USA,36.9229,-121.772,0
Z95077,Origin-Watsonville-CA,CA,USA,37.053,-121.949,0
Z95110,Origin-San Jose-CA,CA,USA,37.3356,-121.899,0
Z95112,Origin-San Jose-CA,CA,USA,37.3486,-121.886,0
Z95116,Origin-San Jose-CA,CA,USA,37.3496,-121.854,0
Z95155,Origin-San Jose-CA,CA,USA,37.1894,-121.705,0
Z95159,Origin-San Jose-CA,CA,USA,37.18943,-121.7052,0
Z95203,Origin-Stockton-CA,CA,USA,37.9548,-121.307,0
Z95205,Origin-Stockton-CA,CA,USA,37.9629,-121.264,0
Z95206,Origin-Stockton-CA,CA,USA,37.9221,-121.302,0
Z95212,Origin-Stockton-CA,CA,USA,38.039,-121.242,0
Z95215,Origin-Stockton-CA,CA,USA,37.9556,-121.191,0
Z95240,Origin-Lodi-CA,CA,USA,38.1246,-121.25,0
Z95301,Origin-Atwater-CA,CA,USA,37.3512,-120.606,0
Z95304,Origin-Banta-CA,CA,USA,37.8899,-121.254,0
Z95307,Origin-Ceres-CA,CA,USA,37.5843,-120.951,0
Z95320,Origin-Escalon-CA,CA,USA,37.7979,-121.002,0
Z95322,Origin-Gustine-CA,CA,USA,37.1875,-121.032,0
Z95324,Origin-Hilmar-CA,CA,USA,37.4009,-120.88,0
Z95330,Origin-Lathrop-CA,CA,USA,37.817,-121.285,0
Z95334,Origin-Livingston-CA,CA,USA,37.3803,-120.726,0
Z95336,Origin-Manteca-CA,CA,USA,37.8129,-121.214,0
Z95354,Origin-Modesto-CA,CA,USA,37.6445,-120.98,0
Z95355,Origin-Modesto-CA,CA,USA,37.6736,-120.956,0
Z95357,Origin-Modesto-CA,CA,USA,37.6673,-120.906,0
Z95358,Origin-Modesto-CA,CA,USA,37.6229,-121.052,0
Z95360,Origin-Newman-CA,CA,USA,37.3121,-121.031,0
Z95363,Origin-Patterson-CA,CA,USA,37.4776,-121.145,0
Z95376,Origin-Tracy-CA,CA,USA,37.7285,-121.424,0
Z95377,Origin-Tracy-CA,CA,USA,37.7238,-121.447,0
Z95380,Origin-Turlock-CA,CA,USA,37.4886,-120.852,0
Z95407,Origin-Santa Rosa-CA,CA,USA,38.405,-122.727,0
Z95472,Origin-Sebastopol-CA,CA,USA,38.3934,-122.837,0
Z95668,Origin-Pleasant Grove-CA,CA,USA,38.8323,-121.517,0
Z95688,Origin-Vacaville-CA,CA,USA,38.3806,-121.992,0
Z95691,Origin-West Sacramento-CA,CA,USA,38.5692,-121.545,0
Z95765,Origin-Rocklin-CA,CA,USA,38.8181,-121.263,0
Z95776,Origin-Woodland-CA,CA,USA,38.6813,-121.742,0
Z95823,Origin-Sacramento-CA,CA,USA,38.4776,-121.446,0
Z95824,Origin-Sacramento-CA,CA,USA,38.5184,-121.444,0
Z95826,Origin-Sacramento-CA,CA,USA,38.5501,-121.375,0
Z95828,Origin-Sacramento-CA,CA,USA,38.4848,-121.402,0
Z95838,Origin-Sacramento-CA,CA,USA,38.6412,-121.442,0
Z95901,Origin-Marysville-CA,CA,USA,39.1597,-121.537,0
Z95913,Origin-Artois-CA,CA,USA,39.6333,-122.21,0
Z95915,Origin-Belden-CA,CA,USA,39.9123,-120.835,0
Z95928,Origin-Chico-CA,CA,USA,39.721,-121.819,0
Z95948,Origin-Gridley-CA,CA,USA,39.3522,-121.711,0
Z95963,Origin-Orland-CA,CA,USA,39.761,-122.218,0
Z95973,Origin-Chico-CA,CA,USA,39.7935,-121.879,0
Z95987,Origin-Williams-CA,CA,USA,39.1396,-122.206,0
Z95988,Origin-Willows-CA,CA,USA,39.4998,-122.208,0
Z95991,Origin-Yuba City-CA,CA,USA,39.1142,-121.62,0
Z96021,Origin-Corning-CA,CA,USA,39.9183,-122.214,0
Z96094,Origin-Weed-CA,CA,USA,41.4605,-122.385,0
Z97006,Origin-Beaverton-OR,OR,USA,45.5178,-122.858,0
Z97013,Origin-Canby-OR,OR,USA,45.247,-122.682,0
Z97015,Origin-Clackamas-OR,OR,USA,45.4168,-122.529,0
Z97027,Origin-Gladstone-OR,OR,USA,45.3857,-122.593,0
Z97070,Origin-Wilsonville-OR,OR,USA,45.3081,-122.773,0
Z97071,Origin-Woodburn-OR,OR,USA,45.1445,-122.845,0
Z97075,Origin-Beaverton-OR,OR,USA,45.5487,-123.115,0
Z97116,Origin-Forest Grove-OR,OR,USA,45.541,-123.13,0
Z97140,Origin-Sherwood-OR,OR,USA,45.3522,-122.854,0
Z97203,Origin-Portland-OR,OR,USA,45.5898,-122.739,0
Z97210,Origin-Portland-OR,OR,USA,45.5349,-122.709,0
Z97220,Origin-Portland-OR,OR,USA,45.5462,-122.56,0
Z97222,Origin-Portland-OR,OR,USA,45.4427,-122.618,0
Z97224,Origin-Portland-OR,OR,USA,45.4064,-122.784,0
Z97230,Origin-Portland-OR,OR,USA,45.5395,-122.505,0
Z97232,Origin-Portland-OR,OR,USA,45.5288,-122.645,0
Z97293,Origin-Portland-OR,OR,USA,45.5806,-122.375,0
Z97301,Origin-Salem-OR,OR,USA,44.9267,-122.987,0
Z97302,Origin-Salem-OR,OR,USA,44.9065,-123.051,0
Z97303,Origin-Salem-OR,OR,USA,44.9841,-123.02,0
Z97305,Origin-Salem-OR,OR,USA,44.9951,-122.958,0
Z97308,Origin-Salem-OR,OR,USA,44.9845,-122.457,0
Z97402,Origin-Eugene-OR,OR,USA,44.0623,-123.168,0
Z97707,Origin-Bend-OR,OR,USA,43.8479,-121.466,0
Z97814,Origin-Baker City-OR,OR,USA,44.7966,-117.821,0
Z97818,Origin-Boardman-OR,OR,USA,45.8166,-119.762,0
Z97838,Origin-Hermiston-OR,OR,USA,45.8464,-119.284,0
Z97913,Origin-Nyssa-ID,ID,USA,43.9096,-116.971,0
Z97914,Origin-Ontario-OR,OR,USA,44.0571,-116.991,0
Z98001,Origin-Auburn-WA,WA,USA,47.3038,-122.266,0
Z98002,Origin-Auburn-WA,WA,USA,47.3043,-122.216,0
Z98003,Origin-Federal Way-WA,WA,USA,47.3111,-122.312,0
Z98005,Origin-Bellevue-WA,WA,USA,47.611,-122.169,0
Z98006,Origin-Bellevue-WA,WA,USA,47.563,-122.153,0
Z98019,Origin-Duvall-WA,WA,USA,47.7353,-121.962,0
Z98031,Origin-Kent-WA,WA,USA,47.3885,-122.196,0
Z98032,Origin-Kent-WA,WA,USA,47.3883,-122.259,0
Z98036,Origin-Lynnwood-WA,WA,USA,47.8089,-122.284,0
Z98052,Origin-Redmond-WA,WA,USA,47.6775,-122.121,0
Z98055,Destination-Renton-WA,WA,USA,47.4675,-122.21,1
Z98057,Origin-Renton-WA,WA,USA,47.4323,-121.803,0
Z98101,Origin-Seattle-WA,WA,USA,47.6107,-122.334,0
Z98104,Origin-Seattle-WA,WA,USA,47.6025,-122.328,0
Z98106,Origin-Seattle-WA,WA,USA,47.5329,-122.354,0
Z98108,Origin-Seattle-WA,WA,USA,47.5462,-122.315,0
Z98117,Origin-Seattle-WA,WA,USA,47.686,-122.378,0
Z98118,Origin-Seattle-WA,WA,USA,47.5434,-122.275,0
Z98119,Origin-Seattle-WA,WA,USA,47.6388,-122.367,0
Z98124,Origin-Seattle-WA,WA,USA,47.43233,-121.8033,0
Z98134,Origin-Seattle-WA,WA,USA,47.5787,-122.334,0
Z98144,Origin-Seattle-WA,WA,USA,47.5859,-122.301,0
Z98148,Origin-Seattle-WA,WA,USA,47.4438,-122.331,0
Z98188,Origin-Seattle-WA,WA,USA,47.4504,-122.275,0
Z98203,Origin-Everett-WA,WA,USA,47.9435,-122.218,0
Z98223,Origin-Arlington-WA,WA,USA,48.2039,-122.053,0
Z98225,Origin-Bellingham-WA,WA,USA,48.7476,-122.485,0
Z98230,Origin-Blaine-WA,WA,USA,48.9615,-122.737,0
Z98233,Origin-Burlington-WA,WA,USA,48.4869,-122.334,0
Z98248,Origin-Ferndale-WA,WA,USA,48.8527,-122.618,0
Z98264,Origin-Lynden-WA,WA,USA,48.9435,-122.457,0
Z98273,Origin-Mount Vernon-WA,WA,USA,48.4146,-122.352,0
Z98275,Origin-Mukilteo-WA,WA,USA,47.9162,-122.303,0
Z98296,Origin-Snohomish-WA,WA,USA,47.8461,-122.111,0
Z98387,Origin-Spanaway-WA,WA,USA,47.0779,-122.405,0
Z98390,Origin-Sumner-WA,WA,USA,47.1964,-122.189,0
Z98409,Origin-Tacoma-WA,WA,USA,47.209,-122.481,0
Z98421,Origin-Tacoma-WA,WA,USA,47.2507,-122.412,0
Z98424,Destination-Tacoma-WA,WA,USA,47.2422,-122.359,1
Z98502,Origin-Olympia-WA,WA,USA,47.0716,-122.977,0
Z98532,Origin-Chehalis-WA,WA,USA,46.6308,-123.016,0
Z98660,Origin-Vancouver-WA,WA,USA,45.6523,-122.69,0
Z98666,Origin-Vancouver-WA,WA,USA,45.8016,-122.52,0
Z98674,Origin-Woodland-WA,WA,USA,45.9287,-122.703,0
Z98801,Origin-Wenatchee-WA,WA,USA,47.4255,-120.329,0
Z98837,Origin-Moses Lake-WA,WA,USA,47.1337,-119.285,0
Z98844,Origin-Oroville-WA,WA,USA,48.9333,-119.382,0
Z98848,Origin-Quincy-WA,WA,USA,47.1823,-119.859,0
Z98857,Origin-Warden-WA,WA,USA,46.9707,-119.067,0
Z98901,Origin-Yakima-WA,WA,USA,46.6162,-120.465,0
Z98902,Origin-Yakima-WA,WA,USA,46.5953,-120.531,0
Z98908,Origin-Yakima-WA,WA,USA,46.6054,-120.618,0
Z98942,Origin-Selah-WA,WA,USA,46.7264,-120.57,0
Z98944,Origin-Sunnyside-WA,WA,USA,46.3421,-119.99,0
Z99202,Origin-Spokane-WA,WA,USA,47.6568,-117.379,0
Z99206,Origin-Spokane-WA,WA,USA,47.6471,-117.259,0
Z99216,Origin-Spokane-WA,WA,USA,47.6658,-117.217,0
Z99217,Origin-Spokane-WA,WA,USA,47.7076,-117.338,0
Z99302,Origin-Pasco-WA,WA,USA,46.235,-119.094,0
Z99326,Origin-Connell-WA,WA,USA,46.6757,-118.882,0
Z99336,Origin-Kennewick-WA,WA,USA,46.211,-119.164,0
Z99337,Origin-Kennewick-WA,WA,USA,46.17,-119.105,0
Z99344,Origin-Othello-WA,WA,USA,46.8435,-119.174,0
Z99350,Origin-Prosser-WA,WA,USA,46.2086,-119.745,0
Z99362,Origin-Walla Walla-OR,OR,USA,45.9868,-118.079,0
Z99363,Origin-Wallula-WA,WA,USA,46.059,-118.885,0
Z99833,Origin-Petersburg-AK,AK,USA,56.7843,-132.973,0
